"id","region","state","locality","site_name","latitude","longitude","protection","popularity","length_sca","n_marinas_","size","marina_id","ocean_acce","land_acces","accessibil","geometry"
1,"Yucatan Peninsula","QUINTANA_ROO","BANCO_CHINCHORROS","132_DEGREE",18.77745437,-87.32370391,"Not take zone","6","1.960153057","0","1","406","1.960153057","1.875","3.675286983",c(-87.32370391, 18.77745437)
2,"Yucatan Peninsula","QUINTANA_ROO","BANCO_CHINCHORROS","40_CANNONS",18.73911455,-87.35598319,"Into MPA","6","2.036115331","0.172413793","1","406","2.208529124","1.875","4.140992108",c(-87.35598319, 18.73911455)
3,"Northwest Mexico","BAJA_CALIFORNIA","TIJUANA","85_FT_REEF",32.37732091,-117.2073272,"Into MPA","4","2.255751669","0.172413793","2","36","2.428165463","7.5","18.21124097",c(-117.2073272, 32.37732091)
4,"Northwest Mexico","BAJA_CALIFORNIA SUR","LOS_CABOS","ABANICOS",23.004123,-109.708393,"Not protected","2","2.589855489","0.172413793","3","23","2.762269282","9.375","25.89627452",c(-109.708393, 23.004123)
5,"Mexican Pacific","GUERRERO","ACAPULCO","AC_LAS_CUEVAS",16.817778,-99.905166,"Not protected","3","3.049715948","0.344827586","3","26","3.394543534","9.375","31.82384563",c(-99.905166, 16.817778)
6,"Northwest Mexico","NAYARIT","ISLA_ISABEL","ACANTILADO_EL_FARO",21.840285,-105.886261,"Not take zone","2","1.553165949","0","0","195","1.553165949","4.375","6.795101026",c(-105.886261, 21.840285)
7,"Mexican Pacific","COLIMA","REVILLAGIGEDO","ACUARIO",18.779559,-111.043402,"Not take zone","NA","NA","NA","NA","NA","NA","NA","NA",c(-111.043402, 18.779559)
8,"Northwest Mexico","BAJA_CALIFORNIA","BAHIA DE LOS ANGELES","AG_ANIMAS",28.696497,-112.931658,"Not take zone","1","1.278252787","0","2","140","1.278252787","5","6.391263937",c(-112.931658, 28.696497)
9,"Northwest Mexico","BAJA_CALIFORNIA","BAHIA DE LOS ANGELES","AG_ANIMAS_LAVADERO",28.698651,-112.904691,"Not take zone","2","1.257554686","0","2","140","1.257554686","5","6.287773432",c(-112.904691, 28.698651)
10,"Northwest Mexico","BAJA_CALIFORNIA","ENSENADA","AGUA_DULCE",31.54747256,-116.6913751,"Not protected","1","2.095181164","0.172413793","0","94","2.267594957","4.375","9.920727939",c(-116.6913751, 31.54747256)
11,"Mexican Pacific","COLIMA","MANZANILLO","AHOGADA",19.09494844,-104.424838,"Not protected","5","2.934155948","0.689655172","1","208","3.62381112","8.125","29.44346535",c(-104.424838, 19.09494844)
12,"Gulf of Mexico","VERACRUZ","VERACRUZ","AHOGADO_2",19.22143011,-96.05753046,"Into MPA","1","2.530520025","1.724137931","3","6","4.254657956","7.5","31.90993467",c(-96.05753046, 19.22143011)
13,"Gulf of Mexico","VERACRUZ","VERACRUZ","AHOGADO_4",19.21772106,-96.05593373,"Into MPA","1","2.546432295","1.896551724","3","6","4.442984019","7.5","33.32238015",c(-96.05593373, 19.21772106)
14,"Gulf of Mexico","VERACRUZ","VERACRUZ","AHOGADO_DE_LA_I",19.11803705,-95.94375516,"Into MPA","1","2.531551474","1.896551724","0","301","4.428103198","7.5","33.21077398",c(-95.94375516, 19.11803705)
15,"Gulf of Mexico","VERACRUZ","VERACRUZ","AHOGADO_DEL_ARQUITECTO",19.22146667,-96.05788333,"Into MPA","1","2.530520025","1.724137931","3","6","4.254657956","7.5","31.90993467",c(-96.05788333, 19.22146667)
16,"Yucatan Peninsula","QUINTANA_ROO","AKUMAL","AK_LA_ISLA",20.397703,-87.30325,"Into MPA","1","3.897682497","0.689655172","0","387","4.587337669","6.875","31.53794648",c(-87.30325, 20.397703)
17,"Northwest Mexico","JALISCO","PUERTO_VALLARTA","AMARRADERO",20.699884,-105.564854,"Into MPA","3","2.410379501","0.344827586","3","73","2.755207087","8.75","24.10806201",c(-105.564854, 20.699884)
18,"Gulf of Mexico","VERACRUZ","VERACRUZ","ANA_ELENA",19.1684831,-95.86115506,"Into MPA","1","2.082088613","0.862068966","0","301","2.944157579","7.5","22.08118184",c(-95.86115506, 19.1684831)
19,"Northwest Mexico","BAJA_CALIFORNIA SUR","LOS_CABOS","ANEGADA",22.878553,-109.898835,"Into MPA","12","3.728597076","0.172413793","3","17","3.90101087","9.375","36.5719769",c(-109.898835, 22.878553)
20,"Gulf of Mexico","VERACRUZ","VERACRUZ","ANEGADA_DE_ADENTRO",19.22306138,-96.05155,"Into MPA","9","2.496792651","1.724137931","3","6","4.220930582","7.5","31.65697936",c(-96.05155, 19.22306138)
21,"Gulf of Mexico","VERACRUZ","VERACRUZ","ANEGADA_DE_AFUERA",19.14190123,-95.83503739,"Into MPA","13","2.036739165","0.862068966","0","302","2.898808131","7.5","21.74106098",c(-95.83503739, 19.14190123)
22,"Northwest Mexico","BAJA_CALIFORNIA SUR","LORETO","ANEGADOS",25.88411988,-111.3352286,"Into MPA","5","2.461452013","0.344827586","3","35","2.806279599","4.375","12.27747324",c(-111.3352286, 25.88411988)
23,"Northwest Mexico","JALISCO","BAHIA_DE TENACATITA","ANGELES_LOCOS",19.272471,-104.897761,"Not protected","5","1.975473184","0.172413793","0","207","2.147886977","6.875","14.76672297",c(-104.897761, 19.272471)
24,"Northwest Mexico","BAJA_CALIFORNIA SUR","LA_PAZ","ANIMAS",25.089485,-110.566779,"Not protected","41","1.68599573","0","0","132","1.68599573","1.25","2.107494663",c(-110.566779, 25.089485)
25,"Gulf of Mexico","VERACRUZ","VERACRUZ","AOGADO_DEL_ARQUITECTO_GOGLE",19.22146645,-96.05792675,"Into MPA","1","2.530520025","1.724137931","3","6","4.254657956","7.5","31.90993467",c(-96.05792675, 19.22146645)
26,"Mexican Pacific","COLIMA","MANZANILLO","AQUARIUM",19.10130374,-104.3917058,"Not protected","4","3.587526719","0.689655172","1","208","4.277181892","8.125","34.75210287",c(-104.3917058, 19.10130374)
27,"Northwest Mexico","BAJA_CALIFORNIA SUR","LOS_CABOS","ARCO_SAN_LUCAS",22.876139,-109.892835,"Into MPA","8","3.499458101","0.172413793","3","17","3.671871894","9.375","34.42379901",c(-109.892835, 22.876139)
28,"Yucatan Peninsula","QUINTANA_ROO","PLAYA_DEL CARMEN","ARENAL_DE_LA_GORDA",20.645165,-86.921769,"Into MPA","3","2.354014298","2.24137931","2","382","4.595393609","6.875","31.59333106",c(-86.921769, 20.645165)
29,"Yucatan Peninsula","QUINTANA_ROO","CANCUN","ARISTOS",21.12118059,-86.7417447,"Into MPA","17","3.411648438","4.827586207","2","367","8.239234645","8.75","72.09330315",c(-86.7417447, 21.12118059)
30,"Yucatan Peninsula","YUCATAN","MERIDA","ARRECIFE_ALACRANES",22.378604,-89.687774,"Not take zone","3","1.008131045","0","3","346","1.008131045","6.875","6.930900934",c(-89.687774, 22.378604)
31,"Gulf of Mexico","VERACRUZ","VERACRUZ","ARRECIFE_CABEZO",19.15617924,-95.85450386,"Into MPA","13","2.076496215","0.862068966","0","302","2.93856518","7.5","22.03923885",c(-95.85450386, 19.15617924)
32,"Gulf of Mexico","VERACRUZ","NARANJOS","ARRECIFE_DE_ENMEDIO",21.517131,-97.244703,"Into MPA","5","1.689143725","0.172413793","1","276","1.861557518","7.5","13.96168139",c(-97.244703, 21.517131)
33,"Yucatan Peninsula","QUINTANA_ROO","AKUMAL","ARRECIFE_DICK",20.39994895,-87.3064469,"Into MPA","NA","NA","NA","NA","NA","NA","NA","NA",c(-87.3064469, 20.39994895)
34,"Yucatan Peninsula","QUINTANA_ROO","AKUMAL","ARRECIFE_GONZALO",20.39102726,-87.30866686,"Into MPA","3","4.155488465","0.689655172","0","387","4.845143637","6.875","33.3103625",c(-87.30866686, 20.39102726)
35,"Yucatan Peninsula","QUINTANA_ROO","CONTOY","ARRECIFE_IXLACHE",21.475737,-86.791213,"Into MPA","1","2.099479419","0.172413793","2","354","2.271893212","6.875","15.61926584",c(-86.791213, 21.475737)
36,"Northwest Mexico","BAJA_CALIFORNIA SUR","CABO_PULMO","ARRECIFE_MARIO",23.425523,-109.404161,"Not take zone","26","2.682203143","0.172413793","0","117","2.854616936","4.375","12.48894909",c(-109.404161, 23.425523)
37,"Gulf of Mexico","VERACRUZ","VERACRUZ","ARRECIFE_PAJAROS",19.19014331,-96.08896861,"Into MPA","14","2.938127324","1.896551724","3","6","4.834679048","7.5","36.26009286",c(-96.08896861, 19.19014331)
38,"Gulf of Mexico","VERACRUZ","VERACRUZ","ARRECIFE_POLO",19.05673923,-95.92012018,"Into MPA","14","2.664938509","1.724137931","0","302","4.38907644","7.5","32.9180733",c(-95.92012018, 19.05673923)
39,"Gulf of Mexico","VERACRUZ","VERACRUZ","ARRECIFE_RIZO",19.10365328,-95.93640154,"Into MPA","13","2.612151621","1.724137931","0","301","4.336289552","7.5","32.52217164",c(-95.93640154, 19.10365328)
40,"Northwest Mexico","BAJA_CALIFORNIA","ENSENADA","ARRECIFE_SACRAMENTO",30.070567,-115.842035,"Not protected","1","1.609087536","0","2","96","1.609087536","0","0",c(-115.842035, 30.070567)
41,"Northwest Mexico","BAJA_CALIFORNIA","ENSENADA","ARRECIFE_SAN_MIGUEL",31.905883,-116.75336,"Not protected","1","2.807000268","0.862068966","3","46","3.669069234","8.125","29.81118752",c(-116.75336, 31.905883)
42,"Gulf of Mexico","VERACRUZ","TUXPAN","ARRECIFE_TUXPAN",21.037356,-97.191138,"Into MPA","9","2.21925264","0.689655172","1","286","2.908907812","6.875","19.99874121",c(-97.191138, 21.037356)
43,"Yucatan Peninsula","QUINTANA_ROO","ISLA_MUJERES","ATLANTIS",21.19960467,-86.7072987,"Into MPA","3","2.912586154","5","3","24","7.912586154","9.375","74.1804952",c(-86.7072987, 21.19960467)
44,"Yucatan Peninsula","QUINTANA_ROO","AKUMAL","AVENTURAS_REEF",20.378616,-87.320584,"Into MPA","NA","NA","NA","NA","NA","NA","NA","NA",c(-87.320584, 20.378616)
45,"Northwest Mexico","SONORA","PUERTO_PENASCO","BAH<U+FFFD>A_LA_CHOYA",31.343953,-113.643244,"Not protected","2","2.800530082","0.344827586","1","141","3.145357668","2.5","7.86339417",c(-113.643244, 31.343953)
46,"Northwest Mexico","BAJA_CALIFORNIA SUR","LA_PAZ","BAJITO",24.598885,-110.404369,"Not take zone","1","1.703869227","0","0","131","1.703869227","1.25","2.129836534",c(-110.404369, 24.598885)
47,"Northwest Mexico","BAJA_CALIFORNIA SUR","LA_PAZ","BAJO",24.687731,-110.262588,"Not protected","67","1.56208381","0","0","131","1.56208381","1.25","1.952604763",c(-110.262588, 24.687731)
48,"Northwest Mexico","BAJA_CALIFORNIA SUR","LOS_CABOS","BAJO_DE_90",22.986792,-109.72093,"Not protected","2","2.424490107","0.172413793","3","23","2.5969039","9.375","24.34597406",c(-109.72093, 22.986792)
49,"Northwest Mexico","JALISCO","PUERTO_VALLARTA","BAJO_DE_CRISTO",20.547706,-105.290045,"Not protected","3","2.820637074","1.034482759","0","88","3.855119833","9.375","36.14174843",c(-105.290045, 20.547706)
50,"Northwest Mexico","JALISCO","PUERTO_VALLARTA","BAJO_DE_LA_MANTA",20.697459,-105.554919,"Not protected","3","2.402914225","0.344827586","3","73","2.747741812","8.75","24.04274085",c(-105.554919, 20.697459)
51,"Mexican Pacific","GUERRERO","ACAPULCO","BAJO_LA_QUEBRADA",16.843479,-99.922457,"Not protected","4","2.841921044","0.344827586","3","26","3.18674863","9.375","29.87576841",c(-99.922457, 16.843479)
52,"Northwest Mexico","BAJA_CALIFORNIA SUR","CABO_PULMO","BAJO_LOS_MEROS",23.445924,-109.414039,"Not take zone","51","2.507421003","0.172413793","0","117","2.679834796","4.375","11.72427723",c(-109.414039, 23.445924)
53,"Northwest Mexico","BAJA_CALIFORNIA","ENSENADA","BAJO_SAN_JOSE",31.40407558,-116.5643887,"Not protected","1","1.668178918","0","0","94","1.668178918","4.375","7.298282766",c(-116.5643887, 31.40407558)
54,"Northwest Mexico","BAJA_CALIFORNIA","ENSENADA","BAJO_SAN_MIGIEL",31.842316,-116.779534,"Into MPA","1","2.42072462","0.862068966","3","46","3.282793585","8.125","26.67269788",c(-116.779534, 31.842316)
55,"Northwest Mexico","SONORA","GUAYMAS","BAJO_SUBAMRINO",27.9248782,-111.0384671,"Not protected","5","3.165912056","1.896551724","3","148","5.06246378","8.75","44.29655807",c(-111.0384671, 27.9248782)
56,"Yucatan Peninsula","QUINTANA_ROO","COZUMEL","BAJOS_DE_MOLAS",20.590379,-86.740331,"Into MPA","27","2.158647849","0.344827586","1","389","2.503475435","8.125","20.34073791",c(-86.740331, 20.590379)
57,"Northwest Mexico","BAJA_CALIFORNIA SUR","LA_PAZ","BALLENA",24.482352,-110.399837,"Into MPA","65","1.889620548","0","3","29","1.889620548","5.625","10.62911558",c(-110.399837, 24.482352)
58,"Yucatan Peninsula","QUINTANA_ROO","TULUM","BALLENA",20.20932,-87.409071,"Into MPA","1","3.200436691","0.344827586","0","401","3.545264277","7.5","26.58948208",c(-87.409071, 20.20932)
59,"Northwest Mexico","BAJA_CALIFORNIA SUR","LOS_CABOS","BALLENA_CSL",22.902206,-109.842622,"Not protected","11","2.541039071","0.172413793","3","17","2.713452864","9.375","25.4386206",c(-109.842622, 22.902206)
60,"Yucatan Peninsula","QUINTANA_ROO","CANCUN","BANDERAS",21.16762848,-86.73085468,"Into MPA","22","2.968582421","5","1","379","7.968582421","6.875","54.78400414",c(-86.73085468, 21.16762848)
61,"Yucatan Peninsula","QUINTANA_ROO","CANCUN","BARBONES",21.175825,-86.712265,"Into MPA","2","2.76343373","5","1","379","7.76343373","6.875","53.37360689",c(-86.712265, 21.175825)
62,"Gulf of Mexico","VERACRUZ","VERACRUZ","BARCO_DE_VALIENTES",19.08407383,-95.85741823,"Into MPA","1","2.212645455","0.862068966","0","302","3.07471442","7.5","23.06035815",c(-95.85741823, 19.08407383)
63,"Yucatan Peninsula","QUINTANA_ROO","CONTOY","BARCO_HUNDIDO_CONTOY",21.451658,-86.783824,"Into MPA","1","2.184602117","0.172413793","2","354","2.357015911","6.875","16.20448439",c(-86.783824, 21.451658)
64,"Mexican Pacific","OAXACA","HUATULCO","BARQUITO",15.73951927,-96.12339052,"Not protected","8","3.387400406","0.344827586","3","226","3.732227992","8.75","32.65699493",c(-96.12339052, 15.73951927)
65,"Northwest Mexico","BAJA_CALIFORNIA SUR","CABO_PULMO","BARRA_DE AFUERA",23.42804762,-109.4199657,"Not take zone","21","2.652406377","0.172413793","0","117","2.82482017","4.375","12.35858824",c(-109.4199657, 23.42804762)
66,"Northwest Mexico","BAJA_CALIFORNIA SUR","LA_PAZ","BARRA_FLOR_MONTALVA",24.17376975,-111.1782483,"Not protected","1","0.984374259","0","1","77","0.984374259","6.25","6.152339121",c(-111.1782483, 24.17376975)
67,"Yucatan Peninsula","QUINTANA_ROO","PLAYA_DEL CARMEN","BARRACUDA",20.58030268,-87.1114111,"Into MPA","58","3.339710124","2.75862069","2","39","6.098330813","6.25","38.11456758",c(-87.1114111, 20.58030268)
68,"Yucatan Peninsula","QUINTANA_ROO","COZUMEL","BARRACUDA_REEF",20.54273303,-86.93723917,"Not protected","65","3.588853475","3.103448276","3","388","6.692301751","7.5","50.19226313",c(-86.93723917, 20.54273303)
69,"Northwest Mexico","SONORA","GUAYMAS","BEACH",27.973833,-111.378059,"Not protected","8","1.900370079","0","1","147","1.900370079","5.625","10.6895817",c(-111.378059, 27.973833)
70,"Gulf of Mexico","VERACRUZ","TUXPAN","BLAKE",20.752479,-96.935141,"Not protected","2","1.824187062","0","0","49","1.824187062","5","9.120935311",c(-96.935141, 20.752479)
71,"Gulf of Mexico","VERACRUZ","VERACRUZ","BLANQUILLA_BOYA_CENTRO",19.22477453,-96.10060821,"Into MPA","1","2.986212407","1.724137931","3","6","4.710350338","7.5","35.32762754",c(-96.10060821, 19.22477453)
72,"Gulf of Mexico","VERACRUZ","VERACRUZ","BLANQUILLA_LADO_DE_AFUERA",19.22348263,-96.09434704,"Into MPA","1","2.913280993","1.724137931","3","6","4.637418924","7.5","34.78064193",c(-96.09434704, 19.22348263)
73,"Gulf of Mexico","VERACRUZ","VERACRUZ","BLANQUILLA_NORTE",19.22585706,-96.10135011,"Into MPA","1","2.909695193","1.724137931","3","6","4.633833124","7.5","34.75374843",c(-96.10135011, 19.22585706)
74,"Gulf of Mexico","VERACRUZ","VERACRUZ","BLANQUILLA_SUR",19.22215064,-96.09728296,"Into MPA","1","2.986212407","1.724137931","3","6","4.710350338","7.5","35.32762754",c(-96.09728296, 19.22215064)
75,"Yucatan Peninsula","QUINTANA_ROO","XCALAK","BLANQUIZAR",18.37606812,-87.77342779,"Into MPA","2","2.258983352","0.344827586","1","409","2.603810938","5","13.01905469",c(-87.77342779, 18.37606812)
76,"Yucatan Peninsula","QUINTANA_ROO","XCALAK","BLANQUIZARES",18.24526317,-87.79998515,"Into MPA","2","2.764591867","0.344827586","1","89","3.109419453","5","15.54709727",c(-87.79998515, 18.24526317)
77,"Gulf of Mexico","VERACRUZ","NARANJOS","BLANQUZALES",21.544488,-97.277978,"Into MPA","5","1.669580338","0.344827586","1","276","2.014407925","7.5","15.10805943",c(-97.277978, 21.544488)
78,"Northwest Mexico","BAJA_CALIFORNIA SUR","LOS_CABOS","BLOW_HOLE",22.933601,-109.805527,"Not protected","16","2.244258796","0.344827586","3","17","2.589086382","9.375","24.27268483",c(-109.805527, 22.933601)
79,"Yucatan Peninsula","QUINTANA_ROO","MAHAHUAL","BLUE_HA_REEF",18.70543977,-87.70531654,"Into MPA","2","4.077510443","0.517241379","1","408","4.594751823","7.5","34.46063867",c(-87.70531654, 18.70543977)
80,"Northwest Mexico","BAJA_CALIFORNIA SUR","COMONDU","BOCA_ANIMAS",25.68643122,-112.0975781,"Into MPA","1","2.227221152","0.172413793","0","114","2.399634945","1.875","4.499315521",c(-112.0975781, 25.68643122)
81,"Mexican Pacific","GUERRERO","ACAPULCO","BOCA_CHICA",16.828118,-99.907935,"Not protected","1","3.271344087","0.344827586","3","26","3.616171673","9.375","33.90160944",c(-99.907935, 16.828118)
82,"Northwest Mexico","BAJA_CALIFORNIA SUR","LA_PAZ","BOCA_PALMERITO",23.49845337,-110.3101469,"Not protected","1","2.286667796","0.172413793","0","116","2.459081589","5","12.29540795",c(-110.3101469, 23.49845337)
83,"Northwest Mexico","BAJA_CALIFORNIA SUR","COMONDU","BOCA_SAN_ANDRES",25.74562169,-112.1028178,"Not protected","1","2.625447494","0.172413793","0","114","2.797861287","1.875","5.245989913",c(-112.1028178, 25.74562169)
84,"Northwest Mexico","BAJA_CALIFORNIA SUR","COMONDU","BOCA_SAN_GREGORIO",26.0563439,-112.2807008,"Not protected","NA","NA","NA","NA","NA","NA","NA","NA",c(-112.2807008, 26.0563439)
85,"Northwest Mexico","BAJA_CALIFORNIA SUR","COMONDU","BOCA_SANTO_DOMINGO",25.49526904,-112.0984746,"Into MPA","1","1.714469985","0","1","115","1.714469985","3.75","6.429262444",c(-112.0984746, 25.49526904)
86,"Northwest Mexico","BAJA_CALIFORNIA","ENSENADA","BOCANA",29.97686251,-115.8198736,"Not protected","1","1.790492409","0","2","96","1.790492409","0","0",c(-115.8198736, 29.97686251)
87,"Gulf of Mexico","VERACRUZ","VERACRUZ","BORRE",19.06007004,-95.92202259,"Into MPA","1","2.689709387","1.724137931","0","302","4.413847318","7.5","33.10385489",c(-95.92202259, 19.06007004)
88,"Northwest Mexico","BAJA_CALIFORNIA","BAHIA DE LOS ANGELES","BORREGO",29.01300826,-113.5258362,"Into MPA","1","2.498653371","0.172413793","2","140","2.671067164","5","13.35533582",c(-113.5258362, 29.01300826)
89,"Northwest Mexico","SONORA","GUAYMAS","BOULDERS",27.976535,-111.379436,"Not protected","8","1.895019072","0","1","147","1.895019072","5.625","10.65948228",c(-111.379436, 27.976535)
90,"Yucatan Peninsula","QUINTANA_ROO","CANCUN","BOYA_DE_LOS_LOCOS",21.036089,-86.769924,"Into MPA","11","3.492168457","4.827586207","1","380","8.319754664","8.75","72.79785331",c(-86.769924, 21.036089)
91,"Yucatan Peninsula","QUINTANA_ROO","CANCUN","BOYA_DEL_PUENTE",21.039205,-86.763381,"Into MPA","8","3.153661309","4.827586207","1","380","7.981247516","8.75","69.83591577",c(-86.763381, 21.039205)
92,"Mexican Pacific","COLIMA","REVILLAGIGEDO","BOYLER",19.329291,-110.816566,"Not take zone","15","0.286851101","0","3","17","0.286851101","9.375","2.689229073",c(-110.816566, 19.329291)
93,"Mexican Pacific","COLIMA","MANZANILLO","BRISAS_JETTY",19.06349072,-104.2963503,"Not protected","NA","NA","NA","NA","NA","NA","NA","NA",c(-104.2963503, 19.06349072)
94,"Mexican Pacific","GUERRERO","ACAPULCO","BUFADERO",16.819936,-99.913379,"Not protected","1","2.982656473","0.344827586","3","26","3.32748406","9.375","31.19516306",c(-99.913379, 16.819936)
95,"Northwest Mexico","BAJA_CALIFORNIA SUR","LORETO","BULLDOG",25.81208023,-111.2536737,"Into MPA","5","2.684676416","0.172413793","3","35","2.857090209","4.375","12.49976967",c(-111.2536737, 25.81208023)
96,"Northwest Mexico","BAJA_CALIFORNIA","ROSARITO","BUQUE_URIBE_121",32.222265,-116.933427,"Not protected","1","2.029162922","0.344827586","3","42","2.373990508","4.375","10.38620847",c(-116.933427, 32.222265)
97,"Northwest Mexico","BAJA_CALIFORNIA","BAHIA DE LOS ANGELES","CABEZA_CABALLO",28.97697382,-113.4771121,"Into MPA","1","2.439721815","0.172413793","2","140","2.612135608","5","13.06067804",c(-113.4771121, 28.97697382)
98,"Northwest Mexico","BAJA_CALIFORNIA SUR","COMONDU","CABO_CORZO",24.6656021,-112.1840912,"Not protected","1","2.137216231","0.172413793","1","77","2.309630024","6.25","14.43518765",c(-112.1840912, 24.6656021)
99,"Gulf of Mexico","VERACRUZ","VERACRUZ","CABO_MEX_EXT_N",19.21992142,-96.05041978,"Into MPA","1","2.511769747","1.896551724","3","6","4.408321471","7.5","33.06241103",c(-96.05041978, 19.21992142)
100,"Gulf of Mexico","VERACRUZ","VERACRUZ","CABO_MEX_EXT_S",19.21946041,-96.04795348,"Into MPA","1","2.479110948","1.896551724","3","6","4.375662672","7.5","32.81747004",c(-96.04795348, 19.21946041)
101,"Mexican Pacific","COLIMA","REVILLAGIGEDO","CABO_PEARCE",18.778648,-110.906304,"Not take zone","10","0.207652722","0","3","17","0.207652722","9.375","1.94674427",c(-110.906304, 18.778648)
102,"Northwest Mexico","BAJA_CALIFORNIA","ENSENADA","CABO_SAN_QUINTIN",30.35172101,-116.0100505,"Not protected","1","2.36408831","0.172413793","1","95","2.536502103","1.25","3.170627629",c(-116.0100505, 30.35172101)
103,"Mexican Pacific","OAXACA","HUATULCO","CACALUTA",15.723134,-96.158968,"Not take zone","6","2.698707904","0.344827586","3","226","3.04353549","8.75","26.63093554",c(-96.158968, 15.723134)
104,"Gulf of Mexico","VERACRUZ","VERACRUZ","CADENA_DEL_RUSO",19.22439008,-96.04908356,"Into MPA","1","2.464965301","1.724137931","3","6","4.189103232","7.5","31.41827424",c(-96.04908356, 19.22439008)
105,"Yucatan Peninsula","QUINTANA_ROO","ISLA_MUJERES","CADENITA",21.25883765,-86.7553922,"Into MPA","4","2.91263681","4.655172414","3","24","7.567809223","9.375","70.94821147",c(-86.7553922, 21.25883765)
106,"Northwest Mexico","BAJA_CALIFORNIA","ENSENADA","CALAVERA",31.34974958,-116.4970752,"Not protected","1","1.554781293","0","0","94","1.554781293","4.375","6.802168159",c(-116.4970752, 31.34974958)
107,"Yucatan Peninsula","QUINTANA_ROO","CONTOY","CALDERAS",21.465706,-86.779378,"Into MPA","1","2.121394193","0.172413793","2","354","2.293807986","6.875","15.7699299",c(-86.779378, 21.465706)
108,"Mexican Pacific","GUERRERO","ACAPULCO","CALETA",16.831535,-99.902816,"Not protected","2","3.500486386","0.344827586","3","26","3.845313972","9.375","36.04981849",c(-99.902816, 16.831535)
109,"Yucatan Peninsula","QUINTANA_ROO","COZUMEL","CALETA",20.498915,-86.965122,"Not protected","NA","NA","NA","NA","NA","NA","NA","NA",c(-86.965122, 20.498915)
110,"Mexican Pacific","GUERRERO","IXTAPA","CALETA_DE_CHON",17.61447842,-101.554941,"Not protected","8","3.685858799","0.862068966","1","215","4.547927765","8.75","39.79436794",c(-101.554941, 17.61447842)
111,"Northwest Mexico","JALISCO","PUERTO_VALLARTA","CALETAS",20.5066503,-105.371673,"Not protected","NA","NA","NA","NA","NA","NA","NA","NA",c(-105.371673, 20.5066503)
112,"Northwest Mexico","BAJA_CALIFORNIA SUR","LORETO","CAMARON",25.75165613,-111.2399675,"Into MPA","5","2.402817973","0.172413793","3","35","2.575231766","4.375","11.26663898",c(-111.2399675, 25.75165613)
113,"Gulf of Mexico","VERACRUZ","VERACRUZ","CAMARONERO",19.1715278,-95.8717222,"Into MPA","1","2.106973254","0.862068966","0","301","2.969042219","7.5","22.26781664",c(-95.8717222, 19.1715278)
114,"Northwest Mexico","BAJA_CALIFORNIA","ENSENADA","CAMPO_7",31.751767,-116.716652,"Not protected","1","2.39275662","0.689655172","0","94","3.082411793","4.375","13.48555159",c(-116.716652, 31.751767)
115,"Northwest Mexico","BAJA_CALIFORNIA","ENSENADA","CAMPO_KENNEDY",31.704328,-116.693458,"Not protected","1","3.773377255","0.689655172","0","94","4.463032428","4.375","19.52576687",c(-116.693458, 31.704328)
116,"Northwest Mexico","BAJA_CALIFORNIA","ENSENADA","CAMPO_LUNA",28.982955,-118.223033,"Into MPA","2","0.510648347","0","1","95","0.510648347","1.25","0.638310434",c(-118.223033, 28.982955)
117,"Gulf of Mexico","VERACRUZ","VERACRUZ","CA<U+FFFD>ADA_DEL_DIABLO",19.14970223,-95.83420391,"Into MPA","1","2.023785624","0.862068966","0","302","2.88585459","7.5","21.64390942",c(-95.83420391, 19.14970223)
118,"Gulf of Mexico","VERACRUZ","VERACRUZ","CA<U+FFFD>ADA_DEL_DIABLO_2",19.14933931,-95.83497423,"Into MPA","1","2.030225553","0.862068966","0","302","2.892294519","7.5","21.69220889",c(-95.83497423, 19.14933931)
119,"Gulf of Mexico","VERACRUZ","VERACRUZ","CA<U+FFFD>ADAS_1",19.16936421,-95.85887629,"Into MPA","1","2.059713949","0.862068966","0","301","2.921782915","7.5","21.91337186",c(-95.85887629, 19.16936421)
120,"Gulf of Mexico","VERACRUZ","VERACRUZ","CA<U+FFFD>ADAS_2",19.16977774,-95.85943911,"Into MPA","1","2.059713949","0.862068966","0","301","2.921782915","7.5","21.91337186",c(-95.85943911, 19.16977774)
121,"Gulf of Mexico","VERACRUZ","VERACRUZ","CA<U+FFFD>ADAS_3",19.16881138,-95.85889322,"Into MPA","1","2.059713949","0.862068966","0","301","2.921782915","7.5","21.91337186",c(-95.85889322, 19.16881138)
122,"Mexican Pacific","GUERRERO","ACAPULCO","CANAL",16.825047,-99.910871,"Not protected","1","3.108764074","0.344827586","3","26","3.45359166","9.375","32.37742181",c(-99.910871, 16.825047)
123,"Northwest Mexico","BAJA_CALIFORNIA SUR","LORETO","CANDELEROS",26.13708676,-111.273796,"Not protected","8","2.138816601","0.172413793","3","63","2.311230394","7.5","17.33422796",c(-111.273796, 26.13708676)
124,"Yucatan Peninsula","QUINTANA_ROO","COZUMEL","CANNONS",20.482627,-86.773372,"Into MPA","3","1.923652248","1.206896552","1","389","3.1305488","8.125","25.435709",c(-86.773372, 20.482627)
125,"Mexican Pacific","COLIMA","REVILLAGIGEDO","CA<U+FFFD>ON",19.297213,-110.806728,"Not take zone","11","0.283233556","0","3","17","0.283233556","9.375","2.655314592",c(-110.806728, 19.297213)
126,"Gulf of Mexico","VERACRUZ","VERACRUZ","CA<U+FFFD>ON_DE_JUAREZ",19.22819116,-96.06229248,"Into MPA","1","2.549912465","1.724137931","3","6","4.274050396","7.5","32.05537797",c(-96.06229248, 19.22819116)
127,"Yucatan Peninsula","QUINTANA_ROO","XCALAK","CA<U+FFFD>ONES",18.31107267,-87.8118846,"Into MPA","2","2.908458716","0.344827586","1","409","3.253286303","5","16.26643151",c(-87.8118846, 18.31107267)
128,"Yucatan Peninsula","QUINTANA_ROO","AKUMAL","CA<U+FFFD>ONES_CABRILLA",20.39615026,-87.30084161,"Into MPA","7","3.602482107","0.689655172","0","387","4.29213728","6.875","29.5084438",c(-87.30084161, 20.39615026)
129,"Yucatan Peninsula","QUINTANA_ROO","COZUMEL","CANTAREL",20.522322,-86.944972,"Not protected","NA","NA","NA","NA","NA","NA","NA","NA",c(-86.944972, 20.522322)
130,"Northwest Mexico","BAJA_CALIFORNIA SUR","CABO_PULMO","CANTIL",23.434309,-109.414791,"Not take zone","46","2.624093518","0.172413793","0","117","2.796507311","4.375","12.23471949",c(-109.414791, 23.434309)
131,"Gulf of Mexico","VERACRUZ","VERACRUZ","CAOMEX",19.22083333,-96.05245,"Into MPA","1","2.511769747","1.724137931","3","6","4.235907678","7.5","31.76930758",c(-96.05245, 19.22083333)
132,"Yucatan Peninsula","QUINTANA_ROO","PLAYA_DEL CARMEN","CAPITAN_LAFFITE",20.713185,-86.947044,"Into MPA","7","3.018773363","1.379310345","2","382","4.398083708","6.875","30.23682549",c(-86.947044, 20.713185)
133,"Yucatan Peninsula","QUINTANA_ROO","COZUMEL","CARDONA",20.381932,-87.027143,"Into MPA","32","3.897658536","2.068965517","1","391","5.966624053","5.625","33.5622603",c(-87.027143, 20.381932)
134,"Northwest Mexico","BAJA_CALIFORNIA SUR","LA_PAZ","CARDONAL",23.776415,-109.698226,"Not protected","1","2.347055387","0.344827586","1","119","2.691882973","6.25","16.82426858",c(-109.698226, 23.776415)
135,"Northwest Mexico","JALISCO","COSTA_CAREYES","CAREYES",19.426943,-105.03672,"Not protected","3","3.68575042","0.344827586","1","206","4.030578006","3.75","15.11466752",c(-105.03672, 19.426943)
136,"Mexican Pacific","COLIMA","MANZANILLO","CARRIZALES",19.0938811,-104.4341671,"Not protected","NA","NA","NA","NA","NA","NA","NA","NA",c(-104.4341671, 19.0938811)
137,"Mexican Pacific","OAXACA","PUERTO_ESCONDIDO","CARRIZALILLO",15.859549,-97.079449,"Not protected","1","4.09608746","0.344827586","0","224","4.440915047","9.375","41.63357856",c(-97.079449, 15.859549)
138,"Mexican Pacific","GUERRERO","ACAPULCO","CASA_DEL_ARABE",16.828111,-99.915743,"Not protected","1","3.05652571","0.344827586","3","26","3.401353297","9.375","31.88768716",c(-99.915743, 16.828111)
139,"Mexican Pacific","GUERRERO","ACAPULCO","CASA_DEL_FABRI",16.831956,-99.918229,"Not protected","1","2.940489317","0.344827586","3","26","3.285316903","9.375","30.79984597",c(-99.918229, 16.831956)
140,"Northwest Mexico","BAJA_CALIFORNIA SUR","LOS_CABOS","CASCADAS_ARENA",22.878545,-109.898992,"Into MPA","15","3.728597076","0.172413793","3","17","3.90101087","9.375","36.5719769",c(-109.898992, 22.878545)
141,"Northwest Mexico","SONORA","GUAYMAS","CASCALITAS",27.97469475,-111.3788795,"Not protected","2","1.895019072","0","1","147","1.895019072","5.625","10.65948228",c(-111.3788795, 27.97469475)
142,"Northwest Mexico","BAJA_CALIFORNIA","TIJUANA","CASINO_POINT",32.39030306,-117.2385992,"Into MPA","5","2.125893036","0.172413793","2","36","2.298306829","7.5","17.23730122",c(-117.2385992, 32.39030306)
143,"Northwest Mexico","BAJA_CALIFORNIA SUR","CABO_PULMO","CASITAS",23.403539,-109.414811,"Not take zone","24","2.970875","0.172413793","0","117","3.143288793","4.375","13.75188847",c(-109.414811, 23.403539)
144,"Yucatan Peninsula","QUINTANA_ROO","COZUMEL","CATEDRAL",20.292225,-87.020792,"Not take zone","11","2.497460119","1.379310345","1","390","3.876770463","6.25","24.2298154",c(-87.020792, 20.292225)
145,"Northwest Mexico","SONORA","GUAYMAS","CAVE",27.958699,-111.365516,"Not protected","10","1.905489048","0","1","147","1.905489048","5.625","10.7183759",c(-111.365516, 27.958699)
146,"Gulf of Mexico","VERACRUZ","VERACRUZ","CEMENTERIOS",19.16980746,-95.87291366,"Into MPA","1","2.106973254","0.862068966","0","301","2.969042219","7.5","22.26781664",c(-95.87291366, 19.16980746)
147,"Yucatan Peninsula","QUINTANA_ROO","PLAYA_DEL CARMEN","CEREBROS",20.62753101,-87.05909187,"Into MPA","50","4.111498515","2.24137931","1","383","6.352877825","8.75","55.58768097",c(-87.05909187, 20.62753101)
148,"Northwest Mexico","BAJA_CALIFORNIA SUR","LOS_CABOS","CERRO_COLORADO",22.991613,-109.716543,"Not protected","2","2.455676044","0.172413793","3","23","2.628089837","9.375","24.63834222",c(-109.716543, 22.991613)
149,"Yucatan Peninsula","QUINTANA_ROO","TULUM","CHAC_CHI_REEF",20.161413,-87.435691,"Into MPA","1","2.755343769","0.172413793","0","401","2.927757562","7.5","21.95818172",c(-87.435691, 20.161413)
150,"Mexican Pacific","OAXACA","HUATULCO","CHACHACUAL",15.703334,-96.197363,"Into MPA","7","2.359350596","0.344827586","3","226","2.704178182","8.75","23.6615591",c(-96.197363, 15.703334)
151,"Yucatan Peninsula","QUINTANA_ROO","COZUMEL","CHANCANAAB",20.452897,-86.993969,"Into MPA","79","3.588776686","2.931034483","1","395","6.519811169","8.75","57.04834772",c(-86.993969, 20.452897)
152,"Yucatan Peninsula","QUINTANA_ROO","COZUMEL","CHANKANNAB_BOLONES",20.445717,-86.999644,"Into MPA","11","3.197058895","2.931034483","1","395","6.128093378","8.75","53.62081706",c(-86.999644, 20.445717)
153,"Yucatan Peninsula","QUINTANA_ROO","COZUMEL","CHEN_RIO",20.38059,-86.874811,"Into MPA","25","1.760542756","2.24137931","1","390","4.001922066","6.25","25.01201291",c(-86.874811, 20.38059)
154,"Northwest Mexico","BAJA_CALIFORNIA SUR","LOS_CABOS","CHILENO",22.946031,-109.803661,"Not protected","13","2.213425439","0.344827586","3","17","2.558253026","9.375","23.98362212",c(-109.803661, 22.946031)
155,"Yucatan Peninsula","QUINTANA_ROO","XCALAK","CHIMINEA",18.23237493,-87.82795829,"Into MPA","4","2.789650913","0.344827586","1","89","3.134478499","5","15.67239249",c(-87.82795829, 18.23237493)
156,"Northwest Mexico","JALISCO","PUERTO_VALLARTA","CHIMO",20.481298,-105.586843,"Not protected","23","3.506106923","0.344827586","0","203","3.85093451","5","19.25467255",c(-105.586843, 20.481298)
157,"Yucatan Peninsula","QUINTANA_ROO","CANCUN","CHITALES",21.16585297,-86.73564477,"Into MPA","27","2.998863184","5","1","379","7.998863184","6.875","54.99218439",c(-86.73564477, 21.16585297)
158,"Northwest Mexico","BAJA_CALIFORNIA SUR","LORETO","CHOLLA",26.04829117,-111.1760192,"Into MPA","5","2.087096873","0.172413793","3","63","2.259510666","7.5","16.94632999",c(-111.1760192, 26.04829117)
159,"Gulf of Mexico","VERACRUZ","VERACRUZ","CHOPAS",19.08123158,-95.95356645,"Into MPA","13","2.876668506","1.724137931","0","301","4.600806437","7.5","34.50604828",c(-95.95356645, 19.08123158)
160,"Yucatan Peninsula","QUINTANA_ROO","CANCUN","CHUCHOS",21.141798,-86.709485,"Into MPA","5","2.977663783","4.827586207","1","379","7.80524999","6.875","53.66109368",c(-86.709485, 21.141798)
161,"Yucatan Peninsula","QUINTANA_ROO","COZUMEL","CHUM_CHACAAB_REEF",20.288268,-87.019141,"Not take zone","59","2.463960511","1.379310345","1","390","3.843270856","6.25","24.02044285",c(-87.019141, 20.288268)
162,"Yucatan Peninsula","QUINTANA_ROO","PLAYA_DEL CARMEN","CHUNZUMBUL",20.65784369,-86.97601318,"Into MPA","59","2.585985082","2.24137931","2","382","4.827364393","6.875","33.1881302",c(-86.97601318, 20.65784369)
163,"Yucatan Peninsula","QUINTANA_ROO","PLAYA_DEL CARMEN","CHUNZUMBUL_REEF",20.65784369,-86.97601318,"Into MPA","1","2.585985082","2.24137931","2","382","4.827364393","6.875","33.1881302",c(-86.97601318, 20.65784369)
164,"Northwest Mexico","BAJA_CALIFORNIA SUR","CABO_PULMO","CICU",23.426558,-109.417035,"Not take zone","2","2.652406377","0.172413793","0","117","2.82482017","4.375","12.35858824",c(-109.417035, 23.426558)
165,"Yucatan Peninsula","QUINTANA_ROO","XCALAK","CIUDAD_UNDIDA",18.35896501,-87.78335065,"Into MPA","2","2.378622949","0.344827586","1","409","2.723450535","5","13.61725268",c(-87.78335065, 18.35896501)
166,"Mexican Pacific","COLIMA","REVILLAGIGEDO","CLARION",18.341422,-114.687326,"Not take zone","6","0","0","3","17","0","9.375","0",c(-114.687326, 18.341422)
168,"Mexican Pacific","COLIMA","MANZANILLO","CLUB_DE_YATES",19.1015967,-104.3507808,"Not protected","NA","NA","NA","NA","NA","NA","NA","NA",c(-104.3507808, 19.1015967)
169,"Yucatan Peninsula","QUINTANA_ROO","PLAYA_DEL CARMEN","COCO_BEACH",20.610376,-87.078705,"Into MPA","4","3.506340266","2.586206897","1","34","6.092547163","8.125","49.5019457",c(-87.078705, 20.610376)
170,"Yucatan Peninsula","QUINTANA_ROO","PLAYA_DEL CARMEN","COFRE",20.807978,-86.885774,"Not protected","8","3.127222356","0.517241379","3","71","3.644463735","7.5","27.33347801",c(-86.885774, 20.807978)
171,"Gulf of Mexico","VERACRUZ","VERACRUZ","COLAS_DE_GATO",19.22183783,-96.05368836,"Into MPA","1","2.496792651","1.724137931","3","6","4.220930582","7.5","31.65697936",c(-96.05368836, 19.22183783)
172,"Northwest Mexico","JALISCO","PUERTO_VALLARTA","COLOMITOS",20.516622,-105.322874,"Not protected","9","4.111096323","1.034482759","0","88","5.145579082","9.375","48.23980389",c(-105.322874, 20.516622)
173,"Northwest Mexico","BAJA_CALIFORNIA","ENSENADA","COLORADA",28.15370613,-115.361912,"Into MPA","1","1.827235635","0.172413793","2","37","1.999649428","0","0",c(-115.361912, 28.15370613)
174,"Yucatan Peninsula","QUINTANA_ROO","COZUMEL","COLUMBIA_DEEP",20.31222,-87.02528,"Not take zone","38","2.67312256","1.551724138","1","390","4.224846698","6.25","26.40529186",c(-87.02528, 20.31222)
175,"Yucatan Peninsula","QUINTANA_ROO","COZUMEL","COLUMBIA_REEF",20.31222,-87.02528,"Not take zone","80","2.67312256","1.551724138","1","390","4.224846698","6.25","26.40529186",c(-87.02528, 20.31222)
176,"Northwest Mexico","BAJA_CALIFORNIA SUR","MULEGE","CONTRABANDO",27.40581896,-112.2959975,"Into MPA","1","2.95037698","0.517241379","1","139","3.467618359","3.125","10.83630737",c(-112.2959975, 27.40581896)
177,"Yucatan Peninsula","QUINTANA_ROO","TULUM","COQUITOS",20.237534,-87.387933,"Into MPA","2","2.718071352","0.517241379","0","401","3.235312732","7.5","24.26484549",c(-87.387933, 20.237534)
178,"Yucatan Peninsula","QUINTANA_ROO","XCALAK","CORAL_GARDEN",18.22750947,-87.78915769,"Into MPA","3","2.593005071","0.344827586","1","89","2.937832657","5","14.68916328",c(-87.78915769, 18.22750947)
179,"Northwest Mexico","JALISCO","PUERTO_VALLARTA","CORBETE<U+FFFD>A",20.71617309,-105.5842856,"Not protected","22","2.404646572","0.344827586","3","73","2.749474158","8.75","24.05789888",c(-105.5842856, 20.71617309)
180,"Northwest Mexico","BAJA_CALIFORNIA","BAHIA DE LOS ANGELES","CORONADITO",29.096397,-113.530829,"Into MPA","2","2.084084849","0.172413793","2","140","2.256498642","5","11.28249321",c(-113.530829, 29.096397)
181,"Northwest Mexico","BAJA_CALIFORNIA","TIJUANA","CORONADO_NORTE",32.43796618,-117.2653076,"Into MPA","7","1.974312897","0.172413793","2","36","2.14672669","7.5","16.10045018",c(-117.2653076, 32.43796618)
182,"Northwest Mexico","BAJA_CALIFORNIA SUR","LORETO","CORONADO_PUNTA_BLANCA",26.137812,-111.265291,"Not protected","2","2.126226254","0.172413793","3","63","2.298640047","7.5","17.23980035",c(-111.265291, 26.137812)
183,"Northwest Mexico","BAJA_CALIFORNIA","BAHIA DE LOS ANGELES","CORONADO_PUNTA_ESTE",29.074067,-113.502283,"Into MPA","2","2.136494303","0.172413793","2","140","2.308908096","5","11.54454048",c(-113.502283, 29.074067)
184,"Northwest Mexico","BAJA_CALIFORNIA","BAHIA DE LOS ANGELES","CORONADO_TIJERETAS",29.037442,-113.489783,"Into MPA","2","2.289239698","0.172413793","2","140","2.461653491","5","12.30826746",c(-113.489783, 29.037442)
185,"Northwest Mexico","BAJA_CALIFORNIA","ENSENADA","CORONADOS_REEF",32.37758333,-117.2073,"Into MPA","2","2.255751669","0.172413793","2","36","2.428165463","7.5","18.21124097",c(-117.2073, 32.37758333)
186,"Northwest Mexico","BAJA_CALIFORNIA SUR","LA_PAZ","CORRALITO",24.413737,-110.355639,"Into MPA","1","2.159163043","0.344827586","3","29","2.503990629","5.625","14.08494729",c(-110.355639, 24.413737)
187,"Mexican Pacific","GUERRERO","ACAPULCO","CORSARIO",16.833073,-99.893961,"Not protected","1","3.202722748","0.344827586","3","26","3.547550334","9.375","33.25828438",c(-99.893961, 16.833073)
188,"Gulf of Mexico","VERACRUZ","VERACRUZ","COSTILLA",19.1361111,-95.7961111,"Into MPA","1","1.936603577","0.344827586","0","302","2.281431163","7.5","17.11073373",c(-95.7961111, 19.1361111)
189,"Mexican Pacific","OAXACA","HUATULCO","COYOTE",15.682997,-96.240984,"Not protected","5","2.131046837","0.344827586","3","226","2.475874424","8.75","21.66390121",c(-96.240984, 15.682997)
190,"Yucatan Peninsula","QUINTANA_ROO","CANCUN","CRUZ",21.20147,-86.716173,"Into MPA","8","2.939922889","5","3","24","7.939922889","9.375","74.43677709",c(-86.716173, 21.20147)
191,"Yucatan Peninsula","QUINTANA_ROO","ISLA_MUJERES","CRUZ_DE_LA_BAHIA",21.20016644,-86.71108749,"Into MPA","3","2.912586154","5","3","24","7.912586154","9.375","74.1804952",c(-86.71108749, 21.20016644)
192,"Northwest Mexico","JALISCO","BAHIA_DE NATIVIDAD","CUASTECOMATES",19.227894,-104.817985,"Not protected","3","2.325885609","0.344827586","0","207","2.670713195","6.875","18.36115322",c(-104.817985, 19.227894)
193,"Gulf of Mexico","VERACRUZ","VERACRUZ","CUBERA",19.14768246,-95.83516408,"Into MPA","1","2.030225553","0.862068966","0","302","2.892294519","7.5","21.69220889",c(-95.83516408, 19.14768246)
194,"Gulf of Mexico","VERACRUZ","VERACRUZ","CUBITOS",19.13969844,-95.83446671,"Into MPA","1","2.043328174","0.862068966","0","302","2.905397139","7.5","21.79047855",c(-95.83446671, 19.13969844)
195,"Yucatan Peninsula","QUINTANA_ROO","ISLA_MUJERES","CUEVA_DE_LA_BAHIA",21.2023026,-86.71359831,"Into MPA","3","2.939922889","5","3","24","7.939922889","9.375","74.43677709",c(-86.71359831, 21.2023026)
196,"Yucatan Peninsula","QUINTANA_ROO","CANCUN","CUEVA_DE_TIBURONES",21.135866,-86.264484,"Into MPA","9","1.502715944","0","1","379","1.502715944","6.875","10.33117212",c(-86.264484, 21.135866)
197,"Yucatan Peninsula","QUINTANA_ROO","CANCUN","CUEVA_DEL_ARCO",21.136441,-86.327835,"Into MPA","5","1.589616477","0","1","379","1.589616477","6.875","10.92861328",c(-86.327835, 21.136441)
198,"Yucatan Peninsula","QUINTANA_ROO","PLAYA_DEL CARMEN","CUEVA_DEL_PARGO",20.73746436,-86.95370198,"Not protected","29","3.064779841","1.034482759","2","382","4.099262599","6.875","28.18243037",c(-86.95370198, 20.73746436)
199,"Yucatan Peninsula","QUINTANA_ROO","CANCUN","CUEVA_LOS_POSIBLES",21.156849,-86.32407,"Into MPA","4","1.571487259","0","1","379","1.571487259","6.875","10.80397491",c(-86.32407, 21.156849)
200,"Yucatan Peninsula","QUINTANA_ROO","CANCUN","CUEVAS_AFUERA",21.12836123,-86.71560429,"Into MPA","27","3.019970107","4.827586207","1","379","7.847556314","6.875","53.95194966",c(-86.71560429, 21.12836123)
201,"Yucatan Peninsula","QUINTANA_ROO","CANCUN","CUEVE<U+FFFD>OS",21.146601,-86.742445,"Into MPA","2","3.685640139","5","1","379","8.685640139","6.875","59.71377595",c(-86.742445, 21.146601)
202,"Mexican Pacific","COLIMA","REVILLAGIGEDO","CUEVITAS_REV",19.303268,-110.795453,"Not take zone","2","0.284440682","0","3","17","0.284440682","9.375","2.666631389",c(-110.795453, 19.303268)
203,"Yucatan Peninsula","QUINTANA_ROO","CANCUN","CUEVONES",21.164858,-86.72954,"Into MPA","10","2.968582421","5","1","379","7.968582421","6.875","54.78400414",c(-86.72954, 21.164858)
204,"Northwest Mexico","BAJA_CALIFORNIA SUR","LOS_CABOS","DEDO_NEPTUNO",22.877203,-109.895233,"Into MPA","29","3.499458101","0.172413793","3","17","3.671871894","9.375","34.42379901",c(-109.895233, 22.877203)
205,"Northwest Mexico","SONORA","GUAYMAS","DEER_ISLAND",27.95491645,-111.1193596,"Not protected","6","3.247658333","0.689655172","1","147","3.937313505","5.625","22.14738847",c(-111.1193596, 27.95491645)
206,"Northwest Mexico","JALISCO","PUERTO_VALLARTA","DEVIL'S_JAW",20.54663106,-105.2918422,"Not protected","1","2.885340619","1.034482759","0","88","3.919823377","9.375","36.74834416",c(-105.2918422, 20.54663106)
207,"Yucatan Peninsula","QUINTANA_ROO","XCALAK","DO<U+FFFD>A_NICA",18.32679391,-87.80629481,"Into MPA","2","2.707352233","0.344827586","1","409","3.052179819","5","15.2608991",c(-87.80629481, 18.32679391)
208,"Northwest Mexico","SONORA","PUERTO_PENASCO","DON'S_TUB",31.335114,-113.636336,"Not protected","1","2.982729218","0.344827586","1","141","3.327556805","2.5","8.318892011",c(-113.636336, 31.335114)
209,"Yucatan Peninsula","QUINTANA_ROO","TULUM","DREAM_REEF",20.246191,-87.378813,"Into MPA","2","2.592817375","0.517241379","0","401","3.110058755","7.5","23.32544066",c(-87.378813, 20.246191)
210,"Gulf of Mexico","VERACRUZ","VERACRUZ","DUENDES",19.14159777,-95.81080888,"Not take zone","1","1.968469794","0.689655172","0","302","2.658124967","7.5","19.93593725",c(-95.81080888, 19.14159777)
211,"Yucatan Peninsula","YUCATAN","MERIDA","DZILAM_DE_BRAVO",21.406607,-88.89524,"Not protected","NA","NA","NA","NA","NA","NA","NA","NA",c(-88.89524, 21.406607)
212,"Northwest Mexico","SONORA","GUAYMAS","EAGLE_ROCK",27.93376389,-111.064107,"Not protected","6","3.520821884","1.896551724","3","148","5.417373608","8.75","47.40201907",c(-111.064107, 27.93376389)
213,"Gulf of Mexico","VERACRUZ","VERACRUZ","EL_ANCLA",19.16782381,-95.87254031,"Into MPA","1","2.114443779","0.862068966","0","301","2.976512744","7.5","22.32384558",c(-95.87254031, 19.16782381)
214,"Northwest Mexico","JALISCO","PUERTO_VALLARTA","EL_CA<U+FFFD>ON_ARCOS",20.54758,-105.293994,"Not protected","3","2.843964222","1.034482759","0","88","3.878446981","9.375","36.36044045",c(-105.293994, 20.54758)
215,"Yucatan Peninsula","QUINTANA_ROO","COZUMEL","EL_CA<U+FFFD>ON_PC",20.621757,-87.057062,"Into MPA","1","3.60305118","2.413793103","1","383","6.016844283","8.75","52.64738748",c(-87.057062, 20.621757)
216,"Mexican Pacific","GUERRERO","IXTAPA","EL_CHATO",17.64956773,-101.622053,"Not protected","6","3.388431084","0.689655172","3","58","4.078086257","8.75","35.68325475",c(-101.622053, 17.64956773)
217,"Northwest Mexico","SONORA","HERMOSILLO","EL_CHOYUDO",28.73784167,-112.3032333,"Not protected","5","1.678997658","0","0","143","1.678997658","3.125","5.246867681",c(-112.3032333, 28.73784167)
218,"Yucatan Peninsula","QUINTANA_ROO","PLAYA_DEL CARMEN","EL_ESFUERZO",20.6348,-87.0563,"Into MPA","1","4.428385198","2.24137931","0","384","6.669764509","8.125","54.19183663",c(-87.0563, 20.6348)
219,"Mexican Pacific","GUERRERO","IXTAPA","EL_FARO",17.61315524,-101.5573659,"Not protected","7","3.586255433","0.862068966","1","215","4.448324399","8.75","38.92283849",c(-101.5573659, 17.61315524)
220,"Mexican Pacific","GUERRERO","ACAPULCO","EL_GUANO",16.822562,-99.917302,"Not protected","2","3.018385701","0.344827586","3","26","3.363213287","9.375","31.53012457",c(-99.917302, 16.822562)
221,"Yucatan Peninsula","QUINTANA_ROO","COZUMEL","EL_ISLOTE",20.278842,-86.973994,"Not take zone","NA","NA","NA","NA","NA","NA","NA","NA",c(-86.973994, 20.278842)
222,"Yucatan Peninsula","QUINTANA_ROO","COZUMEL","EL_MIRADOR",20.34222,-86.897313,"Into MPA","21","1.866398045","2.068965517","1","390","3.935363562","6.25","24.59602226",c(-86.897313, 20.34222)
223,"Northwest Mexico","JALISCO","PUERTO_VALLARTA","EL_MORRO",20.67365342,-105.6753305,"Not protected","30","1.97789815","0.172413793","3","73","2.150311943","8.75","18.8152295",c(-105.6753305, 20.67365342)
224,"Mexican Pacific","GUERRERO","ACAPULCO","EL_MORRO_AC",16.854511,-99.867123,"Not protected","1","2.779612239","0.344827586","3","26","3.124439825","9.375","29.29162336",c(-99.867123, 16.854511)
225,"Northwest Mexico","NAYARIT","PUERTO_VALLARTA","EL_MORRO_MAR",21.66928,-106.677159,"Into MPA","1","0.983058897","0","0","195","0.983058897","4.375","4.300882675",c(-106.677159, 21.66928)
226,"Northwest Mexico","BAJA_CALIFORNIA SUR","LA_PAZ","EL_PARDITO",24.85060568,-110.5774991,"Not protected","1","2.165755181","0.344827586","0","131","2.510582767","1.25","3.138228459",c(-110.5774991, 24.85060568)
227,"Northwest Mexico","JALISCO","PUERTO_VALLARTA","EL_SEQUEDAL",20.74100302,-105.5856541,"Not protected","10","2.471785594","0.344827586","3","73","2.81661318","8.75","24.64536533",c(-105.5856541, 20.74100302)
228,"Yucatan Peninsula","QUINTANA_ROO","CANCUN","EL_TUNEL",21.14667573,-86.72712229,"Into MPA","27","3.340972835","5","1","379","8.340972835","6.875","57.34418824",c(-86.72712229, 21.14667573)
229,"Yucatan Peninsula","QUINTANA_ROO","MAHAHUAL","EL_UVERO",19.06631775,-87.54688149,"Into MPA","1","1.764026159","0","1","405","1.764026159","0.625","1.102516349",c(-87.54688149, 19.06631775)
230,"Northwest Mexico","BAJA_CALIFORNIA","ENSENADA","ENSENADA",31.858537,-116.624528,"Not protected","1","4.166046556","0.689655172","3","5","4.855701728","8.75","42.48739012",c(-116.624528, 31.858537)
231,"Northwest Mexico","SONORA","GUAYMAS","ENSENADA_GRANDE",28.0560685,-111.2435427,"Not protected","NA","NA","NA","NA","NA","NA","NA","NA",c(-111.2435427, 28.0560685)
232,"Mexican Pacific","OAXACA","HUATULCO","ENTREGA",15.74797052,-96.12740101,"Not protected","14","4.077676111","0.344827586","3","226","4.422503698","8.75","38.69690735",c(-96.12740101, 15.74797052)
233,"Yucatan Peninsula","QUINTANA_ROO","AKUMAL","ERRADURA",20.38181,-87.320691,"Into MPA","NA","NA","NA","NA","NA","NA","NA","NA",c(-87.320691, 20.38181)
234,"Northwest Mexico","BAJA_CALIFORNIA SUR","LOS_CABOS","ESCALERA",23.045429,-109.672404,"Not protected","2","3.456369335","0.172413793","3","23","3.628783128","9.375","34.01984182",c(-109.672404, 23.045429)
235,"Yucatan Peninsula","QUINTANA_ROO","MAHAHUAL","ESCALONES",18.72210485,-87.69857884,"Into MPA","NA","NA","NA","NA","NA","NA","NA","NA",c(-87.69857884, 18.72210485)
236,"Yucatan Peninsula","QUINTANA_ROO","PUERTO_AVENTURAS","ESCUELA",20.497038,-87.219439,"Into MPA","2","3.8978587","1.206896552","1","385","5.104755252","8.125","41.47613642",c(-87.219439, 20.497038)
237,"Yucatan Peninsula","QUINTANA_ROO","AKUMAL","ESCUELA_REEF",20.39315,-87.309763,"Into MPA","2","4.632213814","0.689655172","0","387","5.321868986","6.875","36.58784928",c(-87.309763, 20.39315)
238,"Yucatan Peninsula","QUINTANA_ROO","PLAYA_DEL CARMEN","ESFUERZO",20.603421,-87.034751,"Not protected","7","2.844075272","2.586206897","0","384","5.430282168","8.125","44.12104262",c(-87.034751, 20.603421)
239,"Northwest Mexico","BAJA_CALIFORNIA SUR","CABO_PULMO","ESPERANZA",23.424715,-109.408303,"Not take zone","49","2.699745544","0.172413793","0","117","2.872159337","4.375","12.5656971",c(-109.408303, 23.424715)
240,"Yucatan Peninsula","QUINTANA_ROO","AKUMAL","ESPONJAS",20.387919,-87.302254,"Into MPA","2","3.897674508","0.689655172","0","387","4.58732968","6.875","31.53789155",c(-87.302254, 20.387919)
241,"Northwest Mexico","BAJA_CALIFORNIA SUR","COMONDU","ESTERO_SAN_JORGE",25.72458015,-112.07904,"Not protected","1","1.561086407","0.172413793","0","114","1.7335002","1.875","3.250312876",c(-112.07904, 25.72458015)
242,"Northwest Mexico","BAJA_CALIFORNIA SUR","COMONDU","ESTERO_SAN_RAFAEL",25.72177773,-112.0914107,"Not protected","NA","NA","NA","NA","NA","NA","NA","NA",c(-112.0914107, 25.72177773)
243,"Gulf of Mexico","VERACRUZ","VERACRUZ","ESTUFA_DEL_DIABLO",19.15965179,-95.84971783,"Into MPA","1","2.054335316","0.862068966","0","302","2.916404281","7.5","21.87303211",c(-95.84971783, 19.15965179)
244,"Northwest Mexico","BAJA_CALIFORNIA SUR","LA_PAZ","FANG_MING",24.44472222,-110.3813889,"Into MPA","57","2.013165959","0.172413793","3","29","2.185579752","5.625","12.2938861",c(-110.3813889, 24.44472222)
245,"Gulf of Mexico","VERACRUZ","VERACRUZ","FARITO_DE_ISLA_VERDE",19.19765712,-96.06841136,"Into MPA","1","2.702148923","1.896551724","3","6","4.598700647","7.5","34.49025485",c(-96.06841136, 19.19765712)
246,"Mexican Pacific","MICHOACAN","BUCERIAS","FARO_BUCERIAS",18.33938,-103.506057,"Not protected","2","1.526149533","0","0","211","1.526149533","3.75","5.723060749",c(-103.506057, 18.33938)
247,"Northwest Mexico","BAJA_CALIFORNIA SUR","LORETO","FARO_NORTE",25.81527667,-111.2637087,"Into MPA","9","2.779237149","0.172413793","3","35","2.951650943","4.375","12.91347287",c(-111.2637087, 25.81527667)
248,"Yucatan Peninsula","QUINTANA_ROO","MAHAHUAL","FARO_NUEVO",18.72442158,-87.69570351,"Not protected","NA","NA","NA","NA","NA","NA","NA","NA",c(-87.69570351, 18.72442158)
249,"Northwest Mexico","BAJA_CALIFORNIA SUR","LORETO","FARO_SUR",25.81510074,-111.2590392,"Into MPA","5","2.729981268","0.172413793","3","35","2.902395062","4.375","12.69797839",c(-111.2590392, 25.81510074)
250,"Northwest Mexico","BAJA_CALIFORNIA SUR","LA_PAZ","FERRY_SALVATIERRA",24.383475,-110.31107,"Into MPA","58","2.277883765","0.689655172","3","29","2.967538937","5.625","16.69240652",c(-110.31107, 24.383475)
251,"Mexican Pacific","OAXACA","HUATULCO","FIESTA",15.68172062,-96.23659044,"Not protected","8","2.148796731","0.344827586","3","226","2.493624317","8.75","21.81921278",c(-96.23659044, 15.68172062)
252,"Mexican Pacific","COLIMA","REVILLAGIGEDO","FONDEADERO",19.2814405,-110.8134995,"Not take zone","3","0.278194355","0","3","17","0.278194355","9.375","2.608072076",c(-110.8134995, 19.2814405)
253,"Northwest Mexico","BAJA_CALIFORNIA","ENSENADA","FONDEADERO_ESTE",29.187128,-118.257272,"Into MPA","2","0.524803605","0","1","95","0.524803605","1.25","0.656004506",c(-118.257272, 29.187128)
254,"Gulf of Mexico","VERACRUZ","COATZACOALCOS","FONDO_SECO",18.204316,-94.420611,"Not protected","4","2.655488877","0.689655172","1","7","3.345144049","4.375","14.63500521",c(-94.420611, 18.204316)
255,"Gulf of Mexico","VERACRUZ","VERACRUZ","FOSA_CATEDRALES",19.20640361,-96.07395257,"Into MPA","1","2.780211439","1.896551724","3","6","4.676763163","7.5","35.07572372",c(-96.07395257, 19.20640361)
256,"Gulf of Mexico","VERACRUZ","VERACRUZ","FOSA_DE_ISLA_VERDE",19.19944665,-96.06420767,"Into MPA","1","2.702148923","1.896551724","3","6","4.598700647","7.5","34.49025485",c(-96.06420767, 19.19944665)
257,"Gulf of Mexico","VERACRUZ","VERACRUZ","FOSITA_DE_CATEDRALES",19.20503458,-96.0737758,"Into MPA","1","2.780211439","1.896551724","3","6","4.676763163","7.5","35.07572372",c(-96.0737758, 19.20503458)
258,"Mexican Pacific","COLIMA","MANZANILLO","FRAILES",19.07697846,-104.3928892,"Not protected","7","2.94794745","0.689655172","1","208","3.637602622","8.125","29.55552131",c(-104.3928892, 19.07697846)
259,"Northwest Mexico","SONORA","GUAYMAS","FRENCHIE'S_COVE",27.93701533,-111.0915806,"Not protected","6","3.358811516","1.206896552","3","43","4.565708068","8.125","37.09637805",c(-111.0915806, 27.93701533)
260,"Yucatan Peninsula","QUINTANA_ROO","XCALAK","G_SPOT",18.27289892,-87.79431146,"Into MPA","2","2.86164409","0.344827586","1","89","3.206471676","5","16.03235838",c(-87.79431146, 18.27289892)
261,"Northwest Mexico","BAJA_CALIFORNIA SUR","LORETO","GALERAS",25.742757,-111.046611,"Into MPA","5","1.888149872","0","0","133","1.888149872","1.25","2.36018734",c(-111.046611, 25.742757)
262,"Yucatan Peninsula","QUINTANA_ROO","BANCO_CHINCHORROS","GARDEN",18.69331416,-87.38733475,"Into MPA","6","2.160654441","0.172413793","1","406","2.333068234","1.875","4.374502938",c(-87.38733475, 18.69331416)
263,"Yucatan Peninsula","QUINTANA_ROO","PLAYA_DEL CARMEN","GARRAFON",20.7096676,-86.98372256,"Into MPA","15","3.331023801","1.551724138","2","382","4.882747939","6.875","33.56889208",c(-86.98372256, 20.7096676)
264,"Mexican Pacific","GUERRERO","IXTAPA","GATAS",17.6230833,-101.551641,"Not protected","NA","NA","NA","NA","NA","NA","NA","NA",c(-101.551641, 17.6230833)
265,"Northwest Mexico","BAJA_CALIFORNIA SUR","LOS_CABOS","GAVILANES",22.929588,-109.809996,"Not protected","4","2.275150273","0.344827586","3","17","2.619977859","9.375","24.56229243",c(-109.809996, 22.929588)
266,"Mexican Pacific","GUERRERO","IXTAPA","GODORNIA",17.62579798,-101.5699684,"Not protected","7","3.709585217","0.862068966","2","93","4.571654182","8.75","40.0019741",c(-101.5699684, 17.62579798)
267,"Northwest Mexico","BAJA_CALIFORNIA SUR","LOS_CABOS","GORDO_BANKS",22.982495,-109.491503,"Not protected","13","1.962810082","0.172413793","3","23","2.135223875","9.375","20.01772383",c(-109.491503, 22.982495)
268,"Yucatan Peninsula","QUINTANA_ROO","COZUMEL","GORGONIAN_FLATS",20.475433,-86.991418,"Into MPA","4","3.89781056","2.931034483","3","396","6.828845043","9.375","64.02042228",c(-86.991418, 20.475433)
269,"Yucatan Peninsula","QUINTANA_ROO","AKUMAL","GORGONIAS",20.436821,-87.277389,"Into MPA","3","2.69128743","0.862068966","0","387","3.553356396","6.875","24.42932522",c(-87.277389, 20.436821)
270,"Yucatan Peninsula","QUINTANA_ROO","CANCUN","GRAMPIN",21.14096603,-86.73687397,"Into MPA","30","3.898958632","5","1","379","8.898958632","6.875","61.1803406",c(-86.73687397, 21.14096603)
271,"Mexican Pacific","OAXACA","HUATULCO","GUERILLA",15.76455612,-96.08109225,"Not protected","8","2.862014605","0.344827586","3","40","3.206842192","8.75","28.05986918",c(-96.08109225, 15.76455612)
272,"Yucatan Peninsula","QUINTANA_ROO","AKUMAL","HALF_MOON",20.413763,-87.299528,"Into MPA","NA","NA","NA","NA","NA","NA","NA","NA",c(-87.299528, 20.413763)
273,"Yucatan Peninsula","QUINTANA_ROO","AKUMAL","HALF_MOON_DEEP",20.39874,-87.298446,"Into MPA","1","3.602482107","0.689655172","0","387","4.29213728","6.875","29.5084438",c(-87.298446, 20.39874)
274,"Yucatan Peninsula","QUINTANA_ROO","COZUMEL","HANAN",20.525694,-86.741564,"Into MPA","3","2.060921879","0.517241379","1","389","2.578163258","8.125","20.94757647",c(-86.741564, 20.525694)
275,"Mexican Pacific","GUERRERO","ACAPULCO","HAWAII",16.821116,-99.900484,"Not protected","1","3.086486884","0.344827586","3","26","3.43131447","9.375","32.16857316",c(-99.900484, 16.821116)
276,"Northwest Mexico","SONORA","GUAYMAS","HIASYSTACK",27.90998767,-110.9708256,"Not protected","4","3.178631819","1.896551724","0","66","5.075183543","8.125","41.23586629",c(-110.9708256, 27.90998767)
277,"Northwest Mexico","SONORA","GUAYMAS","HIMALAYA",28.148131,-111.316354,"Not protected","4","1.916351154","0","0","146","1.916351154","1.25","2.395438942",c(-111.316354, 28.148131)
278,"Northwest Mexico","SONORA","GUAYMAS","HIMALAYA_NORTE",28.14805556,-111.3161111,"Not protected","1","1.916351154","0","0","146","1.916351154","1.25","2.395438942",c(-111.3161111, 28.14805556)
279,"Gulf of Mexico","VERACRUZ","VERACRUZ","HOGADO_3",19.21807025,-96.05640461,"Into MPA","1","2.546432295","1.896551724","3","6","4.442984019","7.5","33.32238015",c(-96.05640461, 19.21807025)
280,"Yucatan Peninsula","QUINTANA_ROO","XCALAK","HON_NA",18.46078113,-87.72825407,"Into MPA","1","1.904082001","0","1","409","1.904082001","5","9.520410004",c(-87.72825407, 18.46078113)
281,"Northwest Mexico","SONORA","GUAYMAS","HONEYMOON_ISLAND",27.94736756,-111.0315352,"Not protected","7","3.179944631","1.896551724","3","148","5.076496355","8.75","44.41934311",c(-111.0315352, 27.94736756)
282,"Yucatan Peninsula","QUINTANA_ROO","AKUMAL","IGLESIA",20.374682,-87.319762,"Into MPA","2","4.110575232","0.862068966","0","400","4.972644197","6.875","34.18692886",c(-87.319762, 20.374682)
283,"Northwest Mexico","JALISCO","PUERTO_VALLARTA","IGLESIAS",20.489867,-105.555732,"Not protected","1","2.819272882","0.517241379","0","203","3.336514261","5","16.68257131",c(-105.555732, 20.489867)
284,"Yucatan Peninsula","QUINTANA_ROO","CANCUN","IGLESIAS",21.124082,-86.739985,"Into MPA","2","3.390568025","4.827586207","1","379","8.218154232","6.875","56.49981035",c(-86.739985, 21.124082)
285,"Yucatan Peninsula","QUINTANA_ROO","PLAYA_DEL CARMEN","INAH",20.55571,-87.137223,"Into MPA","19","3.197162843","2.75862069","2","39","5.955783533","6.25","37.22364708",c(-87.137223, 20.55571)
286,"Gulf of Mexico","VERACRUZ","VERACRUZ","INGENIERO",19.213601,-96.121071,"Into MPA","1","3.456625414","1.724137931","3","6","5.180763345","7.5","38.85572509",c(-96.121071, 19.213601)
287,"Gulf of Mexico","VERACRUZ","VERACRUZ","INICIO_CATEDRALES",19.20593432,-96.07332436,"Into MPA","1","2.728575717","1.896551724","3","6","4.625127441","7.5","34.68845581",c(-96.07332436, 19.20593432)
288,"Northwest Mexico","BAJA_CALIFORNIA SUR","LA_PAZ","INOCENTES",23.77866192,-110.7198352,"Not protected","1","1.332279576","0","0","116","1.332279576","5","6.661397882",c(-110.7198352, 23.77866192)
289,"Northwest Mexico","BAJA_CALIFORNIA","ENSENADA","ISLA_ADELAIDA",28.67095212,-114.2797727,"Into MPA","1","2.790195866","0.172413793","2","98","2.962609659","1.25","3.703262074",c(-114.2797727, 28.67095212)
290,"Northwest Mexico","BAJA_CALIFORNIA","BAHIA DE LOS ANGELES","ISLA_ALCATRAZ",29.16887974,-113.6062817,"Into MPA","1","1.833497771","0","2","140","1.833497771","5","9.167488856",c(-113.6062817, 29.16887974)
291,"Northwest Mexico","BAJA_CALIFORNIA SUR","MULEGE","ISLA_ASUNCION",27.11586965,-114.2958932,"Into MPA","1","3.167378098","0.344827586","1","108","3.512205685","1.875","6.585385658",c(-114.2958932, 27.11586965)
292,"Northwest Mexico","NAYARIT","PENITA_DE JALTEMBA","ISLA_CANGREJO",21.048717,-105.275218,"Not protected","3","3.127305605","0.689655172","0","199","3.816960777","6.875","26.24160534",c(-105.275218, 21.048717)
293,"Northwest Mexico","NAYARIT","PENITA_DE JALTEMBA","ISLA_CORAL",21.039084,-105.277389,"Not protected","4","3.390501552","0.689655172","0","199","4.080156724","6.875","28.05107748",c(-105.277389, 21.039084)
294,"Northwest Mexico","BAJA_CALIFORNIA","BAHIA DE LOS ANGELES","ISLA_CORONADITO",29.099579,-113.527646,"Into MPA","3","2.084084849","0.172413793","2","140","2.256498642","5","11.28249321",c(-113.527646, 29.099579)
295,"Northwest Mexico","BAJA_CALIFORNIA SUR","LA_PAZ","ISLA_CRECIENTE",24.34216092,-111.5600993,"Not protected","1","1.247990042","0","1","77","1.247990042","6.25","7.799937761",c(-111.5600993, 24.34216092)
296,"Northwest Mexico","SONORA","GUAYMAS","ISLA_DE_CARDONES",27.974981,-111.120856,"Not protected","NA","NA","NA","NA","NA","NA","NA","NA",c(-111.120856, 27.974981)
297,"Gulf of Mexico","VERACRUZ","VERACRUZ","ISLA_DE_ENMEDIO",19.07708365,-95.8468117,"Into MPA","16","2.191283081","0.862068966","0","302","3.053352046","7.5","22.90014035",c(-95.8468117, 19.07708365)
298,"Northwest Mexico","SINALOA","MAZATLAN","ISLA_DE_LOBOS",23.184078,-106.439943,"Not protected","1","3.066121116","0.517241379","3","10","3.583362496","8.75","31.35442184",c(-106.439943, 23.184078)
299,"Northwest Mexico","SINALOA","MAZATLAN","ISLA_DE_LOS_CHIVOS",23.186823,-106.435992,"Not protected","1","3.128202588","0.517241379","0","194","3.645443967","8.75","31.89763471",c(-106.435992, 23.186823)
300,"Northwest Mexico","BAJA_CALIFORNIA","ENSENADA","ISLA_EL_MUERTO",30.1024822,-114.5389226,"Not protected","1","1.045215404","0","3","79","1.045215404","5","5.226077018",c(-114.5389226, 30.1024822)
301,"Northwest Mexico","BAJA_CALIFORNIA","ENSENADA","ISLA_ENCANTADA",30.02147749,-114.4527788,"Not protected","1","0.987844322","0","3","79","0.987844322","5","4.939221612",c(-114.4527788, 30.02147749)
302,"Northwest Mexico","BAJA_CALIFORNIA","BAHIA DE LOS ANGELES","ISLA_ESTANQUE",29.06045561,-113.0922041,"Into MPA","1","1.463348201","0","2","140","1.463348201","5","7.316741006",c(-113.0922041, 29.06045561)
303,"Northwest Mexico","BAJA_CALIFORNIA","BAHIA DE LOS ANGELES","ISLA_GRANITO",29.5677226,-113.537073,"Into MPA","1","1.28585196","0","2","140","1.28585196","5","6.4292598",c(-113.537073, 29.5677226)
304,"Northwest Mexico","BAJA_CALIFORNIA","ENSENADA","ISLA_GUADALUPE",29.200926,-118.240363,"Into MPA","17","0.529934274","0","1","95","0.529934274","1.25","0.662417843",c(-118.240363, 29.200926)
305,"Northwest Mexico","BAJA_CALIFORNIA SUR","LORETO","ISLA_HABANA",25.12979312,-110.8615286,"Not protected","1","1.789407594","0","0","132","1.789407594","1.25","2.236759493",c(-110.8615286, 25.12979312)
306,"Mexican Pacific","GUERRERO","IXTAPA","ISLA_IXTAPA",17.674304,-101.660893,"Not protected","1","3.333773873","0.862068966","1","214","4.195842838","8.125","34.09122306",c(-101.660893, 17.674304)
307,"Northwest Mexico","BAJA_CALIFORNIA","BAHIA DE LOS ANGELES","ISLA_LA_VENTANA",28.99889684,-113.5011338,"Into MPA","1","2.526847215","0.172413793","2","140","2.699261008","5","13.49630504",c(-113.5011338, 28.99889684)
308,"Northwest Mexico","BAJA_CALIFORNIA","ENSENADA","ISLA_LOBOS",30.04896455,-114.4745808,"Not protected","1","1.006348523","0","3","79","1.006348523","5","5.031742614",c(-114.4745808, 30.04896455)
309,"Gulf of Mexico","VERACRUZ","NARANJOS","ISLA_LOBOS",21.46949,-97.231694,"Into MPA","13","1.767783323","0.172413793","1","276","1.940197116","7.5","14.55147837",c(-97.231694, 21.46949)
310,"Northwest Mexico","BAJA_CALIFORNIA SUR","COMONDU","ISLA_MAGDALENA",24.87849992,-112.2977554,"Not protected","1","1.778264869","0.172413793","1","77","1.950678662","6.25","12.19174164",c(-112.2977554, 24.87849992)
311,"Northwest Mexico","BAJA_CALIFORNIA","BAHIA DE LOS ANGELES","ISLA_MEJIA",29.58121901,-113.5860291,"Into MPA","1","1.287008531","0","2","140","1.287008531","5","6.435042653",c(-113.5860291, 29.58121901)
312,"Northwest Mexico","BAJA_CALIFORNIA SUR","LORETO","ISLA_MORENA",25.24791587,-110.9211142,"Not protected","1","1.647115731","0","0","133","1.647115731","1.25","2.058894664",c(-110.9211142, 25.24791587)
313,"Northwest Mexico","BAJA_CALIFORNIA SUR","MULEGE","ISLA_NATIVIDAD",27.89760218,-115.2223045,"Into MPA","2","2.089083874","0.172413793","2","37","2.261497667","0","0",c(-115.2223045, 27.89760218)
314,"Northwest Mexico","JALISCO","BAHIA_DE CHAMELA","ISLA_PAJARERA",19.556969,-105.116044,"Not protected","3","2.937924691","0.344827586","0","205","3.282752278","1.875","6.155160521",c(-105.116044, 19.556969)
315,"Northwest Mexico","SINALOA","MAZATLAN","ISLA_PAJAROS",23.25805,-106.473701,"Not protected","3","3.166736464","0.517241379","3","64","3.683977843","9.375","34.53729228",c(-106.473701, 23.25805)
316,"Northwest Mexico","SONORA","HERMOSILLO","ISLA_PATOS",29.270932,-112.460486,"Not protected","2","1.826612404","0","0","142","1.826612404","2.5","4.566531011",c(-112.460486, 29.270932)
317,"Northwest Mexico","BAJA_CALIFORNIA","BAHIA DE LOS ANGELES","ISLA_PESCADOR",28.92449816,-113.38273,"Into MPA","1","2.042073029","0.172413793","2","140","2.214486822","5","11.07243411",c(-113.38273, 28.92449816)
318,"Northwest Mexico","BAJA_CALIFORNIA","BAHIA DE LOS ANGELES","ISLA_RASA",28.81344573,-112.9784924,"Not take zone","1","1.36288576","0","2","140","1.36288576","5","6.8144288",c(-112.9784924, 28.81344573)
319,"Gulf of Mexico","VERACRUZ","VERACRUZ","ISLA_SACRIFICIOS",19.17705188,-96.09230617,"Into MPA","15","2.848653045","1.896551724","3","6","4.74520477","7.5","35.58903577",c(-96.09230617, 19.17705188)
320,"Northwest Mexico","BAJA_CALIFORNIA","ENSENADA","ISLA_SAN_GERONIMO",29.786587,-115.788492,"Into MPA","4","2.330978664","0.172413793","2","96","2.503392457","0","0",c(-115.788492, 29.786587)
321,"Northwest Mexico","SONORA","PUERTO_PENASCO","ISLA_SAN_JORGE",31.018,-113.24413,"Not protected","7","1.582312337","0","3","41","1.582312337","3.75","5.933671265",c(-113.24413, 31.018)
322,"Northwest Mexico","BAJA_CALIFORNIA","ENSENADA","ISLA_SAN_LUIS",29.98710186,-114.4111831,"Not protected","1","0.964649782","0","3","79","0.964649782","5","4.823248908",c(-114.4111831, 29.98710186)
323,"Northwest Mexico","BAJA_CALIFORNIA","ENSENADA","ISLA_SAN_MARTIN",30.483277,-116.099194,"Into MPA","5","2.191502181","0.172413793","1","95","2.363915974","1.25","2.954894968",c(-116.099194, 30.483277)
324,"Northwest Mexico","BAJA_CALIFORNIA SUR","MULEGE","ISLA_SAN_ROQUE",27.15196246,-114.3789003,"Not take zone","1","2.876434025","0.344827586","0","107","3.221261611","0","0",c(-114.3789003, 27.15196246)
325,"Northwest Mexico","BAJA_CALIFORNIA SUR","MULEGE","ISLA_SANTA_INES",27.04196599,-111.9030962,"Not protected","1","2.087883453","0.172413793","0","137","2.260297246","4.375","9.888800452",c(-111.9030962, 27.04196599)
326,"Northwest Mexico","BAJA_CALIFORNIA SUR","LA_PAZ","ISLA_SANTA_MARGARITA",24.299806,-111.715187,"Not protected","2","1.291546596","0","1","77","1.291546596","6.25","8.072166224",c(-111.715187, 24.299806)
327,"Gulf of Mexico","VERACRUZ","VERACRUZ","ISLA_SANTIAGUILLO",19.13940756,-95.79447869,"Into MPA","14","1.936603577","0.344827586","0","302","2.281431163","7.5","17.11073373",c(-95.79447869, 19.13940756)
328,"Northwest Mexico","BAJA_CALIFORNIA","ENSENADA","ISLA_TODOS_SANTOS",31.79864,-116.789638,"Into MPA","2","2.221003163","0.862068966","3","46","3.083072128","8.125","25.04996104",c(-116.789638, 31.79864)
329,"Gulf of Mexico","VERACRUZ","VERACRUZ","ISLA_TOPATILLO",19.14489594,-95.80720885,"Not take zone","13","1.955752578","0.689655172","0","302","2.645407751","7.5","19.84055813",c(-95.80720885, 19.14489594)
330,"Northwest Mexico","BAJA_CALIFORNIA SUR","MULEGE","ISLA_TORTUGA",27.43194109,-111.9044443,"Not protected","1","1.697936396","0","1","45","1.697936396","3.125","5.306051237",c(-111.9044443, 27.43194109)
331,"Northwest Mexico","SINALOA","MAZATLAN","ISLA_VENADOS",23.238416,-106.463435,"Not protected","1","2.921973499","0.517241379","3","64","3.439214879","9.375","32.24263949",c(-106.463435, 23.238416)
332,"Gulf of Mexico","VERACRUZ","VERACRUZ","ISLA_VERDE",19.20299049,-96.0686668,"Into MPA","17","2.728575717","1.896551724","3","6","4.625127441","7.5","34.68845581",c(-96.0686668, 19.20299049)
333,"Northwest Mexico","BAJA_CALIFORNIA SUR","CABO_PULMO","ISLOTE",23.407997,-109.413338,"Not take zone","52","2.896238461","0.172413793","0","117","3.068652254","4.375","13.42535361",c(-109.413338, 23.407997)
334,"Northwest Mexico","BAJA_CALIFORNIA SUR","LORETO","ISLOTE_DE_LA_VACA",26.06196194,-111.0875911,"Into MPA","5","1.831138975","0","3","63","1.831138975","7.5","13.73354231",c(-111.0875911, 26.06196194)
335,"Northwest Mexico","BAJA_CALIFORNIA SUR","LA_PAZ","ISLOTE_GALLINA",24.45681656,-110.3829638,"Into MPA","1","1.979656366","0.172413793","3","29","2.152070159","5.625","12.10539465",c(-110.3829638, 24.45681656)
336,"Northwest Mexico","BAJA_CALIFORNIA SUR","LA_PAZ","ISLOTE_GALLO",24.46730467,-110.3875701,"Into MPA","1","1.93511221","0.172413793","3","29","2.107526003","5.625","11.85483377",c(-110.3875701, 24.46730467)
337,"Northwest Mexico","BAJA_CALIFORNIA SUR","MULEGE","ISLOTE_LA_PITAYA",26.63543782,-113.122855,"Not take zone","1","1.524273306","0","0","112","1.524273306","1.875","2.858012449",c(-113.122855, 26.63543782)
338,"Northwest Mexico","BAJA_CALIFORNIA SUR","LA_PAZ","ISLOTE_LOBERA_PARDITO",24.85333475,-110.5818248,"Not protected","1","2.173917654","0.344827586","0","132","2.518745241","1.25","3.148431551",c(-110.5818248, 24.85333475)
339,"Northwest Mexico","BAJA_CALIFORNIA SUR","COMONDU","ISLOTE_PAUQUINO",25.03468004,-112.1503132,"Into MPA","1","2.060394522","0.172413793","1","115","2.232808316","3.75","8.373031183",c(-112.1503132, 25.03468004)
340,"Northwest Mexico","BAJA_CALIFORNIA SUR","COMONDU","ISLOTE_SAN_GIL",25.08390323,-112.1447756,"Not protected","1","2.255458086","0.172413793","1","115","2.427871879","3.75","9.104519547",c(-112.1447756, 25.08390323)
341,"Yucatan Peninsula","QUINTANA_ROO","ISLA_MUJERES","ISLOTE_TIBURON",21.23742901,-86.75153282,"Into MPA","3","3.21289447","4.827586207","3","24","8.040480677","9.375","75.37950634",c(-86.75153282, 21.23742901)
342,"Yucatan Peninsula","QUINTANA_ROO","ISLA_MUJERES","ISLOTE_YUNQUE",21.27711091,-86.75531651,"Into MPA","3","2.680014412","4.482758621","3","24","7.162773032","9.375","67.15099718",c(-86.75531651, 21.27711091)
343,"Northwest Mexico","BAJA_CALIFORNIA SUR","LA_PAZ","ISLOTES",24.598886,-110.399175,"Not take zone","72","1.696178061","0","0","131","1.696178061","1.25","2.120222576",c(-110.399175, 24.598886)
344,"Yucatan Peninsula","QUINTANA_ROO","PLAYA_DEL CARMEN","ISLOTES",20.560701,-87.134397,"Into MPA","13","3.390201876","2.75862069","2","39","6.148822565","6.25","38.43014103",c(-87.134397, 20.560701)
345,"Northwest Mexico","BAJA_CALIFORNIA SUR","LA_PAZ","ISLOTES_SUR",24.598863,-110.401532,"Not protected","50","1.703869227","0","0","131","1.703869227","1.25","2.129836534",c(-110.401520965627, 24.5985442102116)
346,"Mexican Pacific","GUERRERO","ACAPULCO","JARDIN",16.823598,-99.915911,"Not protected","1","3.018385701","0.344827586","3","26","3.363213287","9.375","31.53012457",c(-99.915911, 16.823598)
347,"Yucatan Peninsula","QUINTANA_ROO","MAHAHUAL","JARDIN",18.71102885,-87.70428658,"Into MPA","2","4.104786783","0.517241379","1","408","4.622028162","7.5","34.66521122",c(-87.70428658, 18.71102885)
348,"Gulf of Mexico","VERACRUZ","VERACRUZ","JARDIN_DEL_BLANQUIZAL",19.22113389,-96.05386375,"Into MPA","1","2.496792651","1.724137931","3","6","4.220930582","7.5","31.65697936",c(-96.05386375, 19.22113389)
349,"Yucatan Peninsula","QUINTANA_ROO","CANCUN","JARDINERA_DE_LA_ESPERANZA",21.028627,-86.781451,"Into MPA","2","3.89876897","4.655172414","1","380","8.553941383","8.75","74.8469871",c(-86.781451, 21.028627)
350,"Mexican Pacific","OAXACA","HUATULCO","JARDINES",15.71237883,-96.16961011,"Into MPA","11","2.575922425","0.344827586","3","226","2.920750011","8.75","25.5565626",c(-96.16961011, 15.71237883)
351,"Yucatan Peninsula","QUINTANA_ROO","PLAYA_DEL CARMEN","JARDINES",20.6240446,-87.01892853,"Not protected","54","2.875004603","2.24137931","0","384","5.116383913","8.125","41.57061929",c(-87.01892853, 20.6240446)
352,"Mexican Pacific","OAXACA","HUATULCO","JERINGA",15.71765318,-96.15931846,"Into MPA","11","2.678218985","0.344827586","3","226","3.023046572","8.75","26.4516575",c(-96.15931846, 15.71765318)
353,"Mexican Pacific","OAXACA","HUATULCO","JICARAL",15.69900859,-96.20746891,"Into MPA","16","2.298917197","0.344827586","3","226","2.643744784","8.75","23.13276686",c(-96.20746891, 15.69900859)
354,"Yucatan Peninsula","QUINTANA_ROO","BANCO_CHINCHORROS","KAI_HA",18.56899022,-87.42272517,"Into MPA","8","2.334893793","0.172413793","1","406","2.507307586","1.875","4.701201723",c(-87.42272517, 18.56899022)
355,"Northwest Mexico","BAJA_CALIFORNIA","TIJUANA","KEYHOLE",32.42987289,-117.2955036,"Into MPA","3","1.919960924","0","2","36","1.919960924","7.5","14.39970693",c(-117.2955036, 32.42987289)
356,"Mexican Pacific","COLIMA","MANZANILLO","L_RECIF",19.054069,-104.334176,"Not protected","1","3.196398423","0.689655172","3","8","3.886053595","9.375","36.43175246",c(-104.334176, 19.054069)
357,"Gulf of Mexico","VERACRUZ","VERACRUZ","LA_BLANCA",19.08979036,-95.99859962,"Not take zone","13","3.064917772","1.896551724","0","300","4.961469496","6.875","34.11010279",c(-95.99859962, 19.08979036)
358,"Gulf of Mexico","VERACRUZ","VERACRUZ","LA_BLANQUILLA",19.2280978,-96.09869918,"Into MPA","11","2.909695193","1.724137931","3","6","4.633833124","7.5","34.75374843",c(-96.09869918, 19.2280978)
359,"Northwest Mexico","BAJA_CALIFORNIA SUR","MULEGE","LA_BOCANA",26.79351207,-113.7305797,"Into MPA","1","3.228561471","0.344827586","0","111","3.573389058","0","0",c(-113.7305797, 26.79351207)
360,"Northwest Mexico","BAJA_CALIFORNIA","ENSENADA","LA_BUFADORA",31.72384244,-116.7395041,"Not protected","5","2.689402762","0.689655172","0","94","3.379057934","4.375","14.78337846",c(-116.7395041, 31.72384244)
361,"Northwest Mexico","SONORA","GUAYMAS","LA_CAVERNA",27.95960914,-111.3807678,"Not protected","7","1.874130465","0","1","147","1.874130465","5.625","10.54198387",c(-111.3807678, 27.95960914)
362,"Yucatan Peninsula","QUINTANA_ROO","COZUMEL","LA_CEIBA",20.519435,-86.951054,"Not protected","NA","NA","NA","NA","NA","NA","NA","NA",c(-86.951054, 20.519435)
363,"Yucatan Peninsula","QUINTANA_ROO","COZUMEL","LA_FRANCESA",20.349227,-87.02578,"Into MPA","68","3.243394812","2.068965517","1","390","5.312360329","6.25","33.20225206",c(-87.02578, 20.349227)
364,"Gulf of Mexico","VERACRUZ","VERACRUZ","LA_GALLEGUILLA",19.23304345,-96.12374868,"Into MPA","10","2.977794567","1.206896552","3","6","4.184691118","7.5","31.38518339",c(-96.12374868, 19.23304345)
365,"Gulf of Mexico","VERACRUZ","VERACRUZ","LA_GRINGA",19.22854228,-96.12863718,"Into MPA","10","3.030272595","1.206896552","3","6","4.237169146","7.5","31.7787686",c(-96.12863718, 19.22854228)
366,"Northwest Mexico","SONORA","GUAYMAS","LA_GRINGA_1",27.88521632,-110.9552783,"Not protected","4","2.834339709","1.896551724","0","66","4.730891434","8.125","38.4384929",c(-110.9552783, 27.88521632)
367,"Northwest Mexico","SONORA","GUAYMAS","LA_GRINGA_2",27.87607899,-110.9529126,"Not protected","4","2.721078779","1.896551724","0","66","4.617630503","8.125","37.51824784",c(-110.9529126, 27.87607899)
368,"Yucatan Peninsula","QUINTANA_ROO","CANCUN","LA_HERRADURA",21.11019855,-86.74350387,"Not protected","14","3.278062681","4.827586207","2","367","8.105648888","8.75","70.92442777",c(-86.74350387, 21.11019855)
369,"Northwest Mexico","BAJA_CALIFORNIA SUR","COMONDU","LA_PUNTA",26.069546,-112.30496,"Not protected","NA","NA","NA","NA","NA","NA","NA","NA",c(-112.30496, 26.069546)
370,"Northwest Mexico","BAJA_CALIFORNIA SUR","LORETO","LA_REINITA",25.73948447,-111.044925,"Into MPA","5","1.900023131","0","0","133","1.900023131","1.25","2.375028914",c(-111.044925, 25.73948447)
371,"Mexican Pacific","GUERRERO","ACAPULCO","LA_ROQUETA",16.824804,-99.900713,"Not protected","1","3.193908553","0.344827586","3","26","3.538736139","9.375","33.17565131",c(-99.900713, 16.824804)
372,"Yucatan Peninsula","QUINTANA_ROO","AKUMAL","LA_TORTUGA",20.39224998,-87.31203297,"Into MPA","NA","NA","NA","NA","NA","NA","NA","NA",c(-87.31203297, 20.39224998)
373,"Northwest Mexico","SONORA","GUAYMAS","LA_VENTANA",27.976803,-111.389417,"Not protected","9","1.854173741","0","1","147","1.854173741","5.625","10.42972729",c(-111.389417, 27.976803)
374,"Yucatan Peninsula","QUINTANA_ROO","TULUM","LABERINTOS",20.192606,-87.418587,"Into MPA","1","3.276501761","0.172413793","0","401","3.448915554","7.5","25.86686665",c(-87.418587, 20.192606)
375,"Mexican Pacific","GUERRERO","IXTAPA","LAGO_IXTAPA",17.65249,-101.611895,"Not protected","2","3.388425227","0.689655172","3","58","4.078080399","8.75","35.6832035",c(-101.611895, 17.65249)
376,"Northwest Mexico","BAJA_CALIFORNIA SUR","LORETO","LAGRIMAS",26.10368207,-111.2606638,"Into MPA","6","2.260003617","0.172413793","3","63","2.43241741","7.5","18.24313057",c(-111.2606638, 26.10368207)
377,"Yucatan Peninsula","QUINTANA_ROO","MAHAHUAL","LAGUNA_HUACH",18.51306118,-87.75392888,"Into MPA","1","1.928584276","0","1","408","1.928584276","7.5","14.46438207",c(-87.75392888, 18.51306118)
378,"Northwest Mexico","BAJA_CALIFORNIA SUR","LORETO","LAJAS",26.1248791,-111.2585762,"Into MPA","5","2.175840152","0.172413793","3","63","2.348253945","7.5","17.61190459",c(-111.2585762, 26.1248791)
379,"Gulf of Mexico","VERACRUZ","VERACRUZ","LAMPARA",19.09426788,-95.84975193,"Into MPA","1","2.157875905","0.862068966","0","302","3.01994487","7.5","22.64958653",c(-95.84975193, 19.09426788)
380,"Northwest Mexico","BAJA_CALIFORNIA SUR","LOS_CABOS","LANDS_END",22.8760368,-109.8926353,"Into MPA","30","3.499458101","0.172413793","3","17","3.671871894","9.375","34.42379901",c(-109.8926353, 22.8760368)
381,"Yucatan Peninsula","QUINTANA_ROO","AKUMAL","LANGOSTA",20.38753895,-87.31433642,"Into MPA","4","3.897674508","0.689655172","0","387","4.58732968","6.875","31.53789155",c(-87.31433642, 20.38753895)
382,"Northwest Mexico","BAJA_CALIFORNIA SUR","LA_PAZ","LAPAS_03",24.47848,-110.395671,"Into MPA","1","1.905816245","0","3","29","1.905816245","5.625","10.72021638",c(-110.395671, 24.47848)
383,"Yucatan Peninsula","QUINTANA_ROO","CANCUN","LARGO",21.132914,-86.731253,"Into MPA","2","3.604355231","4.827586207","1","379","8.431941438","6.875","57.96959739",c(-86.731253, 21.132914)
384,"Northwest Mexico","SONORA","PUERTO_PENASCO","LAS_CONCHAS",31.278442,-113.442598,"Not protected","2","2.350939538","0.344827586","3","41","2.695767124","3.75","10.10912672",c(-113.442598, 31.278442)
385,"Northwest Mexico","NAYARIT","ISLA_ISABEL","LAS_MONAS",21.849982,-105.879777,"Not protected","2","1.559707384","0","0","195","1.559707384","4.375","6.823719806",c(-105.879777, 21.849982)
386,"Yucatan Peninsula","QUINTANA_ROO","COZUMEL","LAS_PALMAS",20.45803333,-86.99053611,"Into MPA","NA","NA","NA","NA","NA","NA","NA","NA",c(-86.99053611, 20.45803333)
387,"Yucatan Peninsula","QUINTANA_ROO","AKUMAL","LEON",20.39591667,-87.3059,"Into MPA","1","3.897682497","0.689655172","0","387","4.587337669","6.875","31.53794648",c(-87.3059, 20.39591667)
388,"Northwest Mexico","SONORA","GUAYMAS","LIGTH_HOUSE",27.868177,-110.948414,"Not protected","7","2.612291582","1.896551724","0","66","4.508843306","8.125","36.63435186",c(-110.948414, 27.868177)
389,"Northwest Mexico","SONORA","GUAYMAS","LIGTHHOUSE",27.982751,-111.383109,"Not protected","9","1.879350581","0","1","147","1.879350581","5.625","10.57134702",c(-111.383109, 27.982751)
390,"Northwest Mexico","BAJA_CALIFORNIA SUR","CABO_PULMO","LOBERA",23.384551,-109.412618,"Not take zone","51","3.346305359","0.172413793","0","117","3.518719152","4.375","15.39439629",c(-109.412618, 23.384551)
391,"Northwest Mexico","BAJA_CALIFORNIA SUR","LORETO","LOBERA",26.12799027,-111.2591709,"Into MPA","7","2.156621603","0.172413793","3","63","2.329035396","7.5","17.46776547",c(-111.2591709, 26.12799027)
392,"Northwest Mexico","BAJA_CALIFORNIA SUR","LOS_CABOS","LOBERA",22.875782,-109.89452,"Into MPA","14","3.499458101","0.172413793","3","17","3.671871894","9.375","34.42379901",c(-109.89452, 22.875782)
393,"Northwest Mexico","BAJA_CALIFORNIA","TIJUANA","LOBSTER_SHACK",32.43821995,-117.293854,"Into MPA","3","1.908589249","0","2","36","1.908589249","7.5","14.31441937",c(-117.293854, 32.43821995)
394,"Northwest Mexico","JALISCO","PUERTO_VALLARTA","LOS_ANEGADOS",20.67806452,-105.6414263,"Not protected","19","2.083809245","0.172413793","3","73","2.256223038","8.75","19.74195158",c(-105.6414263, 20.67806452)
395,"Northwest Mexico","JALISCO","PUERTO_VALLARTA","LOS_ARCOS",20.54526703,-105.2910226,"Not protected","35","2.885340619","1.034482759","0","88","3.919823377","9.375","36.74834416",c(-105.2910226, 20.54526703)
396,"Yucatan Peninsula","QUINTANA_ROO","PLAYA_DEL CARMEN","LOS_ARCOS",20.70784982,-86.93777561,"Into MPA","58","2.819861839","1.551724138","2","382","4.371585977","6.875","30.05465359",c(-86.93777561, 20.70784982)
397,"Yucatan Peninsula","QUINTANA_ROO","COZUMEL","LOS_ATOLONES",20.440703,-86.812834,"Into MPA","23","1.786986468","1.896551724","1","389","3.683538192","8.125","29.92874781",c(-86.812834, 20.440703)
398,"Gulf of Mexico","VERACRUZ","VERACRUZ","LOS_BAJITOS",19.11079195,-95.97803041,"Into MPA","13","2.734866655","1.896551724","0","301","4.631418379","7.5","34.73563784",c(-95.97803041, 19.11079195)
399,"Northwest Mexico","BAJA_CALIFORNIA SUR","LA_PAZ","LOS_BARRILES",23.68758034,-109.6839084,"Not protected","1","3.511910104","0.517241379","1","119","4.029151483","6.25","25.18219677",c(-109.6839084, 23.68758034)
400,"Northwest Mexico","BAJA_CALIFORNIA SUR","LORETO","LOS_CANDELEROS",25.7447806,-111.2269312,"Into MPA","9","2.306295561","0.172413793","3","35","2.478709354","4.375","10.84435342",c(-111.2269312, 25.7447806)
401,"Northwest Mexico","BAJA_CALIFORNIA","TIJUANA","LOS_CORONADOS",32.433227,-117.293428,"Into MPA","1","1.914246857","0.172413793","2","36","2.08666065","7.5","15.64995487",c(-117.293428, 32.433227)
402,"Northwest Mexico","BAJA_CALIFORNIA","ENSENADA","LOS_CRESTONES",28.30010049,-115.3060336,"Into MPA","1","1.551435653","0","2","37","1.551435653","0","0",c(-115.3060336, 28.30010049)
403,"Gulf of Mexico","VERACRUZ","VERACRUZ","LOS_SABALOS",19.10715426,-95.92954954,"Into MPA","1","2.521348931","1.724137931","0","301","4.245486862","7.5","31.84115147",c(-95.92954954, 19.10715426)
404,"Mexican Pacific","GUERRERO","ACAPULCO","LOS_SUIZOS",16.827358,-99.91267,"Not protected","1","3.153788549","0.344827586","3","26","3.498616135","9.375","32.79952627",c(-99.91267, 16.827358)
405,"Gulf of Mexico","VERACRUZ","VERACRUZ","LUNA_DE_DUENDES",19.14134818,-95.75637861,"Not protected","1","1.842210598","0","0","302","1.842210598","7.5","13.81657949",c(-95.75637861, 19.14134818)
406,"Gulf of Mexico","VERACRUZ","VERACRUZ","LURO",19.20189945,-96.07110481,"Into MPA","1","2.751321336","1.896551724","3","6","4.64787306","7.5","34.85904795",c(-96.07110481, 19.20189945)
407,"Northwest Mexico","SONORA","GUAYMAS","MAGDALENA_BAY",27.9537,-111.364675,"Not protected","4","1.910828071","0","1","147","1.910828071","5.625","10.7484079",c(-111.364675, 27.9537)
408,"Mexican Pacific","GUERRERO","ACAPULCO","MAGICO_MUNDO_MARINO",16.830054,-99.90434,"Not protected","1","3.271344087","0.344827586","3","26","3.616171673","9.375","33.90160944",c(-99.90434, 16.830054)
409,"Mexican Pacific","OAXACA","HUATULCO","MAGUEYITO",15.77627879,-96.06260841,"Not protected","16","2.596913708","0.344827586","3","40","2.941741295","8.75","25.74023633",c(-96.06260841, 15.77627879)
410,"Yucatan Peninsula","QUINTANA_ROO","MAHAHUAL","MAHAHUAL",18.71516211,-87.70442754,"Into MPA","1","3.894972744","0.517241379","1","407","4.412214123","6.25","27.57633827",c(-87.70442754, 18.71516211)
411,"Yucatan Peninsula","QUINTANA_ROO","BANCO_CHINCHORROS","MAHAWALL",18.41492905,-87.43382104,"Into MPA","6","1.949753512","0.172413793","1","406","2.122167305","1.875","3.979063697",c(-87.43382104, 18.41492905)
412,"Northwest Mexico","JALISCO","PUERTO_VALLARTA","MAJAHUITAS",20.506828,-105.390147,"Not protected","21","3.490206818","0.862068966","0","202","4.352275784","5.625","24.48155128",c(-105.390147, 20.506828)
413,"Yucatan Peninsula","QUINTANA_ROO","PLAYA_DEL CARMEN","MAMA_VI<U+FFFD>A",20.56057,-87.1105,"Into MPA","58","3.160805762","2.75862069","2","39","5.919426452","6.25","36.99641532",c(-87.1105, 20.56057)
414,"Yucatan Peninsula","QUINTANA_ROO","PLAYA_DEL CARMEN","MAMITAS",20.626499,-87.063505,"Into MPA","2","4.111498515","2.413793103","1","383","6.525291618","8.75","57.09630166",c(-87.063505, 20.626499)
415,"Yucatan Peninsula","QUINTANA_ROO","PLAYA_DEL CARMEN","MANCHA_CHICA",20.779562,-86.909425,"Into MPA","8","2.650434022","0.517241379","3","71","3.167675401","7.5","23.75756551",c(-86.909425, 20.779562)
416,"Yucatan Peninsula","QUINTANA_ROO","PLAYA_DEL CARMEN","MANCHA_GRANDE",20.799564,-86.892554,"Not protected","8","3.030763594","0.517241379","3","71","3.548004973","7.5","26.6100373",c(-86.892554, 20.799564)
417,"Yucatan Peninsula","QUINTANA_ROO","ISLA_MUJERES","MANCHONES",21.20257083,-86.71719827,"Into MPA","31","3.054276986","5","3","24","8.054276986","9.375","75.50884674",c(-86.71719827, 21.20257083)
418,"Yucatan Peninsula","QUINTANA_ROO","COZUMEL","MARACAIBO_REEF",20.265643,-86.98952,"Not take zone","68","2.253997017","1.034482759","1","390","3.288479775","6.25","20.5529986",c(-86.98952, 20.265643)
419,"Northwest Mexico","JALISCO","PUERTO_VALLARTA","MARIETAS",20.69036333,-105.5868666,"Into MPA","36","2.306238257","0.172413793","3","73","2.47865205","8.75","21.68820544",c(-105.5868666, 20.69036333)
420,"Mexican Pacific","GUERRERO","ACAPULCO","MARINA_&_LABYRINTH",16.819724,-99.902854,"Not protected","1","3.086486884","0.344827586","3","26","3.43131447","9.375","32.16857316",c(-99.902854, 16.819724)
421,"Northwest Mexico","BAJA_CALIFORNIA","ENSENADA","MARISOL",31.91616889,-116.7633513,"Not protected","1","2.668352304","0.862068966","3","46","3.530421269","8.125","28.68467281",c(-116.7633513, 31.91616889)
422,"Northwest Mexico","SONORA","GUAYMAS","MARTINI_COVE",27.93121646,-111.0590445,"Not protected","6","3.395759495","1.896551724","3","148","5.29231122","8.75","46.30772317",c(-111.0590445, 27.93121646)
423,"Yucatan Peninsula","QUINTANA_ROO","CANCUN","MECO",21.216935,-86.795372,"Not protected","2","3.331633997","5","3","20","8.331633997","8.125","67.69452623",c(-86.795372, 21.216935)
424,"Yucatan Peninsula","QUINTANA_ROO","ISLA_MUJERES","MEDIA_LUNA",21.21291156,-86.7175093,"Not protected","11","3.278244774","5","3","24","8.278244774","9.375","77.60854475",c(-86.7175093, 21.21291156)
425,"Mexican Pacific","OAXACA","HUATULCO","MEDREGAL",15.72166228,-96.15062645,"Into MPA","11","2.803206302","0.344827586","3","226","3.148033888","8.75","27.54529652",c(-96.15062645, 15.72166228)
426,"Gulf of Mexico","VERACRUZ","COATZACOALCOS","MELILLA",18.256881,-94.477253,"Not protected","4","2.20387663","0.862068966","1","313","3.065945596","6.25","19.16215997",c(-94.477253, 18.256881)
427,"Northwest Mexico","BAJA_CALIFORNIA","TIJUANA","MIDDLE_CORONADO",32.41789,-117.259239,"Into MPA","3","2.012497428","0.172413793","2","36","2.184911221","7.5","16.38683416",c(-117.259239, 32.41789)
428,"Northwest Mexico","BAJA_CALIFORNIA","ENSENADA","MIDDLE_ROCK",32.42266667,-117.2619,"Into MPA","1","2.005770023","0.172413793","2","36","2.178183816","7.5","16.33637862",c(-117.2619, 32.42266667)
429,"Northwest Mexico","BAJA_CALIFORNIA SUR","LOS_CABOS","MIDDLE_WALL",22.878493,-109.897701,"Into MPA","17","3.728597076","0.172413793","3","17","3.90101087","9.375","36.5719769",c(-109.897701, 22.878493)
430,"Yucatan Peninsula","QUINTANA_ROO","COZUMEL","MIRADOR",20.298721,-86.930638,"Into MPA","1","1.999341989","1.551724138","1","390","3.551066127","6.25","22.1941633",c(-86.930638, 20.298721)
431,"Yucatan Peninsula","QUINTANA_ROO","PLAYA_DEL CARMEN","MOC_CHE",20.68932278,-86.93138123,"Into MPA","61","2.676622383","1.896551724","2","382","4.573174107","6.875","31.44057199",c(-86.93138123, 20.68932278)
432,"Yucatan Peninsula","QUINTANA_ROO","PLAYA_DEL CARMEN","MOC_CHE_DEEP",20.6867533,-86.8826294,"Into MPA","55","2.323538652","1.724137931","2","382","4.047676583","6.875","27.82777651",c(-86.8826294, 20.6867533)
433,"Northwest Mexico","BAJA_CALIFORNIA SUR","LA_PAZ","MOGOTE",24.18384,-110.344379,"Not protected","1","2.995050796","1.896551724","1","128","4.89160252","8.125","39.74427048",c(-110.344379, 24.18384)
434,"Northwest Mexico","BAJA_CALIFORNIA","ENSENADA","MOLOKAY",31.81168,-116.662369,"Not protected","1","2.721400294","0.689655172","3","21","3.411055466","7.5","25.582916",c(-116.662369, 31.81168)
435,"Yucatan Peninsula","QUINTANA_ROO","COZUMEL","MONEY_BAR",20.460033,-86.986043,"Into MPA","NA","NA","NA","NA","NA","NA","NA","NA",c(-86.986043, 20.460033)
436,"Gulf of Mexico","VERACRUZ","VERACRUZ","MONTA<U+FFFD>A",19.08274663,-95.9339298,"Into MPA","1","2.671357423","1.724137931","0","302","4.395495354","7.5","32.96621516",c(-95.9339298, 19.08274663)
437,"Mexican Pacific","OAXACA","HUATULCO","MONTOSA",15.76116362,-96.08460438,"Not protected","16","2.961870637","0.344827586","3","40","3.306698223","8.75","28.93360945",c(-96.08460438, 15.76116362)
438,"Gulf of Mexico","VERACRUZ","VERACRUZ","MORGAN",19.23111667,-96.05721667,"Into MPA","1","2.499967382","1.724137931","3","6","4.224105313","7.5","31.68078985",c(-96.05721667, 19.23111667)
439,"Yucatan Peninsula","QUINTANA_ROO","AKUMAL","MORGAN'S_REEF",20.395679,-87.304168,"Into MPA","3","3.897682497","0.689655172","0","387","4.587337669","6.875","31.53794648",c(-87.304168, 20.395679)
440,"Northwest Mexico","BAJA_CALIFORNIA SUR","LOS_CABOS","MOROS",22.89543,-109.855511,"Into MPA","2","2.675815769","0.172413793","3","17","2.848229562","9.375","26.70215214",c(-109.855511, 22.89543)
441,"Northwest Mexico","BAJA_CALIFORNIA","ENSENADA","MORRO_REDONDO",28.06582102,-115.1601675,"Into MPA","1","3.003264206","0.172413793","2","37","3.175677999","0","0",c(-115.1601675, 28.06582102)
442,"Mexican Pacific","OAXACA","HUATULCO","MORRO_TEJON",15.75742732,-96.11273263,"Not protected","11","3.890742944","0.344827586","3","40","4.23557053","8.75","37.06124214",c(-96.11273263, 15.75742732)
443,"Northwest Mexico","BAJA_CALIFORNIA SUR","CABO_PULMO","MORROS",23.461938,-109.407203,"Not take zone","30","2.389786482","0.172413793","0","117","2.562200275","4.375","11.2096262",c(-109.407203, 23.461938)
444,"Mexican Pacific","OAXACA","HUATULCO","MORROS_CONEJOS",15.77567311,-96.06911982,"Not protected","11","2.703438846","0.344827586","3","40","3.048266432","8.75","26.67233128",c(-96.06911982, 15.77567311)
445,"Mexican Pacific","GUERRERO","IXTAPA","MORROS_DE_POTOSI",17.669001,-101.6544179,"Not protected","8","3.327531107","0.689655172","1","214","4.01718628","8.125","32.63963852",c(-101.6544179, 17.669001)
446,"Mexican Pacific","OAXACA","HUATULCO","MORROS_MAGUEY",15.73140411,-96.15019391,"Not take zone","13","2.855780532","0.344827586","3","226","3.200608118","8.75","28.00532103",c(-96.15019391, 15.73140411)
447,"Yucatan Peninsula","QUINTANA_ROO","AKUMAL","MOTOCICLETA",20.39404763,-87.30752471,"Into MPA","8","4.324233685","0.689655172","1","397","5.013888857","8.75","43.8715275",c(-87.30752471, 20.39404763)
448,"Northwest Mexico","BAJA_CALIFORNIA SUR","LORETO","MURCIELAGO",25.87875065,-111.2397824,"Into MPA","5","2.390131421","0.344827586","3","35","2.734959007","4.375","11.96544566",c(-111.2397824, 25.87875065)
449,"Yucatan Peninsula","QUINTANA_ROO","ISLA_MUJERES","MUSEO_SUBACUATICO",21.030529,-86.774254,"Into MPA","18","3.604086935","4.655172414","1","380","8.259259349","8.75","72.2685193",c(-86.774254, 21.030529)
450,"Gulf of Mexico","VERACRUZ","VERACRUZ","NAFRAGIO_RIELERO",19.134942,-95.826861,"Into MPA","2","2.035328208","0.862068966","0","302","2.897397174","7.5","21.7304788",c(-95.826861, 19.134942)
451,"Yucatan Peninsula","QUINTANA_ROO","ISLA_MUJERES","NAFRAGIO_ULTRAFREEZE",21.26195839,-86.72984758,"Not protected","7","2.948496802","4.655172414","3","24","7.603669216","9.375","71.2843989",c(-86.72984758, 21.26195839)
452,"Northwest Mexico","BAJA_CALIFORNIA SUR","LOS_CABOS","NAUFRAGIO",22.874629,-109.894758,"Into MPA","6","3.416997018","0.172413793","3","17","3.589410811","9.375","33.65072636",c(-109.894758, 22.874629)
453,"Northwest Mexico","SONORA","GUAYMAS","NAUFRAGIO_ALBATUN",28.05969322,-111.2538676,"Not protected","4","2.099953391","0.344827586","1","147","2.444780977","5.625","13.75189299",c(-111.2538676, 28.05969322)
454,"Gulf of Mexico","VERACRUZ","VERACRUZ","NAUFRAGIO_ANA_ELENA",19.171387,-95.876631,"Into MPA","2","2.123647376","0.862068966","0","301","2.985716342","7.5","22.39287256",c(-95.876631, 19.171387)
455,"Yucatan Peninsula","QUINTANA_ROO","COZUMEL","NAUFRAGIO_AVION",20.459441,-87.000223,"Into MPA","10","3.60264742","2.931034483","1","395","6.533681902","8.75","57.16971665",c(-87.000223, 20.459441)
456,"Yucatan Peninsula","QUINTANA_ROO","ISLA_MUJERES","NAUFRAGIO_BARRERA",21.1262695,-86.71259382,"Into MPA","8","2.983495683","4.827586207","1","379","7.81108189","6.875","53.70118799",c(-86.71259382, 21.1262695)
457,"Northwest Mexico","BAJA_CALIFORNIA SUR","LORETO","NAUFRAGIO_C_54",25.782896,-111.300233,"Into MPA","12","2.923626782","0.172413793","3","35","3.096040575","4.375","13.54517752",c(-111.300233, 25.782896)
458,"Yucatan Peninsula","QUINTANA_ROO","CANCUN","NAUFRAGIO_C_55",21.11019855,-86.74350386,"Not protected","7","3.278062681","4.827586207","2","367","8.105648888","8.75","70.92442777",c(-86.74350386, 21.11019855)
459,"Yucatan Peninsula","QUINTANA_ROO","COZUMEL","NAUFRAGIO_C53",20.4452,-87.00053333,"Into MPA","30","3.197058895","2.931034483","1","395","6.128093378","8.75","53.62081706",c(-87.00053333, 20.4452)
460,"Yucatan Peninsula","QUINTANA_ROO","PLAYA_DEL CARMEN","NAUFRAGIO_C56",20.96851,-86.760826,"Into MPA","11","2.515494318","4.310344828","1","380","6.825839146","8.75","59.72609252",c(-86.760826, 20.96851)
461,"Yucatan Peninsula","QUINTANA_ROO","CANCUN","NAUFRAGIO_C58_ANAYA",21.11843575,-86.72525865,"Into MPA","13","3.115506641","4.827586207","1","379","7.943092848","6.875","54.60876333",c(-86.72525865, 21.11843575)
462,"Yucatan Peninsula","QUINTANA_ROO","BANCO_CHINCHORROS","NAUFRAGIO_CAYO_LOBOS",18.40938892,-87.33760797,"Into MPA","5","2.044155135","0.172413793","1","406","2.216568928","1.875","4.15606674",c(-87.33760797, 18.40938892)
463,"Yucatan Peninsula","QUINTANA_ROO","ISLA_MUJERES","NAUFRAGIO_CHAIREL",21.26556023,-86.73218524,"Not protected","3","2.852114413","4.655172414","3","24","7.507286827","9.375","70.380814",c(-86.73218524, 21.26556023)
464,"Northwest Mexico","SONORA","GUAYMAS","NAUFRAGIO_DIAZ_ORDAZ",28.04570951,-111.2333778,"Not protected","6","2.201736504","0.517241379","1","147","2.718977883","5.625","15.29425059",c(-111.2333778, 28.04570951)
465,"Yucatan Peninsula","QUINTANA_ROO","BANCO_CHINCHORROS","NAUFRAGIO_FAR_STAR",18.39357726,-87.39189076,"Into MPA","8","1.924880399","0.172413793","1","406","2.097294192","1.875","3.932426611",c(-87.39189076, 18.39357726)
466,"Yucatan Peninsula","QUINTANA_ROO","BANCO_CHINCHORROS","NAUFRAGIO_GALEON",18.7196389,-87.24388369,"Into MPA","6","2.050701054","0.172413793","1","406","2.223114847","1.875","4.168340338",c(-87.24388369, 18.7196389)
467,"Yucatan Peninsula","QUINTANA_ROO","BANCO_CHINCHORROS","NAUFRAGIO_GALEON_SIGLIO_XV1",18.56642317,-87.28061712,"Into MPA","6","2.869076386","0.172413793","1","406","3.041490179","1.875","5.702794086",c(-87.28061712, 18.56642317)
468,"Yucatan Peninsula","QUINTANA_ROO","BANCO_CHINCHORROS","NAUFRAGIO_GINGER_SCOUT",18.6622108,-87.22760995,"Into MPA","11","2.240143037","0.172413793","1","406","2.41255683","1.875","4.523544056",c(-87.22760995, 18.6622108)
469,"Yucatan Peninsula","QUINTANA_ROO","BANCO_CHINCHORROS","NAUFRAGIO_GLENN_VIEW",18.59827353,-87.25234645,"Into MPA","6","2.54475301","0.172413793","1","406","2.717166803","1.875","5.094687756",c(-87.25234645, 18.59827353)
470,"Gulf of Mexico","VERACRUZ","VERACRUZ","NAUFRAGIO_HIDALGO",19.194713,-96.070561,"Into MPA","2","2.72857051","1.896551724","3","6","4.625122234","7.5","34.68841676",c(-96.070561, 19.194713)
471,"Yucatan Peninsula","QUINTANA_ROO","ISLA_MUJERES","NAUFRAGIO_HONDURE<U+FFFD>O",21.2400345,-86.72919957,"Not protected","3","3.589524434","4.655172414","3","24","8.244696848","9.375","77.29403295",c(-86.72919957, 21.2400345)
472,"Yucatan Peninsula","QUINTANA_ROO","BANCO_CHINCHORROS","NAUFRAGIO_KASSEL",18.5072386,-87.3042912,"Into MPA","6","2.505519862","0.172413793","1","406","2.677933655","1.875","5.021125603",c(-87.3042912, 18.5072386)
473,"Yucatan Peninsula","QUINTANA_ROO","PUERTO_AVENTURAS","NAUFRAGIO_PELICANO",20.48267,-87.23679,"Into MPA","2","3.197094993","0.862068966","1","386","4.059163959","8.125","32.98070716",c(-87.23679, 20.48267)
474,"Yucatan Peninsula","QUINTANA_ROO","BANCO_CHINCHORROS","NAUFRAGIO_PENELOPE",18.62735207,-87.23444979,"Into MPA","6","2.333978074","0.172413793","1","406","2.506391867","1.875","4.69948475",c(-87.23444979, 18.62735207)
475,"Gulf of Mexico","VERACRUZ","VERACRUZ","NAUFRAGIO_RIVA_PALACIO",19.210325,-96.076198,"Into MPA","3","2.756294234","1.724137931","3","6","4.480432165","7.5","33.60324124",c(-96.076198, 19.210325)
476,"Northwest Mexico","BAJA_CALIFORNIA SUR","LOS_CABOS","NAUFRAGIO_SALINAR",23.061708,-109.620336,"Not protected","2","2.742194717","0.172413793","3","23","2.914608511","9.375","27.32445479",c(-109.620336, 23.061708)
477,"Yucatan Peninsula","QUINTANA_ROO","BANCO_CHINCHORROS","NAUFRAGIO_SAN_ANDRES",18.55613948,-87.29141233,"Into MPA","6","2.943780524","0.172413793","1","406","3.116194317","1.875","5.842864345",c(-87.29141233, 18.55613948)
478,"Mexican Pacific","COLIMA","MANZANILLO","NAUFRAGIO_SAN_LUCIANO",19.10656239,-104.3962105,"Not protected","7","4.077486187","0.689655172","1","208","4.767141359","8.125","38.73302355",c(-104.3962105, 19.10656239)
479,"Yucatan Peninsula","QUINTANA_ROO","BANCO_CHINCHORROS","NAUFRAGIO_TROPIC",18.48689889,-87.30307338,"Into MPA","6","2.380437914","0.172413793","1","406","2.552851707","1.875","4.786596951",c(-87.30307338, 18.48689889)
480,"Gulf of Mexico","VERACRUZ","VERACRUZ","NAUFRAGIO_USS_TACOMA",19.231661,-96.103777,"Into MPA","2","2.866931668","1.551724138","3","6","4.418655806","7.5","33.13991854",c(-96.103777, 19.231661)
481,"Yucatan Peninsula","QUINTANA_ROO","BANCO_CHINCHORROS","NAUFRAGIO_XUBA",18.44624564,-87.31806845,"Into MPA","6","2.194406028","0.172413793","1","406","2.366819821","1.875","4.437787165",c(-87.31806845, 18.44624564)
482,"Northwest Mexico","BAJA_CALIFORNIA SUR","CABO_PULMO","NAVAJAS",23.446164,-109.416728,"Not take zone","22","2.507421003","0.172413793","0","117","2.679834796","4.375","11.72427723",c(-109.416728, 23.446164)
483,"Yucatan Peninsula","QUINTANA_ROO","PUERTO_MORELOS","NETOS",20.831896,-86.877062,"Into MPA","2","3.456521172","0.517241379","2","381","3.973762551","8.75","34.77042232",c(-86.877062, 20.831896)
484,"Northwest Mexico","BAJA_CALIFORNIA SUR","LORETO","NIDOS",25.89621162,-111.3360056,"Into MPA","5","2.400100715","0.344827586","3","35","2.744928301","4.375","12.00906132",c(-111.3360056, 25.89621162)
485,"Northwest Mexico","BAJA_CALIFORNIA SUR","LORETO","NOPOLO",25.93991126,-111.3456193,"Into MPA","1","2.497984596","0.344827586","3","63","2.842812182","7.5","21.32109137",c(-111.3456193, 25.93991126)
486,"Northwest Mexico","BAJA_CALIFORNIA","ENSENADA","NORT_CORONADO_ISLAND_PASSAGE",32.44208333,-117.2966667,"Into MPA","1","1.892840206","0","2","36","1.892840206","7.5","14.19630154",c(-117.2966667, 32.44208333)
487,"Yucatan Peninsula","QUINTANA_ROO","BANCO_CHINCHORROS","OBI",18.46469401,-87.43830274,"Into MPA","6","2.082648423","0.172413793","1","406","2.255062216","1.875","4.228241655",c(-87.43830274, 18.46469401)
488,"Yucatan Peninsula","QUINTANA_ROO","CANCUN","OCTOPUS",21.1365964,-86.72207141,"Into MPA","1","3.329987047","4.827586207","1","379","8.157573254","6.875","56.08331612",c(-86.72207141, 21.1365964)
489,"Gulf of Mexico","VERACRUZ","VERACRUZ","OJO",19.0957502,-95.85972304,"Into MPA","1","2.214591225","0.862068966","0","302","3.07666019","7.5","23.07495143",c(-95.85972304, 19.0957502)
490,"Mexican Pacific","COLIMA","MANZANILLO","OREJAS_DE_CABALLO",19.09614542,-104.4049307,"Not protected","5","3.329097725","0.689655172","1","208","4.018752897","8.125","32.65236729",c(-104.4049307, 19.09614542)
491,"Mexican Pacific","OAXACA","HUATULCO","ORGANO",15.730933,-96.1444,"Into MPA","2","2.998308236","0.344827586","3","226","3.343135822","8.75","29.25243844",c(-96.1444, 15.730933)
492,"Gulf of Mexico","VERACRUZ","TUXPAN","ORO_VERDE",21.15709,-97.291832,"Into MPA","2","2.420431311","1.034482759","0","285","3.454914069","3.75","12.95592776",c(-97.291832, 21.15709)
493,"Northwest Mexico","BAJA_CALIFORNIA","TIJUANA","OSCAR'S_HOLE",32.42434127,-117.265354,"Into MPA","3","1.993618396","0.172413793","2","36","2.166032189","7.5","16.24524142",c(-117.265354, 32.42434127)
494,"Northwest Mexico","BAJA_CALIFORNIA SUR","LA_PAZ","OUNTA_PRIETA",24.24265578,-110.3287403,"Into MPA","1","3.159706428","1.896551724","2","122","5.056258152","9.375","47.40242017",c(-110.3287403, 24.24265578)
495,"Yucatan Peninsula","QUINTANA_ROO","COZUMEL","PALANCAR_CAVES",20.326772,-87.033803,"Into MPA","47","2.790501925","1.724137931","1","390","4.514639856","6.25","28.2164991",c(-87.033803, 20.326772)
496,"Yucatan Peninsula","QUINTANA_ROO","COZUMEL","PALANCAR_GARDENS",20.33609621,-87.02742577,"Into MPA","50","2.9482675","1.896551724","1","390","4.844819224","6.25","30.28012015",c(-87.02742577, 20.33609621)
497,"Yucatan Peninsula","QUINTANA_ROO","COZUMEL","PALANCAR_HORSESHOE",20.32659917,-87.03266144,"Into MPA","51","2.790501925","1.724137931","1","390","4.514639856","6.25","28.2164991",c(-87.03266144, 20.32659917)
498,"Yucatan Peninsula","QUINTANA_ROO","COZUMEL","PALANCAR_REEF",20.33384273,-87.0306015,"Into MPA","94","2.920262918","1.896551724","1","390","4.816814642","6.25","30.10509151",c(-87.0306015, 20.33384273)
499,"Northwest Mexico","SONORA","GUAYMAS","PALAPA",27.98287306,-111.1482131,"Not protected","6","3.13036913","0.689655172","1","147","3.820024302","5.625","21.4876367",c(-111.1482131, 27.98287306)
500,"Mexican Pacific","GUERRERO","ACAPULCO","PALMITAS",16.824302,-99.912465,"Not protected","3","3.108764074","0.344827586","3","26","3.45359166","9.375","32.37742181",c(-99.912465, 16.824302)
501,"Mexican Pacific","GUERRERO","IXTAPA","PANGO",17.62120312,-101.556706,"Not protected","6","4.148585211","0.862068966","1","215","5.010654177","8.75","43.84322405",c(-101.556706, 17.62120312)
502,"Gulf of Mexico","VERACRUZ","TUXPAN","PANTEPEC",21.044441,-97.286291,"Not protected","2","2.650613774","0.862068966","1","16","3.512682739","8.75","30.73597397",c(-97.286291, 21.044441)
503,"Yucatan Peninsula","QUINTANA_ROO","COZUMEL","PARAISO_BAJO",20.47188813,-86.98146343,"Into MPA","NA","NA","NA","NA","NA","NA","NA","NA",c(-86.98146343, 20.47188813)
504,"Northwest Mexico","BAJA_CALIFORNIA SUR","LORETO","PARED",25.86067399,-111.2298993,"Into MPA","5","2.3891457","0.344827586","3","35","2.733973286","4.375","11.96113313",c(-111.2298993, 25.86067399)
505,"Northwest Mexico","JALISCO","PUERTO_VALLARTA","PARED_MARIETAS",20.697569,-105.569136,"Into MPA","4","2.371152505","0.344827586","3","73","2.715980091","8.75","23.7648258",c(-105.569136, 20.697569)
506,"Northwest Mexico","BAJA_CALIFORNIA SUR","LOS_CABOS","PARED_NORTE",22.87904181,-109.8995769,"Into MPA","26","3.728597076","0.172413793","3","17","3.90101087","9.375","36.5719769",c(-109.8995769, 22.87904181)
507,"Yucatan Peninsula","QUINTANA_ROO","CANCUN","PARED_SARA",21.102157,-86.748419,"Not protected","2","3.268169222","4.827586207","2","369","8.095755429","8.75","70.83786",c(-86.748419, 21.102157)
508,"Yucatan Peninsula","QUINTANA_ROO","PLAYA_DEL CARMEN","PARED_VERDE",20.6412985,-87.05085754,"Into MPA","40","3.898092274","2.24137931","0","384","6.139471584","8.125","49.88320662",c(-87.05085754, 20.6412985)
509,"Mexican Pacific","OAXACA","HUATULCO","PARGO",15.68456127,-96.2293415,"Into MPA","11","2.186060216","0.344827586","3","226","2.530887802","8.75","22.14526827",c(-96.2293415, 15.68456127)
510,"Northwest Mexico","BAJA_CALIFORNIA SUR","LA_PAZ","PARGO_VIA",24.144266,-109.79333,"Not protected","2","2.08186911","0.172413793","0","120","2.254282903","5","11.27141452",c(-109.79333, 24.144266)
511,"Northwest Mexico","BAJA_CALIFORNIA","BAHIA DE LOS ANGELES","PARTIDA",28.88748003,-113.0615692,"Not take zone","1","1.476596228","0","2","140","1.476596228","5","7.38298114",c(-113.0615692, 28.88748003)
512,"Gulf of Mexico","VERACRUZ","VERACRUZ","PASI_DEL_SABALO",19.13855753,-95.79304739,"Into MPA","1","1.936603577","0.344827586","0","302","2.281431163","7.5","17.11073373",c(-95.79304739, 19.13855753)
513,"Yucatan Peninsula","QUINTANA_ROO","COZUMEL","PASO_DEL_CEDRAL_REEF",20.356448,-87.028455,"Into MPA","84","3.390069345","2.068965517","1","390","5.459034863","6.25","34.11896789",c(-87.028455, 20.356448)
514,"Yucatan Peninsula","QUINTANA_ROO","PLAYA_DEL CARMEN","PC_CANTIL",20.519709,-87.163899,"Into MPA","2","2.626439175","2.931034483","1","385","5.557473658","8.125","45.15447347",c(-87.163899, 20.519709)
515,"Mexican Pacific","COLIMA","MANZANILLO","PE<U+FFFD>A_BLANCA",19.10115745,-104.4882363,"Not protected","7","2.328961934","0.517241379","1","208","2.846203314","8.125","23.12540192",c(-104.4882363, 19.10115745)
516,"Yucatan Peninsula","QUINTANA_ROO","CANCUN","PERDIDA",21.127353,-86.719621,"Into MPA","10","3.108133907","4.827586207","1","379","7.935720114","6.875","54.55807578",c(-86.719621, 21.127353)
517,"Mexican Pacific","COLIMA","MANZANILLO","PETATERA",19.10079725,-104.4087902,"Not protected","4","3.255685583","0.689655172","1","208","3.945340756","8.125","32.05589364",c(-104.4087902, 19.10079725)
518,"Gulf of Mexico","VERACRUZ","VERACRUZ","PICACHO",19.13443401,-95.79103479,"Into MPA","1","1.929969534","0.172413793","0","302","2.102383327","7.5","15.76787495",c(-95.79103479, 19.13443401)
519,"Northwest Mexico","BAJA_CALIFORNIA SUR","LORETO","PICACHOS",25.88567587,-111.2222424,"Into MPA","5","2.284602759","0.344827586","3","35","2.629430345","4.375","11.50375776",c(-111.2222424, 25.88567587)
520,"Mexican Pacific","MICHOACAN","CUILALA_DE HIDALGO","PICHILINGUILLO",18.190888,-103.071283,"Not protected","1","1.197985381","0","0","212","1.197985381","6.25","7.487408633",c(-103.071283, 18.190888)
521,"Yucatan Peninsula","QUINTANA_ROO","ISLA_MUJERES","PIEDRA_ATRAVEZADA",21.25376226,-86.72250099,"Not protected","4","3.089664729","4.655172414","3","24","7.744837142","9.375","72.60784821",c(-86.72250099, 21.25376226)
522,"Northwest Mexico","BAJA_CALIFORNIA SUR","LORETO","PIEDRA_BOLA",25.7921382,-111.2597726,"Into MPA","5","2.664539556","0.172413793","3","35","2.836953349","4.375","12.4116709",c(-111.2597726, 25.7921382)
523,"Northwest Mexico","BAJA_CALIFORNIA","ENSENADA","PIEDRA_DE_AGUILA",31.750344,-116.743531,"Not protected","1","2.511654439","0.689655172","0","94","3.201309611","4.375","14.00572955",c(-116.743531, 31.750344)
524,"Gulf of Mexico","VERACRUZ","VERACRUZ","PIEDRA_DE_CARTON",19.07181595,-95.86529311,"Into MPA","1","2.283329078","1.034482759","0","302","3.317811837","7.5","24.88358877",c(-95.86529311, 19.07181595)
525,"Northwest Mexico","BAJA_CALIFORNIA SUR","LORETO","PIEDRA_PARTIDA",25.79992305,-111.2461391,"Into MPA","7","2.585477251","0.172413793","3","35","2.757891044","4.375","12.06577332",c(-111.2461391, 25.79992305)
526,"Mexican Pacific","GUERRERO","IXTAPA","PIEDRA_SOLITARIA",17.60577902,-101.5649387,"Not protected","6","3.327465592","0.862068966","1","215","4.189534557","8.75","36.65842738",c(-101.5649387, 17.60577902)
527,"Northwest Mexico","BAJA_CALIFORNIA SUR","LA_PAZ","PINACULOS",25.089468,-110.566743,"Not protected","2","1.68599573","0","0","132","1.68599573","1.25","2.107494663",c(-110.566743, 25.089468)
528,"Northwest Mexico","BAJA_CALIFORNIA","BAHIA DE LOS ANGELES","PIOJO",29.01418603,-113.5135177,"Not protected","1","2.476134305","0.172413793","2","140","2.648548098","5","13.24274049",c(-113.5135177, 29.01418603)
529,"Mexican Pacific","COLIMA","MANZANILLO","PIRAMIDES",19.09853664,-104.4215201,"Not protected","4","3.048002608","0.689655172","1","208","3.737657781","8.125","30.36846947",c(-104.4215201, 19.09853664)
530,"Yucatan Peninsula","QUINTANA_ROO","TULUM","PISCINA",20.225755,-87.396185,"Into MPA","2","2.818614176","0.517241379","0","401","3.335855555","7.5","25.01891666",c(-87.396185, 20.225755)
531,"Northwest Mexico","BAJA_CALIFORNIA SUR","LORETO","PIUNTA_TIERRA_FIRME",26.09754839,-111.2953038,"Into MPA","1","2.353003174","0.172413793","3","63","2.525416967","7.5","18.94062725",c(-111.2953038, 26.09754839)
532,"Northwest Mexico","JALISCO","PUERTO_VALLARTA","PIZOTA",20.502746,-105.542846,"Not protected","2","2.629822105","0.689655172","0","203","3.319477277","5","16.59738639",c(-105.542846, 20.502746)
533,"Yucatan Peninsula","QUINTANA_ROO","ISLA_MUJERES","PLACER",21.20646115,-86.71392488,"Into MPA","3","3.020986615","5","3","24","8.020986615","9.375","75.19674951",c(-86.71392488, 21.20646115)
534,"Mexican Pacific","COLIMA","MANZANILLO","PLAYA_AUDIENCIA",19.10469618,-104.3507521,"Not protected","NA","NA","NA","NA","NA","NA","NA","NA",c(-104.3507521, 19.10469618)
535,"Northwest Mexico","JALISCO","MELAQUE","PLAYA_BARRA_DE_NAVIDAD",19.198388,-104.689709,"Not protected","1","3.895725381","0.344827586","3","50","4.240552967","5.625","23.85311044",c(-104.689709, 19.198388)
536,"Yucatan Peninsula","QUINTANA_ROO","COZUMEL","PLAYA_BOSH",20.284126,-86.966443,"Not take zone","23","2.125295089","1.379310345","1","390","3.504605434","6.25","21.90378396",c(-86.966443, 20.284126)
537,"Mexican Pacific","OAXACA","PUERTO_ESCONDIDO","PLAYA_CACALOTEPEC",15.922808,-97.271351,"Not protected","1","1.912107494","0","0","224","1.912107494","9.375","17.92600776",c(-97.271351, 15.922808)
538,"Yucatan Peninsula","QUINTANA_ROO","COZUMEL","PLAYA_CORONA",20.43543799,-87.0029211,"Into MPA","1","3.053376401","2.586206897","1","394","5.639583297","6.875","38.77213517",c(-87.0029211, 20.43543799)
539,"Northwest Mexico","BAJA_CALIFORNIA","ENSENADA","PLAYA_ENSENADA",31.852123,-116.619291,"Not protected","1","3.639164541","0.689655172","3","5","4.328819714","8.75","37.87717249",c(-116.619291, 31.852123)
540,"Mexican Pacific","OAXACA","PUERTO_ANGEL","PLAYA_ESTACAHUITE",15.668623,-96.481658,"Not protected","2","3.592129179","0.172413793","1","68","3.764542972","6.25","23.52839358",c(-96.481658, 15.668623)
541,"Northwest Mexico","NAYARIT","ISLA_ISABEL","PLAYA_IGUANA",21.841368,-105.884436,"Not protected","2","1.559259451","0","0","195","1.559259451","4.375","6.821760096",c(-105.884436, 21.841368)
542,"Mexican Pacific","OAXACA","PUERTO_ANGEL","PLAYA_LA_BOQUILLA",15.683176,-96.464503,"Not protected","NA","NA","NA","NA","NA","NA","NA","NA",c(-96.464503, 15.683176)
543,"Gulf of Mexico","TAMAULIPAS","MELCHOR_OCAMPO","PLAYA_MIRAMAR",22.351904,-97.82165,"Not protected","NA","NA","NA","NA","NA","NA","NA","NA",c(-97.82165, 22.351904)
544,"Northwest Mexico","SINALOA","MAZATLAN","PLAYA_NORTE",23.208607,-106.424038,"Not protected","NA","NA","NA","NA","NA","NA","NA","NA",c(-106.424038, 23.208607)
545,"Northwest Mexico","SONORA","PUERTO_PENASCO","PLAYA_ORO",28.73784167,-112.3032333,"Not protected","3","1.678997658","0","0","143","1.678997658","3.125","5.246867681",c(-112.3032333, 28.73784167)
546,"Mexican Pacific","OAXACA","PUERTO_ANGEL","PLAYA_PANTEON",15.66485,-96.495376,"Not protected","1","4.095548436","0.172413793","1","68","4.26796223","6.25","26.67476393",c(-96.495376, 15.66485)
547,"Northwest Mexico","BAJA_CALIFORNIA SUR","CABO_PULMO","PLAYA_SIRENAS",23.403087,-109.415109,"Not take zone","22","2.970875","0.172413793","0","117","3.143288793","4.375","13.75188847",c(-109.415109, 23.403087)
548,"Yucatan Peninsula","QUINTANA_ROO","PUERTO_MORELOS","PM_LA_PARED",20.825152,-86.876195,"Into MPA","2","3.4107936","0.517241379","3","71","3.928034979","7.5","29.46026234",c(-86.876195, 20.825152)
549,"Northwest Mexico","BAJA_CALIFORNIA SUR","LOS_CABOS","POINT",22.876063,-109.892588,"Into MPA","3","3.499458101","0.172413793","3","17","3.671871894","9.375","34.42379901",c(-109.892588, 22.876063)
550,"Yucatan Peninsula","QUINTANA_ROO","PLAYA_DEL CARMEN","POLO_PROFUNDO",20.66173878,-87.01481938,"Into MPA","1","2.719006792","2.068965517","0","384","4.787972309","8.125","38.90227501",c(-87.01481938, 20.66173878)
551,"Yucatan Peninsula","QUINTANA_ROO","XCALAK","PORTILLA",18.24212115,-87.82898844,"Into MPA","2","3.02998895","0.344827586","1","89","3.374816536","5","16.87408268",c(-87.82898844, 18.24212115)
552,"Yucatan Peninsula","QUINTANA_ROO","XCALAK","POZA",18.26523687,-87.82472752,"Into MPA","2","3.502569427","0.344827586","1","89","3.847397013","5","19.23698507",c(-87.82472752, 18.26523687)
553,"Gulf of Mexico","VERACRUZ","VERACRUZ","POZA_AZUL",19.14365028,-95.80652238,"Not take zone","1","1.955752578","0.689655172","0","302","2.645407751","7.5","19.84055813",c(-95.80652238, 19.14365028)
554,"Gulf of Mexico","VERACRUZ","VERACRUZ","POZA_AZUL_2",19.14307943,-95.80633807,"Not take zone","1","1.955752578","0.689655172","0","302","2.645407751","7.5","19.84055813",c(-95.80633807, 19.14307943)
555,"Gulf of Mexico","VERACRUZ","VERACRUZ","POZA_DE_DUENDES",19.14426747,-95.8113267,"Not take zone","1","1.968469794","0.689655172","0","302","2.658124967","7.5","19.93593725",c(-95.8113267, 19.14426747)
556,"Yucatan Peninsula","QUINTANA_ROO","XCALAK","POZA_RICA",18.39754584,-87.76159738,"Not take zone","2","2.153076349","0.344827586","1","409","2.497903936","5","12.48951968",c(-87.76159738, 18.39754584)
557,"Yucatan Peninsula","QUINTANA_ROO","XCALAK","POZETA",18.25354905,-87.82734679,"Into MPA","2","3.195080004","0.344827586","1","89","3.53990759","5","17.69953795",c(-87.82734679, 18.25354905)
558,"Northwest Mexico","SONORA","PUERTO_PENASCO","PP_ROCKY_POINT",31.306477,-113.544962,"Not protected","NA","NA","NA","NA","NA","NA","NA","NA",c(-113.544962, 31.306477)
559,"Mexican Pacific","GUERRERO","IXTAPA","PRETIL",17.62230179,-101.5515897,"Not protected","NA","NA","NA","NA","NA","NA","NA","NA",c(-101.5515897, 17.62230179)
560,"Northwest Mexico","BAJA_CALIFORNIA","ENSENADA","PRIMO_TAPIA",32.1561149,-116.9155076,"Not protected","1","2.299850137","0.344827586","3","42","2.644677723","4.375","11.57046504",c(-116.9155076, 32.1561149)
561,"Yucatan Peninsula","QUINTANA_ROO","ISLA_MUJERES","PUENTES_PAILAS_REEF",21.28071823,-86.75650126,"Into MPA","3","2.634245878","4.310344828","3","24","6.944590706","9.375","65.10553787",c(-86.75650126, 21.28071823)
562,"Gulf of Mexico","VERACRUZ","VERACRUZ","PUERTA_DE_DUENDES",19.14132267,-95.80804767,"Not take zone","1","1.968469794","0.689655172","0","302","2.658124967","7.5","19.93593725",c(-95.80804767, 19.14132267)
563,"Northwest Mexico","BAJA_CALIFORNIA","ENSENADA","PUERTECITOS",30.22925088,-114.6021407,"Not protected","1","1.135517333","0","3","79","1.135517333","5","5.677586665",c(-114.6021407, 30.22925088)
564,"Mexican Pacific","OAXACA","PUERTO_ESCONDIDO","PUERTO_ANGELITO",15.857267,-97.073054,"Not protected","1","4.67340721","0.344827586","0","224","5.018234796","9.375","47.04595122",c(-97.073054, 15.857267)
565,"Northwest Mexico","BAJA_CALIFORNIA","TIJUANA","PUERTO_CUEVA",32.41389788,-117.2419269,"Into MPA","6","2.072017809","0.172413793","2","36","2.244431602","7.5","16.83323701",c(-117.2419269, 32.41389788)
566,"Northwest Mexico","BAJA_CALIFORNIA","TIJUANA","PUKEY_PONT",32.44763124,-117.2983268,"Into MPA","3","1.887390985","0","2","36","1.887390985","7.5","14.15543239",c(-117.2983268, 32.44763124)
567,"Northwest Mexico","BAJA_CALIFORNIA SUR","MULEGE","PUNTA_ABREOJOS",26.7043995,-113.5722266,"Into MPA","1","3.595517937","0.344827586","0","112","3.940345523","1.875","7.388147856",c(-113.5722266, 26.7043995)
568,"Northwest Mexico","BAJA_CALIFORNIA SUR","MULEGE","PUNTA_AGUJAS",26.88518718,-111.7949242,"Not protected","1","2.1214738","0.344827586","0","137","2.466301387","4.375","10.79006857",c(-111.7949242, 26.88518718)
569,"Northwest Mexico","BAJA_CALIFORNIA SUR","LA_PAZ","PUNTA_ALTA",25.01386461,-110.7561692,"Not protected","1","2.246144736","0.172413793","0","132","2.418558529","1.25","3.023198161",c(-110.7561692, 25.01386461)
570,"Northwest Mexico","BAJA_CALIFORNIA SUR","LA_PAZ","PUNTA_AMORTAJJADO",24.94376574,-110.6560693,"Not protected","1","2.62234235","0.344827586","0","132","2.967169936","1.25","3.70896242",c(-110.6560693, 24.94376574)
571,"Gulf of Mexico","VERACRUZ","VERACRUZ","PUNTA_ANEGADA",19.14128426,-95.79773407,"Into MPA","1","1.931145769","0.344827586","0","302","2.275973355","7.5","17.06980016",c(-95.79773407, 19.14128426)
572,"Northwest Mexico","BAJA_CALIFORNIA SUR","LORETO","PUNTA_ANITAS",27.60109667,-112.4446273,"Into MPA","1","1.88485865","0","1","81","1.88485865","1.875","3.534109968",c(-112.4446273, 27.60109667)
573,"Northwest Mexico","BAJA_CALIFORNIA SUR","LA_PAZ","PUNTA_ARENA",24.90735966,-110.6466669,"Not protected","1","2.658971795","0.344827586","0","132","3.003799381","1.25","3.754749226",c(-110.6466669, 24.90735966)
574,"Northwest Mexico","BAJA_CALIFORNIA SUR","LOS_CABOS","PUNTA_ARENA_CB",23.560218,-109.456169,"Not protected","1","2.195955456","0.344827586","2","60","2.540783043","3.75","9.52793641",c(-109.456169, 23.560218)
575,"Northwest Mexico","BAJA_CALIFORNIA SUR","LA_PAZ","PUNTA_ARENAS",24.045807,-109.825966,"Not protected","3","2.576924821","0.172413793","0","120","2.749338614","5","13.74669307",c(-109.825966, 24.045807)
576,"Mexican Pacific","OAXACA","HUATULCO","PUNTA_ARENAS",15.77018664,-96.07243244,"Not protected","11","2.724880213","0.344827586","3","40","3.069707799","8.75","26.85994324",c(-96.07243244, 15.77018664)
577,"Northwest Mexico","BAJA_CALIFORNIA","BAHIA DE LOS ANGELES","PUNTA_ASAMBLEA",29.47016459,-113.8269841,"Not protected","1","1.317427188","0","2","140","1.317427188","5","6.587135938",c(-113.8269841, 29.47016459)
578,"Northwest Mexico","BAJA_CALIFORNIA","ENSENADA","PUNTA_BAJA",29.94542977,-115.8165134,"Not protected","1","1.867985553","0","2","96","1.867985553","0","0",c(-115.8165134, 29.94542977)
579,"Northwest Mexico","BAJA_CALIFORNIA SUR","LORETO","PUNTA_BAJA",25.80821662,-111.2003943,"Into MPA","1","2.349461937","0.172413793","3","35","2.52187573","4.375","11.03320632",c(-111.2003943, 25.80821662)
580,"Northwest Mexico","BAJA_CALIFORNIA SUR","MULEGE","PUNTA_BAJA_1",27.71271841,-112.6437028,"Into MPA","1","1.497046831","0","1","81","1.497046831","1.875","2.806962807",c(-112.6437028, 27.71271841)
581,"Northwest Mexico","BAJA_CALIFORNIA SUR","MULEGE","PUNTA_BAJA_2",27.58364585,-112.3971191,"Into MPA","1","2.026197791","0.172413793","1","81","2.198611584","1.875","4.12239672",c(-112.3971191, 27.58364585)
582,"Northwest Mexico","BAJA_CALIFORNIA SUR","LORETO","PUNTA_BALANDRA",26.01624812,-111.1728923,"Into MPA","5","2.125080688","0.172413793","3","63","2.297494481","7.5","17.23120861",c(-111.1728923, 26.01624812)
583,"Northwest Mexico","BAJA_CALIFORNIA SUR","LORETO","PUNTA_BALLENA",25.51117074,-110.9924304,"Not protected","1","2.484146792","0.172413793","0","133","2.656560585","1.25","3.320700731",c(-110.9924304, 25.51117074)
584,"Northwest Mexico","BAJA_CALIFORNIA SUR","MULEGE","PUNTA_BALLENAS",27.62532045,-112.4872731,"Into MPA","1","1.776164033","0","1","81","1.776164033","1.875","3.330307561",c(-112.4872731, 27.62532045)
585,"Northwest Mexico","BAJA_CALIFORNIA","ENSENADA","PUNTA_BANDA",31.75008073,-116.7335497,"Not protected","2","2.500585035","0.689655172","0","94","3.190240208","4.375","13.95730091",c(-116.7335497, 31.75008073)
586,"Northwest Mexico","BAJA_CALIFORNIA SUR","LOS_CABOS","PUNTA_BELLA",22.995487,-109.717363,"Not protected","2","2.488684002","0.172413793","3","23","2.661097795","9.375","24.94779183",c(-109.717363, 22.995487)
587,"Northwest Mexico","BAJA_CALIFORNIA SUR","LORETO","PUNTA_BLANCA",25.06028487,-110.8243674,"Not protected","1","1.964084063","0.172413793","0","132","2.136497856","1.25","2.67062232",c(-110.8243674, 25.06028487)
588,"Northwest Mexico","BAJA_CALIFORNIA","ENSENADA","PUNTA_BLANCO",29.09892659,-114.709112,"Not protected","1","1.435585698","0","0","97","1.435585698","0","0",c(-114.709112, 29.09892659)
589,"Northwest Mexico","BAJA_CALIFORNIA","BAHIA DE LOS ANGELES","PUNTA_BLUFF",29.63020055,-114.0557793,"Not protected","1","1.113366679","0","2","140","1.113366679","5","5.566833397",c(-114.0557793, 29.63020055)
590,"Northwest Mexico","NAYARIT","ISLA_ISABEL","PUNTA_BOBOS",21.842144,-105.879748,"Not protected","2","1.565419373","0","0","195","1.565419373","4.375","6.848709756",c(-105.879748, 21.842144)
591,"Northwest Mexico","BAJA_CALIFORNIA SUR","LORETO","PUNTA_BOTELLA",25.27178575,-110.9265694,"Not protected","1","1.689728511","0","0","133","1.689728511","1.25","2.112160639",c(-110.9265694, 25.27178575)
592,"Northwest Mexico","BAJA_CALIFORNIA SUR","MULEGE","PUNTA_BUFELLERO",27.27357319,-112.0843512,"Not protected","1","2.391613891","0.517241379","1","45","2.908855271","3.125","9.090172721",c(-112.0843512, 27.27357319)
593,"Northwest Mexico","BAJA_CALIFORNIA","ENSENADA","PUNTA_CAMACHO",29.44375041,-115.2068446,"Not protected","1","2.442492452","0.172413793","0","97","2.614906245","0","0",c(-115.2068446, 29.44375041)
594,"Yucatan Peninsula","QUINTANA_ROO","CANCUN","PUNTA_CANC<U+FFFD>N",21.13437189,-86.73910774,"Into MPA","2","3.898950367","4.827586207","1","379","8.726536574","6.875","59.99493895",c(-86.73910774, 21.13437189)
595,"Northwest Mexico","BAJA_CALIFORNIA","BAHIA DE LOS ANGELES","PUNTA_CANDELERO",29.41406027,-113.6032965,"Into MPA","1","1.44878418","0","2","140","1.44878418","5","7.243920902",c(-113.6032965, 29.41406027)
596,"Northwest Mexico","BAJA_CALIFORNIA SUR","LORETO","PUNTA_CANDELEROS",25.72799981,-111.2334226,"Into MPA","1","2.290886053","0.172413793","3","35","2.463299846","4.375","10.77693683",c(-111.2334226, 25.72799981)
597,"Yucatan Peninsula","QUINTANA_ROO","MAHAHUAL","PUNTA_CANECAXH_NORTE",18.69770668,-87.71260835,"Into MPA","1","3.389038844","0.517241379","1","408","3.906280224","7.5","29.29710168",c(-87.71260835, 18.69770668)
598,"Yucatan Peninsula","QUINTANA_ROO","MAHAHUAL","PUNTA_CANECAXH_SUR",18.68535918,-87.7165586,"Into MPA","1","3.087750371","0.517241379","1","408","3.60499175","7.5","27.03743813",c(-87.7165586, 18.68535918)
599,"Northwest Mexico","BAJA_CALIFORNIA","ENSENADA","PUNTA_CANOAS",29.43446963,-115.2010992,"Not protected","1","2.501333612","0.172413793","0","97","2.673747405","0","0",c(-115.2010992, 29.43446963)
600,"Northwest Mexico","BAJA_CALIFORNIA SUR","MULEGE","PUNTA_CANTINA",27.66132532,-114.9019176,"Into MPA","1","3.003819677","0.344827586","1","105","3.348647263","1.875","6.278713618",c(-114.9019176, 27.66132532)
601,"Yucatan Peninsula","QUINTANA_ROO","COZUMEL","PUNTA_CELARIN",20.267318,-86.987403,"Not take zone","6","2.22396649","1.206896552","1","390","3.430863042","6.25","21.44289401",c(-86.987403, 20.267318)
602,"Yucatan Peninsula","QUINTANA_ROO","MAHAHUAL","PUNTA_CHANGUAY",18.83765407,-87.65119693,"Into MPA","NA","NA","NA","NA","NA","NA","NA","NA",c(-87.65119693, 18.83765407)
603,"Yucatan Peninsula","QUINTANA_ROO","COZUMEL","PUNTA_CHIQUEIROS",20.342256,-86.899039,"Into MPA","5","1.866398045","2.068965517","1","390","3.935363562","6.25","24.59602226",c(-86.899039, 20.342256)
604,"Northwest Mexico","BAJA_CALIFORNIA SUR","MULEGE","PUNTA_CHIVATO",27.06711478,-111.9419438,"Not protected","1","2.035864117","0.344827586","0","137","2.380691704","4.375","10.4155262",c(-111.9419438, 27.06711478)
605,"Northwest Mexico","BAJA_CALIFORNIA SUR","MULEGE","PUNTA_CLAMBEY",27.61449779,-114.8426376,"Into MPA","1","2.861748664","0.344827586","0","106","3.20657625","1.25","4.008220312",c(-114.8426376, 27.61449779)
606,"Northwest Mexico","BAJA_CALIFORNIA SUR","LORETO","PUNTA_COCHI",25.2407918,-110.9377991,"Not protected","1","1.642583162","0","0","133","1.642583162","1.25","2.053228953",c(-110.9377991, 25.2407918)
607,"Northwest Mexico","BAJA_CALIFORNIA","BAHIA DE LOS ANGELES","PUNTA_COLORADA",28.98605242,-113.1099265,"Into MPA","1","1.557716445","0","2","140","1.557716445","5","7.788582226",c(-113.1099265, 28.98605242)
608,"Northwest Mexico","BAJA_CALIFORNIA SUR","LA_PAZ","PUNTA_COLORADA",25.01844381,-110.5719301,"Not protected","1","1.673430491","0.172413793","0","132","1.845844285","1.25","2.307305356",c(-110.5719301, 25.01844381)
609,"Northwest Mexico","BAJA_CALIFORNIA SUR","LORETO","PUNTA_COLORADA",26.37094823,-111.416248,"Not protected","5","1.79883907","0","0","134","1.79883907","1.25","2.248548837",c(-111.416248, 26.37094823)
610,"Northwest Mexico","BAJA_CALIFORNIA SUR","LOS_CABOS","PUNTA_COLORADA_CB",23.587959,-109.503708,"Not protected","1","2.492985476","0.517241379","2","60","3.010226855","3.75","11.28835071",c(-109.503708, 23.587959)
611,"Northwest Mexico","BAJA_CALIFORNIA SUR","MULEGE","PUNTA_CONCEPCION",26.90296133,-111.8150549,"Not protected","1","2.207223768","0.344827586","0","137","2.552051354","4.375","11.16522467",c(-111.8150549, 26.90296133)
612,"Northwest Mexico","BAJA_CALIFORNIA","ENSENADA","PUNTA_CONO",28.96299066,-114.5889417,"Not protected","1","1.503284406","0","2","98","1.503284406","1.25","1.879105508",c(-114.5889417, 28.96299066)
613,"Northwest Mexico","BAJA_CALIFORNIA SUR","LA_PAZ","PUNTA_COYOTE",24.70681743,-110.6876076,"Not protected","1","2.853988152","0.172413793","0","131","3.026401945","1.25","3.783002431",c(-110.6876076, 24.70681743)
614,"Northwest Mexico","BAJA_CALIFORNIA SUR","LORETO","PUNTA_COYOTE",25.80972284,-111.2941728,"Into MPA","13","3.426960617","0.172413793","3","35","3.59937441","4.375","15.74726304",c(-111.2941728, 25.80972284)
615,"Northwest Mexico","BAJA_CALIFORNIA SUR","LA_PAZ","PUNTA_COYOTE_2",24.33385026,-110.2288245,"Not protected","1","2.079832829","1.551724138","3","29","3.631556967","5.625","20.42750794",c(-110.2288245, 24.33385026)
616,"Northwest Mexico","BAJA_CALIFORNIA SUR","MULEGE","PUNTA_COYOTITOS",27.64551596,-112.5466664,"Into MPA","1","1.667102734","0","1","81","1.667102734","1.875","3.125817626",c(-112.5466664, 27.64551596)
617,"Northwest Mexico","BAJA_CALIFORNIA SUR","MULEGE","PUNTA_CUEVITAS",27.44004455,-112.3109067,"Into MPA","1","3.911419301","0.517241379","1","81","4.42866068","1.875","8.303738775",c(-112.3109067, 27.44004455)
618,"Yucatan Peninsula","QUINTANA_ROO","COZUMEL","PUNTA_DALILA",20.340305,-87.023274,"Into MPA","65","3.064837305","1.896551724","1","390","4.96138903","6.25","31.00868143",c(-87.023274, 20.340305)
619,"Northwest Mexico","BAJA_CALIFORNIA","ENSENADA","PUNTA_DE_ENMEDIO",29.40542698,-115.1269695,"Not protected","1","3.397045683","0.172413793","0","97","3.569459476","0","0",c(-115.1269695, 29.40542698)
620,"Northwest Mexico","BAJA_CALIFORNIA SUR","MULEGE","PUNTA_DELGADILLO",26.6623664,-113.1335513,"Into MPA","1","1.555520976","0","0","112","1.555520976","1.875","2.916601829",c(-113.1335513, 26.6623664)
621,"Northwest Mexico","BAJA_CALIFORNIA","BAHIA DE LOS ANGELES","PUNTA_DIABLO_ANGEL_GUARDA",29.289891,-113.186531,"Into MPA","1","1.226170464","0","2","140","1.226170464","5","6.130852319",c(-113.186531, 29.289891)
622,"Northwest Mexico","BAJA_CALIFORNIA","BAHIA DE LOS ANGELES","PUNTA_DON_JUAN",28.93893363,-113.3819786,"Into MPA","1","2.070719327","0.172413793","2","140","2.24313312","5","11.2156656",c(-113.3819786, 28.93893363)
623,"Gulf of Mexico","VERACRUZ","VERACRUZ","PUNTA_DORAD0",19.22876667,-96.0625,"Into MPA","1","2.549912465","1.724137931","3","6","4.274050396","7.5","32.05537797",c(-96.0625, 19.22876667)
624,"Northwest Mexico","BAJA_CALIFORNIA SUR","LORETO","PUNTA_EL_BAJO",26.10096671,-111.3218477,"Into MPA","1","2.401522995","0.172413793","3","63","2.573936788","7.5","19.30452591",c(-111.3218477, 26.10096671)
625,"Northwest Mexico","BAJA_CALIFORNIA","ENSENADA","PUNTA_EL_DESCANSO",32.25988694,-117.0489231,"Not protected","1","2.25183687","0.172413793","2","36","2.424250663","7.5","18.18187997",c(-117.0489231, 32.25988694)
626,"Northwest Mexico","BAJA_CALIFORNIA SUR","MULEGE","PUNTA_EL_FRANCES",27.89499106,-112.7599733,"Into MPA","1","1.305191839","0","1","81","1.305191839","1.875","2.447234699",c(-112.7599733, 27.89499106)
627,"Yucatan Peninsula","QUINTANA_ROO","MAHAHUAL","PUNTA_EL_PLACER_NORTE",18.90566413,-87.63054233,"Into MPA","NA","NA","NA","NA","NA","NA","NA","NA",c(-87.63054233, 18.90566413)
628,"Yucatan Peninsula","QUINTANA_ROO","MAHAHUAL","PUNTA_EL_PLACER_SUR",18.85593038,-87.64038506,"Into MPA","NA","NA","NA","NA","NA","NA","NA","NA",c(-87.64038506, 18.85593038)
629,"Northwest Mexico","BAJA_CALIFORNIA SUR","MULEGE","PUNTA_EUGENIA",27.86330876,-115.090571,"Into MPA","1","1.928743135","0","2","37","1.928743135","0","0",c(-115.090571, 27.86330876)
630,"Northwest Mexico","BAJA_CALIFORNIA","ENSENADA","PUNTA_FINAL",29.79595991,-114.2626516,"Not protected","1","0.972942219","0","2","140","0.972942219","5","4.864711094",c(-114.2626516, 29.79595991)
631,"Northwest Mexico","BAJA_CALIFORNIA SUR","MULEGE","PUNTA_GATO",27.55746927,-112.3532811,"Into MPA","1","2.179471082","0.344827586","1","81","2.524298668","1.875","4.733060003",c(-112.3532811, 27.55746927)
632,"Yucatan Peninsula","QUINTANA_ROO","BANCO_CHINCHORROS","PUNTA_GONZALEZ",18.51285884,-87.44025005,"Into MPA","8","2.140698242","0.172413793","1","406","2.313112035","1.875","4.337085065",c(-87.44025005, 18.51285884)
633,"Gulf of Mexico","VERACRUZ","VERACRUZ","PUNTA_GORDA",19.242096,-96.172044,"Not protected","1","3.895793333","1.034482759","2","18","4.930276091","6.25","30.81422557",c(-96.172044, 19.242096)
634,"Yucatan Peninsula","QUINTANA_ROO","MAHAHUAL","PUNTA_GRUESE",19.08795008,-87.55117878,"Into MPA","1","1.809343047","0","1","405","1.809343047","0.625","1.130839405",c(-87.55117878, 19.08795008)
635,"Yucatan Peninsula","QUINTANA_ROO","MAHAHUAL","PUNTA_HERRADURA",18.62369575,-87.71967576,"Into MPA","1","2.40925539","0.517241379","1","408","2.926496769","7.5","21.94872577",c(-87.71967576, 18.62369575)
636,"Yucatan Peninsula","QUINTANA_ROO","MAHAHUAL","PUNTA_HERRERO",19.30808161,-87.41905975,"Into MPA","1","3.053173841","0.344827586","1","405","3.398001427","0.625","2.123750892",c(-87.41905975, 19.30808161)
637,"Northwest Mexico","BAJA_CALIFORNIA SUR","MULEGE","PUNTA_HORNITOS",26.87270724,-111.7729808,"Not protected","1","2.033261526","0.344827586","0","137","2.378089112","4.375","10.40413987",c(-111.7729808, 26.87270724)
638,"Northwest Mexico","BAJA_CALIFORNIA SUR","COMONDU","PUNTA_HUGHES",24.75037264,-112.2745916,"Not protected","1","2.089939063","0.172413793","1","77","2.262352856","6.25","14.13970535",c(-112.2745916, 24.75037264)
639,"Yucatan Peninsula","QUINTANA_ROO","BANCO_CHINCHORROS","PUNTA_ISABEL",18.60600731,-87.42202657,"Into MPA","8","2.29229762","0.172413793","1","406","2.464711413","1.875","4.621333899",c(-87.42202657, 18.60600731)
640,"Northwest Mexico","BAJA_CALIFORNIA SUR","LA_PAZ","PUNTA_LA_COCINA",24.9119317,-110.6331409,"Not protected","1","2.562288724","0.344827586","0","132","2.90711631","1.25","3.633895388",c(-110.6331409, 24.9119317)
641,"Northwest Mexico","SONORA","GUAYMAS","PUNTA_LA_MANGA",27.97454955,-111.1333819,"Not protected","6","3.62486743","0.689655172","1","147","4.314522602","5.625","24.26918964",c(-111.1333819, 27.97454955)
642,"Northwest Mexico","BAJA_CALIFORNIA SUR","MULEGE","PUNTA_LA_PIEDRITA",26.74803403,-111.8729316,"Not protected","1","3.163849343","0.344827586","0","136","3.508676929","1.875","6.578769242",c(-111.8729316, 26.74803403)
643,"Northwest Mexico","BAJA_CALIFORNIA SUR","LORETO","PUNTA_LAGUNA",25.18558281,-110.8953397,"Not protected","1","1.659427465","0","0","132","1.659427465","1.25","2.074284331",c(-110.8953397, 25.18558281)
644,"Northwest Mexico","BAJA_CALIFORNIA SUR","MULEGE","PUNTA_LANGOSTA",27.13695401,-112.0663589,"Not protected","1","2.611660672","0.344827586","1","45","2.956488258","3.125","9.239025808",c(-112.0663589, 27.13695401)
645,"Northwest Mexico","BAJA_CALIFORNIA SUR","LA_PAZ","PUNTA_LAS_NAVAJAS",24.39957381,-110.32673,"Into MPA","1","2.234389048","0.689655172","3","29","2.924044221","5.625","16.44774874",c(-110.32673, 24.39957381)
646,"Northwest Mexico","BAJA_CALIFORNIA","ENSENADA","PUNTA_LOBERA",29.41351059,-115.1572508,"Not protected","1","2.974167168","0.172413793","0","97","3.146580962","0","0",c(-115.1572508, 29.41351059)
647,"Northwest Mexico","BAJA_CALIFORNIA SUR","LA_PAZ","PUNTA_LOBOS",24.475421,-110.289305,"Not take zone","59","1.926898163","0","3","29","1.926898163","5.625","10.83880217",c(-110.289305, 24.475421)
648,"Northwest Mexico","BAJA_CALIFORNIA SUR","LORETO","PUNTA_LOBOS",26.06222909,-111.057633,"Into MPA","10","1.776322472","0","3","63","1.776322472","7.5","13.32241854",c(-111.057633, 26.06222909)
649,"Northwest Mexico","BAJA_CALIFORNIA SUR","MULEGE","PUNTA_LOBOS_CD",26.97012026,-114.0029987,"Into MPA","1","2.92220906","0.344827586","0","110","3.267036646","1.25","4.083795807",c(-114.0029987, 26.97012026)
650,"Northwest Mexico","BAJA_CALIFORNIA SUR","LORETO","PUNTA_LOS_PATOS",26.13326471,-111.2622746,"Not protected","5","2.144422081","0.172413793","3","63","2.316835875","7.5","17.37626906",c(-111.2622746, 26.13326471)
651,"Northwest Mexico","BAJA_CALIFORNIA SUR","COMONDU","PUNTA_MAGDALENA",24.60624871,-112.1631344,"Not protected","1","1.960671397","0.172413793","1","77","2.13308519","6.25","13.33178244",c(-112.1631344, 24.60624871)
652,"Northwest Mexico","BAJA_CALIFORNIA SUR","MULEGE","PUNTA_MALCOMB",26.70378061,-113.2743227,"Into MPA","1","1.7963636","0","0","112","1.7963636","1.875","3.368181749",c(-113.2743227, 26.70378061)
653,"Northwest Mexico","BAJA_CALIFORNIA SUR","LORETO","PUNTA_MANGLE",26.28323591,-111.3624287,"Not protected","1","1.749136714","0","3","63","1.749136714","7.5","13.11852536",c(-111.3624287, 26.28323591)
654,"Northwest Mexico","BAJA_CALIFORNIA","ENSENADA","PUNTA_MARIA",28.92299491,-114.5413569,"Not protected","1","1.585520545","0","2","98","1.585520545","1.25","1.981900681",c(-114.5413569, 28.92299491)
655,"Northwest Mexico","BAJA_CALIFORNIA SUR","MULEGE","PUNTA_MARIA",26.85098391,-111.7417078,"Not protected","1","1.928041512","0.172413793","0","137","2.100455305","4.375","9.189491959",c(-111.7417078, 26.85098391)
656,"Northwest Mexico","BAJA_CALIFORNIA SUR","LA_PAZ","PUNTA_MARQUEZ",24.06897702,-111.0162008,"Not protected","1","1.048909778","0","0","116","1.048909778","5","5.244548892",c(-111.0162008, 24.06897702)
657,"Northwest Mexico","BAJA_CALIFORNIA","ENSENADA","PUNTA_MARTIR",28.375353,-112.316013,"Not take zone","2","1.374292319","0","1","144","1.374292319","5","6.871461594",c(-112.316013, 28.375353)
658,"Northwest Mexico","BAJA_CALIFORNIA SUR","LA_PAZ","PUNTA_MECHUDO",24.8078272,-110.6559213,"Not protected","1","2.555410112","0.344827586","0","131","2.900237699","1.25","3.625297123",c(-110.6559213, 24.8078272)
659,"Northwest Mexico","BAJA_CALIFORNIA SUR","LORETO","PUNTA_MERCENARIOS",26.37467865,-111.4035496,"Not protected","1","1.801946112","0","0","134","1.801946112","1.25","2.252432639",c(-111.4035496, 26.37467865)
660,"Northwest Mexico","JALISCO","PUERTO_VALLARTA","PUNTA_MISMALOYA",19.10608135,-104.3961239,"Not protected","2","4.077486187","0.689655172","1","208","4.767141359","8.125","38.73302355",c(-104.3961239, 19.10608135)
661,"Northwest Mexico","BAJA_CALIFORNIA SUR","LORETO","PUNTA_MONTALVA",25.21227612,-110.9186804,"Not protected","1","1.608782111","0","0","132","1.608782111","1.25","2.010977639",c(-110.9186804, 25.21227612)
662,"Yucatan Peninsula","QUINTANA_ROO","COZUMEL","PUNTA_MORENA",20.397148,-86.855032,"Into MPA","23","1.719902341","2.24137931","1","390","3.961281651","6.25","24.75801032",c(-86.855032, 20.397148)
663,"Yucatan Peninsula","QUINTANA_ROO","PLAYA_DEL CARMEN","PUNTA_MOROMA",20.865368,-86.787227,"Into MPA","16","2.396139432","0.689655172","2","381","3.085794605","8.75","27.00070279",c(-86.787227, 20.865368)
664,"Northwest Mexico","BAJA_CALIFORNIA SUR","MULEGE","PUNTA_MORRO_HERMOSO",27.51839272,-114.7306441,"Into MPA","1","2.020466175","0.172413793","0","106","2.192879968","1.25","2.74109996",c(-114.7306441, 27.51839272)
665,"Yucatan Peninsula","QUINTANA_ROO","MAHAHUAL","PUNTA_MOSQUITERO",19.22692575,-87.51658479,"Into MPA","1","2.288928858","0.344827586","1","405","2.633756444","0.625","1.646097777",c(-87.51658479, 19.22692575)
666,"Yucatan Peninsula","QUINTANA_ROO","CANCUN","PUNTA_NEGRA",21.12798951,-86.73122104,"Into MPA","6","3.507230569","4.827586207","1","379","8.334816776","6.875","57.30186533",c(-86.73122104, 21.12798951)
667,"Yucatan Peninsula","QUINTANA_ROO","CANCUN","PUNTA_NIZUC",21.02839367,-86.78816223,"Into MPA","6","3.89876897","4.827586207","1","380","8.726355177","8.75","76.35560779",c(-86.78816223, 21.02839367)
668,"Northwest Mexico","BAJA_CALIFORNIA","ENSENADA","PUNTA_NORTE",28.33706434,-115.1876262,"Into MPA","1","1.711759192","0","2","37","1.711759192","0","0",c(-115.1876262, 28.33706434)
669,"Northwest Mexico","SONORA","GUAYMAS","PUNTA_NORTE",27.98511699,-111.3894367,"Not protected","9","1.854193833","0","1","147","1.854193833","5.625","10.42984031",c(-111.3894367, 27.98511699)
670,"Northwest Mexico","BAJA_CALIFORNIA SUR","LA_PAZ","PUNTA_OSTIONES",25.03495831,-110.7159842,"Not protected","1","2.220699504","0.172413793","0","132","2.393113297","1.25","2.991391621",c(-110.7159842, 25.03495831)
671,"Northwest Mexico","BAJA_CALIFORNIA SUR","LOS_CABOS","PUNTA_PALMILLA",23.00791,-109.71075,"Not protected","1","2.589855489","0.172413793","3","23","2.762269282","9.375","25.89627452",c(-109.71075, 23.00791)
672,"Northwest Mexico","BAJA_CALIFORNIA","ENSENADA","PUNTA_PAULITO",28.07336119,-112.7816534,"Not protected","1","1.182986377","0","1","81","1.182986377","1.875","2.218099457",c(-112.7816534, 28.07336119)
673,"Mexican Pacific","GUERRERO","IXTAPA","PUNTA_PEDREGOSA",17.615463,-101.540779,"Not protected","1","3.199420876","0.862068966","1","215","4.061489842","8.75","35.53803612",c(-101.540779, 17.615463)
674,"Northwest Mexico","SONORA","GUAYMAS","PUNTA_PELICANO",27.965302,-111.385039,"Not protected","9","1.85789789","0","1","147","1.85789789","5.625","10.45067563",c(-111.385039, 27.965302)
675,"Northwest Mexico","BAJA_CALIFORNIA SUR","COMONDU","PUNTA_PEQUE<U+FFFD>A",26.22971163,-112.4880503,"Not protected","1","2.946945499","0.172413793","0","113","3.119359292","0.625","1.949599557",c(-112.4880503, 26.22971163)
676,"Northwest Mexico","BAJA_CALIFORNIA SUR","LORETO","PUNTA_PERICO",25.99559665,-111.0664121,"Into MPA","1","1.689573839","0","3","35","1.689573839","4.375","7.391885547",c(-111.0664121, 25.99559665)
677,"Northwest Mexico","BAJA_CALIFORNIA SUR","LA_PAZ","PUNTA_PERICOS",24.015304,-109.805971,"Not protected","3","3.120823522","0.172413793","0","120","3.293237315","5","16.46618658",c(-109.805971, 24.015304)
678,"Northwest Mexico","BAJA_CALIFORNIA SUR","LA_PAZ","PUNTA_PESCADERO",23.80199867,-109.6841011,"Not protected","1","2.199765345","0.344827586","1","119","2.544592931","6.25","15.90370582",c(-109.6841011, 23.80199867)
679,"Northwest Mexico","BAJA_CALIFORNIA SUR","LOS_CABOS","PUNTA_POZO_DE_COLA",23.017842,-110.100164,"Not protected","1","1.818666584","0","3","17","1.818666584","9.375","17.04999923",c(-110.100164, 23.017842)
680,"Northwest Mexico","BAJA_CALIFORNIA SUR","LORETO","PUNTA_PRIETA",25.29096343,-110.9311371,"Not protected","1","1.726915294","0","0","133","1.726915294","1.25","2.158644117",c(-110.9311371, 25.29096343)
681,"Northwest Mexico","BAJA_CALIFORNIA SUR","MULEGE","PUNTA_PRIETA",27.01286424,-114.0509078,"Into MPA","1","3.910490024","0.344827586","1","109","4.255317611","0.625","2.659573507",c(-114.0509078, 27.01286424)
682,"Northwest Mexico","BAJA_CALIFORNIA SUR","MULEGE","PUNTA_PRIETA_2",27.51744028,-112.3216571,"Into MPA","1","2.45360386","0.517241379","1","81","2.970845239","1.875","5.570334824",c(-112.3216571, 27.51744028)
683,"Northwest Mexico","BAJA_CALIFORNIA","ENSENADA","PUNTA_PROA",28.922514,-118.224804,"Into MPA","2","0.504552652","0","1","95","0.504552652","1.25","0.630690815",c(-118.224804, 28.922514)
684,"Northwest Mexico","BAJA_CALIFORNIA SUR","LORETO","PUNTA_PUERTECITO",25.69992727,-111.2104306,"Not protected","1","2.13038062","0.172413793","3","35","2.302794413","4.375","10.07472556",c(-111.2104306, 25.69992727)
685,"Northwest Mexico","BAJA_CALIFORNIA SUR","LORETO","PUNTA_PULPUTO",26.51895887,-111.4225418,"Not protected","1","2.205996271","0.344827586","0","134","2.550823858","1.25","3.188529822",c(-111.4225418, 26.51895887)
686,"Yucatan Peninsula","QUINTANA_ROO","MAHAHUAL","PUNTA_PULTICO",19.13604736,-87.54756178,"Into MPA","1","1.926723322","0","1","405","1.926723322","0.625","1.204202077",c(-87.54756178, 19.13604736)
687,"Northwest Mexico","BAJA_CALIFORNIA SUR","MULEGE","PUNTA_QUEBRADA",27.738633,-115.0338163,"Into MPA","1","2.053622653","0.344827586","1","105","2.39845024","1.875","4.497094199",c(-115.0338163, 27.738633)
688,"Northwest Mexico","BAJA_CALIFORNIA","ENSENADA","PUNTA_REEF",31.58294399,-116.7021271,"Not protected","1","2.22959407","0.172413793","0","94","2.402007863","4.375","10.5087844",c(-116.7021271, 31.58294399)
689,"Mexican Pacific","GUERRERO","IXTAPA","PUNTA_RISCAL",17.618003,-101.527408,"Not protected","1","2.930907819","0.862068966","1","215","3.792976785","8.75","33.18854687",c(-101.527408, 17.618003)
690,"Northwest Mexico","BAJA_CALIFORNIA","BAHIA DE LOS ANGELES","PUNTA_ROCA",29.194461,-113.1577398,"Into MPA","1","1.314831871","0","2","140","1.314831871","5","6.574159354",c(-113.1577398, 29.194461)
691,"Northwest Mexico","NAYARIT","ISLA_ISABEL","PUNTA_ROCOSA",21.854398,-105.890672,"Not protected","2","1.544802231","0","0","195","1.544802231","4.375","6.75850976",c(-105.890672, 21.854398)
692,"Northwest Mexico","BAJA_CALIFORNIA SUR","MULEGE","PUNTA_ROMPIENTE",27.71357599,-115.0042638,"Into MPA","1","2.205840207","0.344827586","1","105","2.550667793","1.875","4.782502112",c(-115.0042638, 27.71357599)
693,"Northwest Mexico","BAJA_CALIFORNIA","ENSENADA","PUNTA_ROSARITO",28.55445212,-114.1686799,"Not protected","1","2.214084166","0.172413793","2","98","2.38649796","1.25","2.983122449",c(-114.1686799, 28.55445212)
694,"Northwest Mexico","BAJA_CALIFORNIA SUR","MULEGE","PUNTA_SALINA",27.93412963,-112.7624361,"Into MPA","1","1.286748954","0","1","81","1.286748954","1.875","2.412654288",c(-112.7624361, 27.93412963)
695,"Northwest Mexico","BAJA_CALIFORNIA","ENSENADA","PUNTA_SALSIPUEDES",31.979121,-116.841637,"Not protected","3","3.530485952","0.689655172","1","75","4.220141124","3.75","15.82552922",c(-116.841637, 31.979121)
696,"Northwest Mexico","BAJA_CALIFORNIA","ENSENADA","PUNTA_SAN_ANTONIO",29.75396256,-115.7018189,"Not protected","1","3.442375726","0.172413793","2","96","3.614789519","0","0",c(-115.7018189, 29.75396256)
697,"Northwest Mexico","BAJA_CALIFORNIA SUR","LORETO","PUNTA_SAN_ANTONIO",26.54035505,-111.4556606,"Not protected","1","2.416589816","0.344827586","0","134","2.761417402","1.25","3.451771752",c(-111.4556606, 26.54035505)
698,"Northwest Mexico","BAJA_CALIFORNIA SUR","LORETO","PUNTA_SAN_BASILIO",26.39293889,-111.4164801,"Not protected","1","1.851379964","0.172413793","0","134","2.023793757","1.25","2.529742196",c(-111.4164801, 26.39293889)
699,"Northwest Mexico","BAJA_CALIFORNIA","ENSENADA","PUNTA_SAN_CARLOS",28.14783835,-115.1291066,"Into MPA","2","2.242074752","0.172413793","2","37","2.414488545","0","0",c(-115.1291066, 28.14783835)
700,"Northwest Mexico","BAJA_CALIFORNIA","ENSENADA","PUNTA_SAN_CARLOS",29.61259209,-115.5017799,"Not protected","2","1.898108827","0","2","96","1.898108827","0","0",c(-115.5017799, 29.61259209)
701,"Northwest Mexico","BAJA_CALIFORNIA","ENSENADA","PUNTA_SAN_FERNANDO",29.69176811,-115.6215718,"Not protected","1","2.453606288","0.172413793","2","96","2.626020081","0","0",c(-115.6215718, 29.69176811)
702,"Northwest Mexico","BAJA_CALIFORNIA","ENSENADA","PUNTA_SAN_FRANCISQUITO",28.00554612,-112.7692941,"Not protected","1","1.235959093","0","1","81","1.235959093","1.875","2.317423299",c(-112.7692941, 28.00554612)
703,"Northwest Mexico","BAJA_CALIFORNIA SUR","MULEGE","PUNTA_SAN_HIPOLITO",26.97169767,-113.982783,"Into MPA","1","3.394953079","0.344827586","0","110","3.739780665","1.25","4.674725831",c(-113.982783, 26.97169767)
704,"Northwest Mexico","BAJA_CALIFORNIA","ENSENADA","PUNTA_SAN_JOSE",31.45065035,-116.6302232,"Not protected","1","1.79366802","0","0","94","1.79366802","4.375","7.847297588",c(-116.6302232, 31.45065035)
705,"Northwest Mexico","BAJA_CALIFORNIA SUR","MULEGE","PUNTA_SAN_LINO",26.74305569,-111.6227609,"Not protected","1","1.994768097","0.172413793","0","135","2.16718189","2.5","5.417954724",c(-111.6227609, 26.74305569)
706,"Yucatan Peninsula","QUINTANA_ROO","MAHAHUAL","PUNTA_SAN_LORENZO",19.14824716,-87.54146648,"Into MPA","1","1.957450466","0.344827586","1","405","2.302278052","0.625","1.438923782",c(-87.54146648, 19.14824716)
707,"Northwest Mexico","BAJA_CALIFORNIA SUR","LORETO","PUNTA_SAN_MATEO",25.3219839,-110.9443574,"Not protected","1","1.792936873","0","0","133","1.792936873","1.25","2.241171091",c(-110.9443574, 25.3219839)
708,"Northwest Mexico","SONORA","GUAYMAS","PUNTA_SAN_PEDRO",28.0518267,-111.2529969,"Not protected","6","2.1252982","0.344827586","1","147","2.470125787","5.625","13.89445755",c(-111.2529969, 28.0518267)
709,"Northwest Mexico","BAJA_CALIFORNIA SUR","MULEGE","PUNTA_SAN_RAFAEL",27.15414629,-112.1084712,"Not protected","1","2.792405477","0.344827586","1","45","3.137233063","3.125","9.803853322",c(-112.1084712, 27.15414629)
710,"Northwest Mexico","BAJA_CALIFORNIA","ENSENADA","PUNTA_SAN_TOM<U+FFFD>S",31.55963924,-116.7151172,"Not protected","1","2.119816541","0.172413793","0","94","2.292230334","4.375","10.02850771",c(-116.7151172, 31.55963924)
711,"Northwest Mexico","BAJA_CALIFORNIA SUR","MULEGE","PUNTA_SANTA_MARIA",27.36208881,-112.2658136,"Not protected","1","3.167360069","0.517241379","3","38","3.684601448","5.625","20.72588315",c(-112.2658136, 27.36208881)
712,"Northwest Mexico","BAJA_CALIFORNIA SUR","MULEGE","PUNTA_SANTA_ROSA",26.78697273,-111.6633686,"Not protected","1","1.849837883","0","0","135","1.849837883","2.5","4.624594708",c(-111.6633686, 26.78697273)
713,"Northwest Mexico","BAJA_CALIFORNIA","ENSENADA","PUNTA_SANTA_ROSALIA",28.6542693,-114.28249,"Into MPA","1","2.874744162","0.172413793","2","98","3.047157955","1.25","3.808947443",c(-114.28249, 28.6542693)
714,"Northwest Mexico","BAJA_CALIFORNIA SUR","MULEGE","PUNTA_SANTA_TERESA",26.70164475,-111.5584067,"Not protected","1","2.234980117","0.344827586","0","135","2.579807704","2.5","6.449519259",c(-111.5584067, 26.70164475)
715,"Northwest Mexico","BAJA_CALIFORNIA SUR","COMONDU","PUNTA_SANTO_DOMINGO",26.31369605,-112.6807124,"Not protected","1","1.876259525","0.172413793","0","113","2.048673318","0.625","1.280420824",c(-112.6807124, 26.31369605)
716,"Northwest Mexico","BAJA_CALIFORNIA SUR","LA_PAZ","PUNTA_SUR",24.137704,-109.801338,"Not protected","1","2.122303002","0.172413793","0","120","2.294716795","5","11.47358398",c(-109.801338, 24.137704)
717,"Yucatan Peninsula","QUINTANA_ROO","COZUMEL","PUNTA_SUR",20.29617254,-87.02047348,"Not take zone","63","2.533071369","1.379310345","1","390","3.912381714","6.25","24.45238571",c(-87.02047348, 20.29617254)
718,"Yucatan Peninsula","QUINTANA_ROO","ISLA_MUJERES","PUNTA_SUR",21.20109113,-86.70300855,"Into MPA","8","2.886516667","5","3","24","7.886516667","9.375","73.93609375",c(-86.70300855, 21.20109113)
719,"Northwest Mexico","SONORA","GUAYMAS","PUNTA_SUR",27.95142109,-111.3660049,"Not protected","8","1.900068287","0","1","147","1.900068287","5.625","10.68788411",c(-111.3660049, 27.95142109)
720,"Gulf of Mexico","VERACRUZ","VERACRUZ","PUNTA_SUR",19.10097873,-95.92918936,"Into MPA","1","2.553107401","1.724137931","0","301","4.277245332","7.5","32.07933999",c(-95.92918936, 19.10097873)
721,"Mexican Pacific","OAXACA","HUATULCO","PUNTA_TEJON",15.75385798,-96.1067531,"Not protected","11","3.499024161","0.344827586","3","40","3.843851747","8.75","33.63370279",c(-96.1067531, 15.75385798)
722,"Northwest Mexico","BAJA_CALIFORNIA SUR","MULEGE","PUNTA_TEPETATES",27.12192055,-112.0083947,"Not protected","1","2.341171589","0.344827586","1","45","2.685999175","3.125","8.393747423",c(-112.0083947, 27.12192055)
723,"Northwest Mexico","BAJA_CALIFORNIA SUR","LORETO","PUNTA_TINTORERA",26.0722421,-111.1298551,"Into MPA","6","1.924854528","0.172413793","3","63","2.097268321","7.5","15.72951241",c(-111.1298551, 26.0722421)
724,"Mexican Pacific","COLIMA","REVILLAGIGEDO","PUNTA_TOSCA",18.780817,-111.0434985,"Not take zone","NA","NA","NA","NA","NA","NA","NA","NA",c(-111.0434985, 18.780817)
725,"Northwest Mexico","BAJA_CALIFORNIA SUR","MULEGE","PUNTA_TRINIDAD",27.83135018,-112.7246575,"Into MPA","1","1.360140547","0","1","81","1.360140547","1.875","2.550263526",c(-112.7246575, 27.83135018)
726,"Yucatan Peninsula","QUINTANA_ROO","COZUMEL","PUNTA_TUNICH_WALL",20.393036,-87.025504,"Into MPA","78","3.588718153","2.068965517","1","392","5.65768367","6.875","38.89657523",c(-87.025504, 20.393036)
727,"Yucatan Peninsula","QUINTANA_ROO","PLAYA_DEL CARMEN","PUNTA_VENADITOS",20.54627,-87.155083,"Into MPA","8","2.885388891","2.586206897","2","39","5.471595788","6.25","34.19747367",c(-87.155083, 20.54627)
728,"Yucatan Peninsula","QUINTANA_ROO","PLAYA_DEL CARMEN","PUNTA_VENADO",20.54986594,-87.14115143,"Into MPA","56","3.05353575","2.75862069","2","39","5.81215644","6.25","36.32597775",c(-87.14115143, 20.54986594)
729,"Mexican Pacific","COLIMA","MANZANILLO","PUNTA_VEY",19.09524062,-104.389281,"Not protected","4","3.329097725","0.689655172","1","208","4.018752897","8.125","32.65236729",c(-104.389281, 19.09524062)
730,"Yucatan Peninsula","QUINTANA_ROO","MAHAHUAL","PUNTA_XCANAC_HALTON",19.25073352,-87.47191656,"Into MPA","1","2.551052246","0.344827586","1","405","2.895879833","0.625","1.809924895",c(-87.47191656, 19.25073352)
731,"Yucatan Peninsula","QUINTANA_ROO","TULUM","QR_CUEVITAS",20.251046,-87.372868,"Into MPA","1","2.53926995","0.517241379","0","401","3.056511329","7.5","22.92383497",c(-87.372868, 20.251046)
732,"Yucatan Peninsula","QUINTANA_ROO","XCALAK","QUEBRADO",18.28730337,-87.81887719,"Into MPA","2","3.260010438","0.344827586","1","409","3.604838024","5","18.02419012",c(-87.81887719, 18.28730337)
733,"Northwest Mexico","BAJA_CALIFORNIA","TIJUANA","QUEENS_POINT",32.41947964,-117.2519512,"Into MPA","3","2.037922822","0.172413793","2","36","2.210336615","7.5","16.57752462",c(-117.2519512, 32.41947964)
734,"Northwest Mexico","BAJA_CALIFORNIA","ENSENADA","RADA_NOROESTE",29.123066,-118.271723,"Into MPA","1","0.515359081","0","1","95","0.515359081","1.25","0.644198851",c(-118.271723, 29.123066)
735,"Yucatan Peninsula","QUINTANA_ROO","AKUMAL","REDES",20.38967865,-87.31179848,"Into MPA","7","3.897674508","0.689655172","0","387","4.58732968","6.875","31.53789155",c(-87.31179848, 20.38967865)
736,"Northwest Mexico","BAJA_CALIFORNIA SUR","LA_PAZ","REINA",24.444991,-109.949275,"Not protected","58","1.766823815","0","1","121","1.766823815","6.25","11.04264885",c(-109.949275, 24.444991)
737,"Northwest Mexico","BAJA_CALIFORNIA SUR","LA_PAZ","REINITA",24.388762,-109.939961,"Not protected","64","1.885420165","0","1","121","1.885420165","6.25","11.78387603",c(-109.939961, 24.388762)
738,"Northwest Mexico","BAJA_CALIFORNIA SUR","LORETO","REPOLLO",26.13759191,-111.2698097,"Not protected","5","2.122527264","0.172413793","3","63","2.294941057","7.5","17.21205793",c(-111.2698097, 26.13759191)
739,"Gulf of Mexico","VERACRUZ","VERACRUZ","RIELERO",19.14389629,-95.83473004,"Into MPA","1","2.036739165","0.862068966","0","302","2.898808131","7.5","21.74106098",c(-95.83473004, 19.14389629)
740,"Mexican Pacific","GUERRERO","ACAPULCO","RINCON",16.823013,-99.914161,"Not protected","1","3.018385701","0.344827586","3","26","3.363213287","9.375","31.53012457",c(-99.914161, 16.823013)
741,"Yucatan Peninsula","QUINTANA_ROO","MAHAHUAL","RIO_BERMEJO",18.68424022,-87.71078825,"Into MPA","2","3.126442435","0.517241379","1","408","3.643683814","7.5","27.32762861",c(-87.71078825, 18.68424022)
742,"Mexican Pacific","GUERRERO","ACAPULCO","RIO_DE_LA_PLATA",16.842483,-99.863968,"Not protected","4","2.79766515","0.344827586","3","26","3.142492736","9.375","29.4608694",c(-99.863968, 16.842483)
743,"Yucatan Peninsula","QUINTANA_ROO","MAHAHUAL","RIO_IND<U+FFFD>O",18.77040448,-87.66519948,"Into MPA","1","2.781606273","0.517241379","1","32","3.298847653","6.25","20.61779783",c(-87.66519948, 18.77040448)
744,"Yucatan Peninsula","YUCATAN","MERIDA","RIO_LAGARTOS",21.584369,-88.197397,"Not protected","1","2.849353117","0.517241379","1","61","3.366594496","4.375","14.72885092",c(-88.197397, 21.584369)
745,"Mexican Pacific","OAXACA","HUATULCO","RISCALILLO",15.69135,-96.22264217,"Into MPA","16","2.223368303","0.344827586","3","226","2.568195889","8.75","22.47171403",c(-96.22264217, 15.69135)
746,"Mexican Pacific","OAXACA","HUATULCO","ROCA_BLANCA",15.749025,-96.116468,"Not protected","5","3.592297284","0.344827586","3","226","3.93712487","8.75","34.44984261",c(-96.116468, 15.749025)
747,"Northwest Mexico","BAJA_CALIFORNIA","ENSENADA","ROCA_DEL_MERO",31.541172,-116.678107,"Not protected","1","2.07845611","0.172413793","0","94","2.250869903","4.375","9.847555826",c(-116.678107, 31.541172)
748,"Mexican Pacific","COLIMA","MANZANILLO","ROCA_ELEFANTE",19.09131951,-104.3920153,"Not protected","8","3.242801083","0.689655172","1","208","3.932456255","8.125","31.95120707",c(-104.3920153, 19.09131951)
749,"Northwest Mexico","BAJA_CALIFORNIA SUR","LA_PAZ","ROCA_MONTA<U+FFFD>A",24.1259,-109.794079,"Not protected","2","2.152277947","0.172413793","0","120","2.32469174","5","11.6234587",c(-109.794079, 24.1259)
750,"Mexican Pacific","COLIMA","REVILLAGIGEDO","ROCA_PARTIDA",18.991269,-112.069804,"Not take zone","18","0.181133326","0","3","17","0.181133326","9.375","1.698124934",c(-112.069804, 18.991269)
751,"Northwest Mexico","BAJA_CALIFORNIA SUR","LOS_CABOS","ROCA_PELICANO",24.598886,-110.399175,"Not take zone","28","1.696178061","0","0","131","1.696178061","1.25","2.120222576",c(-110.399175, 24.598886)
752,"Northwest Mexico","BAJA_CALIFORNIA SUR","LA_PAZ","ROCA_SWANY",24.391116,-110.304853,"Into MPA","62","2.239149463","0.689655172","3","29","2.928804636","5.625","16.47452608",c(-110.304853, 24.391116)
753,"Mexican Pacific","COLIMA","MANZANILLO","ROCA_TORTUGA",19.08309305,-104.4383565,"Not protected","4","2.687439073","0.689655172","1","208","3.377094245","8.125","27.43889074",c(-104.4383565, 19.08309305)
754,"Northwest Mexico","BAJA_CALIFORNIA SUR","COMONDU","ROCAS_ALIJOS",24.957848,-115.749175,"Into MPA","1","0.503535025","0","1","109","0.503535025","0.625","0.31470939",c(-115.749175, 24.957848)
755,"Northwest Mexico","SONORA","PUERTO_PENASCO","ROCKY_POINT",31.48542,-114.020107,"Into MPA","2","1.529733551","0","1","141","1.529733551","2.5","3.824333879",c(-114.020107, 31.48542)
756,"Gulf of Mexico","VERACRUZ","VERACRUZ","RODEO",19.2078087,-96.07365452,"Into MPA","1","2.756294234","1.896551724","3","6","4.652845958","7.5","34.89634468",c(-96.07365452, 19.2078087)
757,"Yucatan Peninsula","QUINTANA_ROO","PUERTO_MORELOS","RODMAN",20.883185,-86.848383,"Into MPA","2","2.821140532","0.862068966","2","381","3.683209498","8.75","32.2280831",c(-86.848383, 20.883185)
758,"Northwest Mexico","BAJA_CALIFORNIA","ENSENADA","ROSARIO",29.781209,-115.798358,"Into MPA","3","2.298695478","0.172413793","2","96","2.471109271","0","0",c(-115.798358, 29.781209)
759,"Yucatan Peninsula","QUINTANA_ROO","PLAYA_DEL CARMEN","SABALOS",20.65593781,-87.02059593,"Into MPA","45","2.819677101","2.068965517","0","384","4.888642618","8.125","39.72022127",c(-87.02059593, 20.65593781)
760,"Mexican Pacific","GUERRERO","IXTAPA","SACRAMENTO",17.6329454,-101.6089493,"Not protected","7","2.918851672","0.862068966","3","58","3.780920637","8.75","33.08305558",c(-101.6089493, 17.6329454)
761,"Mexican Pacific","GUERRERO","IXTAPA","SACRAMENTO_BAJO",17.63109572,-101.6100487,"Not protected","6","2.947598509","0.862068966","3","58","3.809667475","8.75","33.3345904",c(-101.6100487, 17.63109572)
762,"Gulf of Mexico","VERACRUZ","VERACRUZ","SAL_MEDINA",19.09693793,-95.98758622,"Into MPA","14","2.977803031","1.896551724","0","301","4.874354755","7.5","36.55766066",c(-95.98758622, 19.09693793)
763,"Northwest Mexico","BAJA_CALIFORNIA","BAHIA DE LOS ANGELES","SALSIPUEDES",28.718918,-112.948851,"Into MPA","3","1.299967381","0","2","140","1.299967381","5","6.499836906",c(-112.948851, 28.718918)
764,"Northwest Mexico","BAJA_CALIFORNIA","ENSENADA","SAN_AGUSTIN",28.06689583,-115.3215141,"Into MPA","1","2.148640051","0.172413793","2","37","2.321053844","0","0",c(-115.3215141, 28.06689583)
765,"Mexican Pacific","OAXACA","HUATULCO","SAN_AGUSTIN",15.683572,-96.228327,"Into MPA","7","2.186060216","0.344827586","3","226","2.530887802","8.75","22.14526827",c(-96.228327, 15.683572)
766,"Northwest Mexico","BAJA_CALIFORNIA","ENSENADA","SAN_ANTONIO_DEL_MAR",31.0748597,-116.3661562,"Not protected","1","1.232479641","0","0","94","1.232479641","4.375","5.392098429",c(-116.3661562, 31.0748597)
767,"Northwest Mexico","SONORA","GUAYMAS","SAN_ANTONIO_POINT",27.93625569,-111.1064588,"Not protected","7","3.52083257","0.862068966","3","43","4.382901535","8.125","35.61107497",c(-111.1064588, 27.93625569)
768,"Northwest Mexico","BAJA_CALIFORNIA","ENSENADA","SAN_BENITO",28.300541,-115.578216,"Into MPA","1","1.473058537","0","2","37","1.473058537","0","0",c(-115.578216, 28.300541)
769,"Yucatan Peninsula","QUINTANA_ROO","COZUMEL","SAN_CLEMENTE",20.358139,-87.032195,"Into MPA","2","3.505914935","2.068965517","1","390","5.574880452","6.25","34.84300282",c(-87.032195, 20.358139)
770,"Northwest Mexico","BAJA_CALIFORNIA SUR","LOS_CABOS","SAN_CRISTOBAL",22.949557,-110.062037,"Not protected","1","2.035509905","0.172413793","3","17","2.207923698","9.375","20.69928467",c(-110.062037, 22.949557)
771,"Northwest Mexico","BAJA_CALIFORNIA SUR","LA_PAZ","SAN_DIEGO_ABNEGADO",25.182633,-110.710011,"Not protected","3","1.78875527","0","0","132","1.78875527","1.25","2.235944087",c(-110.710011, 25.182633)
772,"Mexican Pacific","GUERRERO","IXTAPA","SAN_ESTEBAN",17.62172218,-101.572755,"Not protected","7","3.402305567","0.862068966","2","93","4.264374533","8.75","37.31327716",c(-101.572755, 17.62172218)
773,"Northwest Mexico","BAJA_CALIFORNIA SUR","LA_PAZ","SAN_EVARISTO",24.92038385,-110.6977474,"Not protected","1","3.514357863","0.344827586","0","132","3.859185449","1.25","4.823981812",c(-110.6977474, 24.92038385)
774,"Northwest Mexico","BAJA_CALIFORNIA SUR","LA_PAZ","SAN_FRANCISCO",24.81920491,-110.5719638,"Not protected","28","2.211591538","0.344827586","0","131","2.556419125","1.25","3.195523906",c(-110.5719638, 24.81920491)
775,"Yucatan Peninsula","QUINTANA_ROO","COZUMEL","SAN_FRANCISCO_REEF",20.37072928,-87.02676058,"Into MPA","81","4.110557931","2.068965517","1","390","6.179523448","6.25","38.62202155",c(-87.02676058, 20.37072928)
776,"Northwest Mexico","BAJA_CALIFORNIA SUR","MULEGE","SAN_IDELFONSO_PUNTA_NORTE",26.64822028,-111.4349997,"Not protected","1","2.129313278","0.344827586","0","134","2.474140864","1.25","3.09267608",c(-111.4349997, 26.64822028)
777,"Northwest Mexico","BAJA_CALIFORNIA","ENSENADA","SAN_JOSE_DEL_FARO",29.27972046,-114.8787653,"Not protected","1","1.779405691","0","0","97","1.779405691","0","0",c(-114.8787653, 29.27972046)
778,"Gulf of Mexico","VERACRUZ","COATZACOALCOS","SAN_JUAN",18.228355,-94.467804,"Not protected","4","2.351221544","0.862068966","1","7","3.21329051","4.375","14.05814598",c(-94.467804, 18.228355)
779,"Mexican Pacific","MICHOACAN","BUCERIAS","SAN_JUAN_DE_ALIMAS",18.569788,-103.682554,"Not protected","1","2.170708098","0.172413793","0","211","2.343121891","3.75","8.786707091",c(-103.682554, 18.569788)
780,"Northwest Mexico","BAJA_CALIFORNIA SUR","LA_PAZ","SAN_JUAN_NEPOMUCENO",24.30042677,-110.3386967,"Into MPA","1","3.245448623","1.896551724","3","29","5.142000347","5.625","28.92375195",c(-110.3386967, 24.30042677)
781,"Yucatan Peninsula","QUINTANA_ROO","COZUMEL","SAN_JUAN_REEF",20.533427,-86.940211,"Not protected","62","5","3.103448276","3","388","8.103448276","7.5","60.77586207",c(-86.940211, 20.533427)
782,"Mexican Pacific","GUERRERO","ACAPULCO","SAN_LORENZO",16.854629,-99.874407,"Not protected","1","2.837178955","0.344827586","3","26","3.182006541","9.375","29.83131132",c(-99.874407, 16.854629)
783,"Northwest Mexico","BAJA_CALIFORNIA","BAHIA DE LOS ANGELES","SAN_LORENZO_NORT",28.68210361,-112.8715532,"Not take zone","1","1.227659536","0","2","140","1.227659536","5","6.138297681",c(-112.8715532, 28.68210361)
784,"Northwest Mexico","BAJA_CALIFORNIA","BAHIA DE LOS ANGELES","SAN_LORENZO_SUR",28.58279969,-112.7332456,"Into MPA","1","1.196770525","0","0","143","1.196770525","3.125","3.739907891",c(-112.7332456, 28.58279969)
785,"Northwest Mexico","BAJA_CALIFORNIA","ENSENADA","SAN_LUIS_GONZAGA",29.812355,-114.374312,"Not protected","2","0.923298517","0","2","140","0.923298517","5","4.616492584",c(-114.374312, 29.812355)
786,"Yucatan Peninsula","QUINTANA_ROO","CANCUN","SAN_MIGUEL",21.073037,-86.733789,"Not protected","1","2.852592932","4.827586207","2","370","7.680179139","6.875","52.80123158",c(-86.733789, 21.073037)
787,"Northwest Mexico","BAJA_CALIFORNIA SUR","LA_PAZ","SAN_RAFAELITO",24.298273,-110.346282,"Into MPA","39","3.159793575","1.896551724","3","29","5.056345299","5.625","28.44194231",c(-110.346282, 24.298273)
788,"Northwest Mexico","BAJA_CALIFORNIA SUR","LA_PAZ","SAN_RAMON",23.94945473,-110.8787447,"Not protected","1","1.159065682","0","0","116","1.159065682","5","5.795328409",c(-110.8787447, 23.94945473)
789,"Northwest Mexico","BAJA_CALIFORNIA","ENSENADA","SAN_TELMO",30.94145254,-116.349515,"Not protected","1","1.289629708","0","1","95","1.289629708","1.25","1.612037135",c(-116.349515, 30.94145254)
790,"Yucatan Peninsula","QUINTANA_ROO","CANCUN","SAN_TORIBIO",21.12280754,-86.72140782,"Into MPA","14","3.06571582","4.827586207","1","379","7.893302027","6.875","54.26645143",c(-86.72140782, 21.12280754)
791,"Northwest Mexico","BAJA_CALIFORNIA SUR","MULEGE","SANTA_ANA",27.68863067,-112.6183495,"Into MPA","1","1.543488305","0","1","81","1.543488305","1.875","2.894040572",c(-112.6183495, 27.68863067)
792,"Yucatan Peninsula","QUINTANA_ROO","XCALAK","SANTA_JULIA",18.42085373,-87.73485352,"Not take zone","2","2.036325232","0.344827586","1","409","2.381152818","5","11.90576409",c(-87.73485352, 18.42085373)
793,"Northwest Mexico","BAJA_CALIFORNIA SUR","LOS_CABOS","SANTA_MARIA",22.924872,-109.813931,"Not protected","10","2.307829041","0.344827586","3","17","2.652656627","9.375","24.86865588",c(-109.813931, 22.924872)
794,"Yucatan Peninsula","QUINTANA_ROO","COZUMEL","SANTA_ROSA_REFF",20.36551923,-87.02735066,"Into MPA","86","3.89763459","2.068965517","1","390","5.966600107","6.25","37.29125067",c(-87.02735066, 20.36551923)
795,"Yucatan Peninsula","QUINTANA_ROO","CANCUN","SANTO_REMEDIO",21.173861,-86.731782,"Into MPA","3","2.920715488","5","1","379","7.920715488","6.875","54.45491898",c(-86.731782, 21.173861)
796,"Yucatan Peninsula","QUINTANA_ROO","CANCUN","SANWICH",21.16550871,-86.733152,"Into MPA","1","2.998863184","5","1","379","7.998863184","6.875","54.99218439",c(-86.733152, 21.16550871)
797,"Gulf of Mexico","VERACRUZ","VERACRUZ","SARGAZOS",19.09701723,-95.94551961,"Into MPA","1","2.742793048","1.724137931","0","301","4.466930979","7.5","33.50198234",c(-95.94551961, 19.09701723)
798,"Yucatan Peninsula","QUINTANA_ROO","XCALAK","SCOTT'S_PLAYGROUND",18.14120138,-87.81292253,"Not protected","2","2.15700319","0.344827586","1","89","2.501830776","5","12.50915388",c(-87.81292253, 18.14120138)
799,"Mexican Pacific","GUERRERO","ACAPULCO","SDA_BEACH",16.829458,-99.901054,"Not protected","1","3.32665788","0.344827586","3","26","3.671485466","9.375","34.42017624",c(-99.901054, 16.829458)
800,"Northwest Mexico","BAJA_CALIFORNIA","TIJUANA","SEAL_COVE",32.40724158,-117.2484791,"Into MPA","3","2.059558528","0.172413793","2","36","2.231972321","7.5","16.73979241",c(-117.2484791, 32.40724158)
801,"Yucatan Peninsula","QUINTANA_ROO","PLAYA_DEL CARMEN","SHANGRI_LA",20.68486081,-87.00307972,"Not protected","34","2.762818179","1.896551724","2","382","4.659369903","6.875","32.03316808",c(-87.00307972, 20.68486081)
802,"Yucatan Peninsula","QUINTANA_ROO","PLAYA_DEL CARMEN","SHARK_POINT",20.58468994,-87.10606097,"Into MPA","23","3.106610173","2.75862069","2","39","5.865230862","6.25","36.65769289",c(-87.10606097, 20.58468994)
803,"Yucatan Peninsula","QUINTANA_ROO","XCALAK","SIETE_COCOS",18.34066673,-87.79908951,"Into MPA","3","2.544775659","0.344827586","1","409","2.889603245","5","14.44801623",c(-87.79908951, 18.34066673)
804,"Mexican Pacific","GUERRERO","ACAPULCO","SIETE_PULPOS",16.829236,-99.91612,"Not protected","1","3.05652571","0.344827586","3","26","3.401353297","9.375","31.88768716",c(-99.91612, 16.829236)
805,"Yucatan Peninsula","YUCATAN","MERIDA","SISAL",21.178688,-90.036602,"Not protected","3","3.721846985","0.344827586","1","82","4.066674571","4.375","17.79170125",c(-90.036602, 21.178688)
806,"Mexican Pacific","COLIMA","REVILLAGIGEDO","SOCORRO",18.779559,-111.043402,"Not take zone","NA","NA","NA","NA","NA","NA","NA","NA",c(-111.043402, 18.779559)
807,"Northwest Mexico","BAJA_CALIFORNIA","ENSENADA","SOLEDAD",31.548824,-116.70556,"Not protected","1","2.09606771","0.172413793","0","94","2.268481503","4.375","9.924606576",c(-116.70556, 31.548824)
808,"Northwest Mexico","BAJA_CALIFORNIA SUR","LORETO","SOMBRERITO",26.06787306,-111.0716107,"Into MPA","5","1.807575369","0","3","63","1.807575369","7.5","13.55681527",c(-111.0716107, 26.06787306)
809,"Northwest Mexico","BAJA_CALIFORNIA","ENSENADA","SOUTH_CORONADO_ISLAND",32.38991667,-117.23915,"Into MPA","1","2.110895862","0.172413793","2","36","2.283309655","7.5","17.12482241",c(-117.23915, 32.38991667)
810,"Northwest Mexico","BAJA_CALIFORNIA SUR","LOS_CABOS","SOUTH_WALL",22.877737,-109.896293,"Into MPA","20","3.499458101","0.172413793","3","17","3.671871894","9.375","34.42379901",c(-109.896293, 22.877737)
811,"Yucatan Peninsula","QUINTANA_ROO","TULUM","STINGRAY",20.176095,-87.426846,"Into MPA","2","2.94821648","0.172413793","0","401","3.120630273","7.5","23.40472705",c(-87.426846, 20.176095)
812,"Northwest Mexico","BAJA_CALIFORNIA SUR","LORETO","SUBMARINO",25.76387454,-111.2442391,"Into MPA","9","2.457782798","0.172413793","3","35","2.630196591","4.375","11.50711009",c(-111.2442391, 25.76387454)
813,"Gulf of Mexico","VERACRUZ","VERACRUZ","SUBMARINO_VER",19.08502432,-95.843804,"Into MPA","1","2.156112572","0.862068966","0","302","3.018181538","7.5","22.63636153",c(-95.843804, 19.08502432)
814,"Gulf of Mexico","VERACRUZ","VERACRUZ","SUESTE",19.22035,-96.04876667,"Into MPA","1","2.479110948","1.896551724","3","6","4.375662672","7.5","32.81747004",c(-96.04876667, 19.22035)
815,"Mexican Pacific","OAXACA","HUATULCO","TANGOLUNDA",15.767474,-96.094765,"Not protected","2","3.054564492","0.344827586","3","40","3.399392078","8.75","29.74468068",c(-96.094765, 15.767474)
816,"Gulf of Mexico","VERACRUZ","TUXPAN","TANGUIJO",21.144098,-97.272485,"Into MPA","9","2.350980694","1.034482759","0","285","3.385463452","3.75","12.69548795",c(-97.272485, 21.144098)
817,"Yucatan Peninsula","QUINTANA_ROO","TULUM","TANK_HA_DEEP",20.238414,-87.355124,"Into MPA","1","2.440215827","0.517241379","0","401","2.957457207","7.5","22.18092905",c(-87.355124, 20.238414)
818,"Mexican Pacific","OAXACA","HUATULCO","TAPESCOS",15.75802973,-96.09509092,"Not protected","16","3.138878929","0.344827586","3","40","3.483706515","8.75","30.48243201",c(-96.09509092, 15.75802973)
819,"Yucatan Peninsula","QUINTANA_ROO","PLAYA_DEL CARMEN","TARPON",20.581271,-87.110006,"Into MPA","12","3.21122593","2.75862069","2","39","5.96984662","6.25","37.31154137",c(-87.110006, 20.581271)
820,"Yucatan Peninsula","QUINTANA_ROO","XCALAK","TARPON_HOLE",18.260878,-87.825066,"Into MPA","1","3.328161549","0.344827586","1","89","3.672989136","5","18.36494568",c(-87.825066, 18.260878)
821,"Northwest Mexico","JALISCO","BAHIA_DE TENACATITA","TENACATITA",19.276899,-104.868584,"Not protected","1","2.052706064","0.344827586","0","207","2.397533651","6.875","16.48304385",c(-104.868584, 19.276899)
822,"Northwest Mexico","BAJA_CALIFORNIA","ROSARITO","TERRON_DE_AZUCAR",32.2214,-116.958,"Not protected","2","2.006040036","0.344827586","3","42","2.350867622","4.375","10.28504585",c(-116.958, 32.2214)
823,"Northwest Mexico","BAJA_CALIFORNIA","TIJUANA","THE_GAP",32.41916179,-117.2640047,"Into MPA","3","2.000201215","0.172413793","2","36","2.172615008","7.5","16.29461256",c(-117.2640047, 32.41916179)
824,"Northwest Mexico","SONORA","GUAYMAS","THE_LITTLE_WATERFALL",27.961243,-111.368235,"Not protected","7","1.910962","0","1","147","1.910962","5.625","10.74916125",c(-111.368235, 27.961243)
825,"Northwest Mexico","SONORA","GUAYMAS","THE_ROOKERY",27.955821,-111.374735,"Not protected","8","1.894829489","0","1","147","1.894829489","5.625","10.65841588",c(-111.374735, 27.955821)
826,"Yucatan Peninsula","QUINTANA_ROO","ISLA_MUJERES","TIBURONES_DORMIDOS",21.26551121,-86.7369468,"Not protected","10","2.876600592","4.655172414","3","24","7.531773005","9.375","70.61037193",c(-86.7369468, 21.26551121)
827,"Mexican Pacific","GUERRERO","IXTAPA","TIGRE",17.63518835,-101.583276,"Not protected","6","3.099221731","0.862068966","2","93","3.961290696","8.75","34.66129359",c(-101.583276, 17.63518835)
828,"Mexican Pacific","OAXACA","HUATULCO","TIGRE",15.70615165,-96.18948439,"Into MPA","16","2.427028653","0.344827586","3","226","2.771856239","8.75","24.25374209",c(-96.18948439, 15.70615165)
829,"Northwest Mexico","BAJA_CALIFORNIA SUR","LORETO","TIJERETAS",26.11774263,-111.2603297,"Into MPA","11","2.195735343","0.172413793","3","63","2.368149136","7.5","17.76111852",c(-111.2603297, 26.11774263)
830,"Yucatan Peninsula","QUINTANA_ROO","COZUMEL","TORMENTO_REEF",20.44075,-87.00465,"Into MPA","75","3.053413682","2.75862069","1","395","5.812034372","8.75","50.85530076",c(-87.00465, 20.44075)
831,"Mexican Pacific","GUERRERO","IXTAPA","TORRECILLAS",17.64558952,-101.632526,"Not protected","8","3.150673336","0.689655172","3","58","3.840328509","8.75","33.60287445",c(-101.632526, 17.64558952)
832,"Yucatan Peninsula","QUINTANA_ROO","PLAYA_DEL CARMEN","TORTUGA",20.58226127,-87.10850358,"Into MPA","55","3.21122593","2.75862069","2","39","5.96984662","6.25","37.31154137",c(-87.10850358, 20.58226127)
833,"Northwest Mexico","BAJA_CALIFORNIA SUR","LOS_CABOS","TRES_AMIGOS",22.914231,-109.822625,"Not protected","8","2.37946796","0.172413793","3","17","2.551881753","9.375","23.92389144",c(-109.822625, 22.914231)
834,"Northwest Mexico","BAJA_CALIFORNIA","ENSENADA","TRES_HERMANAS",31.729934,-116.680681,"Not protected","1","2.168531609","0.689655172","3","21","2.858186781","7.5","21.43640086",c(-116.680681, 31.729934)
835,"Northwest Mexico","SONORA","GUAYMAS","TRES_MARIAS",27.93493042,-111.076905,"Not protected","5","3.130223371","1.896551724","3","148","5.026775096","8.75","43.98428209",c(-111.076905, 27.93493042)
836,"Northwest Mexico","SONORA","PUERTO_PENASCO","TUCSON_BEACH",31.346336,-113.641566,"Into MPA","2","2.800530082","0.344827586","1","141","3.145357668","2.5","7.86339417",c(-113.641566, 31.346336)
837,"Northwest Mexico","SONORA","HERMOSILLO","TURNER",28.715522,-112.291984,"Not protected","4","1.665444953","0","0","143","1.665444953","3.125","5.204515478",c(-112.291984, 28.715522)
838,"Gulf of Mexico","VERACRUZ","TUXPAN","TUX_ENMEDIO",21.083274,-97.254366,"Into MPA","7","2.33193367","0.862068966","0","285","3.194002635","3.75","11.97750988",c(-97.254366, 21.083274)
839,"Yucatan Peninsula","QUINTANA_ROO","BANCO_CHINCHORROS","TWO_STEP",18.6411587,-87.41563272,"Into MPA","6","2.245299028","0.172413793","1","406","2.417712822","1.875","4.53321154",c(-87.41563272, 18.6411587)
840,"Yucatan Peninsula","QUINTANA_ROO","AKUMAL","TZIMINA_HA",20.38312777,-87.31438772,"Into MPA","3","3.588709163","0.689655172","0","387","4.278364335","6.875","29.4137548",c(-87.31438772, 20.38312777)
841,"Northwest Mexico","BAJA_CALIFORNIA SUR","CABO_PULMO","VENCEDOR",23.447111,-109.418069,"Not take zone","50","2.494889409","0.172413793","0","117","2.667303202","4.375","11.66945151",c(-109.418069, 23.447111)
842,"Yucatan Peninsula","QUINTANA_ROO","COZUMEL","VILLA_BLANCA",20.51605833,-86.95430556,"Not protected","NA","NA","NA","NA","NA","NA","NA","NA",c(-86.95430556, 20.51605833)
843,"Mexican Pacific","OAXACA","HUATULCO","VIOLIN",15.7345434,-96.13230227,"Into MPA","16","3.241394117","0.344827586","3","226","3.586221703","8.75","31.3794399",c(-96.13230227, 15.7345434)
844,"Gulf of Mexico","VERACRUZ","VERACRUZ","VIRGEN",19.229683,-96.063616,"Into MPA","3","2.549912465","1.724137931","3","6","4.274050396","7.5","32.05537797",c(-96.063616, 19.229683)
845,"Northwest Mexico","BAJA_CALIFORNIA","ENSENADA","WESTGATE",31.507351,-117.484802,"Not protected","1","1.207954168","0","1","75","1.207954168","3.75","4.52982813",c(-117.484802, 31.507351)
846,"Northwest Mexico","SONORA","GUAYMAS","WINDOW_ROCK",27.93462748,-110.9917581,"Not protected","6","2.841931606","1.896551724","0","66","4.73848333","8.125","38.50017706",c(-110.9917581, 27.93462748)
847,"Yucatan Peninsula","QUINTANA_ROO","AKUMAL","XAAK",20.43359022,-87.28015326,"Into MPA","4","2.709788501","0.862068966","0","387","3.571857466","6.875","24.55652008",c(-87.28015326, 20.43359022)
848,"Yucatan Peninsula","QUINTANA_ROO","PLAYA_DEL CARMEN","XACALACOCO",20.688822,-86.9034,"Into MPA","9","2.457615925","1.724137931","2","382","4.181753856","6.875","28.74955776",c(-86.9034, 20.688822)
849,"Yucatan Peninsula","QUINTANA_ROO","COZUMEL","XPALBARCO",20.425018,-86.808712,"Into MPA","1","1.761778574","1.896551724","1","389","3.658330298","8.125","29.72393367",c(-86.808712, 20.425018)
850,"Yucatan Peninsula","QUINTANA_ROO","PUERTO_AVENTURAS","XPU_HA_CA<U+FFFD>ON",20.469622,-87.248367,"Into MPA","2","2.868254362","0.862068966","1","386","3.730323328","8.125","30.30887704",c(-87.248367, 20.469622)
851,"Yucatan Peninsula","QUINTANA_ROO","AKUMAL","YAIKU",20.41500057,-87.29530298,"Into MPA","8","3.053353421","0.689655172","0","387","3.743008593","6.875","25.73318408",c(-87.29530298, 20.41500057)
852,"Yucatan Peninsula","QUINTANA_ROO","AKUMAL","YAIKU_NORTH",20.40558333,-87.30172222,"Into MPA","NA","NA","NA","NA","NA","NA","NA","NA",c(-87.30172222, 20.40558333)
853,"Northwest Mexico","JALISCO","PUERTO_VALLARTA","YELAPA",20.503029,-105.462692,"Not protected","1","3.339532524","0.862068966","0","92","4.201601489","5.625","23.63400838",c(-105.462692, 20.503029)
854,"Yucatan Peninsula","QUINTANA_ROO","AKUMAL","YOLKANAL",20.422558,-87.292891,"Not protected","NA","NA","NA","NA","NA","NA","NA","NA",c(-87.292891, 20.422558)
855,"Yucatan Peninsula","QUINTANA_ROO","COZUMEL","YUCAB_REEF",20.40550542,-87.02119231,"Into MPA","87","4.110696465","2.413793103","1","393","6.524489569","6.25","40.7780598",c(-87.02119231, 20.40550542)
856,"Mexican Pacific","GUERRERO","IXTAPA","YUNQUE",17.61533888,-101.5320944,"Not protected","6","3.007065127","0.862068966","1","215","3.869134093","8.75","33.85492331",c(-101.5320944, 17.61533888)
857,"Yucatan Peninsula","QUINTANA_ROO","ISLA_MUJERES","ZAC_BAJO",21.23530068,-86.74290189,"Into MPA","3","3.604600317","4.827586207","3","24","8.432186524","9.375","79.05174866",c(-86.74290189, 21.23530068)
858,"Northwest Mexico","BAJA_CALIFORNIA SUR","LOS_CABOS","ZACATITOS",23.07721,-109.572098,"Not protected","2","2.351875942","0.172413793","3","23","2.524289735","9.375","23.66521627",c(-109.572098, 23.07721)
859,"Mexican Pacific","GUERRERO","IXTAPA","ZACATOSO",17.65378,-101.624227,"Not protected","1","3.501663616","0.689655172","3","58","4.191318788","8.75","36.67403939",c(-101.624227, 17.65378)
860,"Northwest Mexico","SONORA","GUAYMAS","ZORRO'S_CAVE/LALO ROCK",27.93434148,-111.0972645,"Not protected","5","3.341331427","1.034482759","3","43","4.375814186","8.125","35.55349026",c(-111.0972645, 27.93434148)
